{
  "type": "FeatureCollection",
  "features": [
    {
      "type": "Feature",
      "properties": {
        "name": "Pol\u00edgono 1"
      },
      "geometry": {
        "type": "Polygon",
        "coordinates": [
          [
            [
              -9.1729222,
              38.7636264
            ],
            [
              -9.1708336,
              38.7632323
            ],
            [
              -9.1669712,
              38.7633401
            ],
            [
              -9.1669617,
              38.7640019
            ],
            [
              -9.166647,
              38.7646005
            ],
            [
              -9.1666327,
              38.7648645
            ],
            [
              -9.1672907,
              38.7656811
            ],
            [
              -9.1672859,
              38.7659153
            ],
            [
              -9.1667853,
              38.7665213
            ],
            [
              -9.1662798,
              38.7669823
            ],
            [
              -9.1653106,
              38.7670493
            ],
            [
              -9.1641758,
              38.7704673
            ],
            [
              -9.1640125,
              38.7709497
            ],
            [
              -9.1643749,
              38.7709311
            ],
            [
              -9.1649709,
              38.7706969
            ],
            [
              -9.1662202,
              38.7703065
            ],
            [
              -9.1672931,
              38.7699868
            ],
            [
              -9.1687665,
              38.769299
            ],
            [
              -9.1698639,
              38.768805
            ],
            [
              -9.1707531,
              38.7683394
            ],
            [
              -9.1718254,
              38.7673007
            ],
            [
              -9.172679,
              38.7655235
            ],
            [
              -9.1728125,
              38.764568
            ],
            [
              -9.1729222,
              38.7636264
            ]
          ]
        ]
      }
    },
    {
      "type": "Feature",
      "properties": {
        "name": "Pol\u00edgono 2"
      },
      "geometry": {
        "type": "Polygon",
        "coordinates": [
          [
            [
              -9.1630725,
              38.7760291
            ],
            [
              -9.166582,
              38.7745719
            ],
            [
              -9.1689662,
              38.7744232
            ],
            [
              -9.1699008,
              38.7750923
            ],
            [
              -9.1704921,
              38.7751369
            ],
            [
              -9.1743258,
              38.7736202
            ],
            [
              -9.1750888,
              38.7724752
            ],
            [
              -9.1764406,
              38.7723376
            ],
            [
              -9.1800264,
              38.7712372
            ],
            [
              -9.1821245,
              38.769646
            ],
            [
              -9.1835991,
              38.7687156
            ],
            [
              -9.183437,
              38.7674739
            ],
            [
              -9.1843239,
              38.7667154
            ],
            [
              -9.1848925,
              38.7657423
            ],
            [
              -9.1824321,
              38.7649392
            ],
            [
              -9.182146,
              38.7635263
            ],
            [
              -9.1800669,
              38.7622324
            ],
            [
              -9.1800738,
              38.7597005
            ],
            [
              -9.1781444,
              38.757462
            ],
            [
              -9.1755791,
              38.7576851
            ],
            [
              -9.1717548,
              38.7574694
            ],
            [
              -9.1654308,
              38.757224
            ],
            [
              -9.1594274,
              38.7585775
            ],
            [
              -9.1548116,
              38.7597376
            ],
            [
              -9.1559942,
              38.7622213
            ],
            [
              -9.1567571,
              38.7641845
            ],
            [
              -9.1570051,
              38.7656122
            ],
            [
              -9.1581495,
              38.7685586
            ],
            [
              -9.1595228,
              38.7707149
            ],
            [
              -9.1600187,
              38.7721871
            ],
            [
              -9.1618307,
              38.7753247
            ],
            [
              -9.1630725,
              38.7760291
            ]
          ]
        ]
      }
    }
  ]
}