{"type":"FeatureCollection","features":[{"type":"Feature","id":"node/4271011530","properties":{"timestamp":"2016-06-29T04:59:00Z","version":"1","changeset":"40357615","user":"Josef K","uid":"47097","natural":"tree","id":"node/4271011530"},"geometry":{"type":"Point","coordinates":[-9.1655103,38.7690374]}},{"type":"Feature","id":"node/4271011532","properties":{"timestamp":"2016-06-29T04:59:00Z","version":"1","changeset":"40357615","user":"Josef K","uid":"47097","natural":"tree","id":"node/4271011532"},"geometry":{"type":"Point","coordinates":[-9.1657254,38.7690436]}},{"type":"Feature","id":"node/4271011538","properties":{"timestamp":"2016-06-29T04:59:00Z","version":"1","changeset":"40357615","user":"Josef K","uid":"47097","natural":"tree","id":"node/4271011538"},"geometry":{"type":"Point","coordinates":[-9.1655571,38.7691021]}},{"type":"Feature","id":"node/4271011540","properties":{"timestamp":"2016-06-29T04:59:00Z","version":"1","changeset":"40357615","user":"Josef K","uid":"47097","natural":"tree","id":"node/4271011540"},"geometry":{"type":"Point","coordinates":[-9.1657742,38.7691099]}},{"type":"Feature","id":"node/4271011546","properties":{"timestamp":"2016-06-29T04:59:00Z","version":"1","changeset":"40357615","user":"Josef K","uid":"47097","natural":"tree","id":"node/4271011546"},"geometry":{"type":"Point","coordinates":[-9.1658213,38.7691738]}},{"type":"Feature","id":"node/4271011547","properties":{"timestamp":"2016-06-29T04:59:00Z","version":"1","changeset":"40357615","user":"Josef K","uid":"47097","natural":"tree","id":"node/4271011547"},"geometry":{"type":"Point","coordinates":[-9.1656115,38.7691773]}},{"type":"Feature","id":"node/4271011549","properties":{"timestamp":"2016-06-29T04:59:00Z","version":"1","changeset":"40357615","user":"Josef K","uid":"47097","natural":"tree","id":"node/4271011549"},"geometry":{"type":"Point","coordinates":[-9.1658763,38.7692485]}},{"type":"Feature","id":"node/4271011550","properties":{"timestamp":"2016-06-29T04:59:00Z","version":"1","changeset":"40357615","user":"Josef K","uid":"47097","natural":"tree","id":"node/4271011550"},"geometry":{"type":"Point","coordinates":[-9.1656644,38.7692505]}},{"type":"Feature","id":"node/4271011555","properties":{"timestamp":"2016-06-29T04:59:00Z","version":"1","changeset":"40357615","user":"Josef K","uid":"47097","natural":"tree","id":"node/4271011555"},"geometry":{"type":"Point","coordinates":[-9.1657169,38.7693231]}},{"type":"Feature","id":"node/4271011557","properties":{"timestamp":"2016-06-29T04:59:00Z","version":"1","changeset":"40357615","user":"Josef K","uid":"47097","natural":"tree","id":"node/4271011557"},"geometry":{"type":"Point","coordinates":[-9.1657679,38.7693936]}},{"type":"Feature","id":"node/4271011558","properties":{"timestamp":"2016-06-29T04:59:00Z","version":"1","changeset":"40357615","user":"Josef K","uid":"47097","natural":"tree","id":"node/4271011558"},"geometry":{"type":"Point","coordinates":[-9.1660011,38.7694181]}},{"type":"Feature","id":"node/4271011562","properties":{"timestamp":"2016-06-29T04:59:00Z","version":"1","changeset":"40357615","user":"Josef K","uid":"47097","natural":"tree","id":"node/4271011562"},"geometry":{"type":"Point","coordinates":[-9.1658229,38.7694696]}},{"type":"Feature","id":"node/4271011565","properties":{"timestamp":"2016-06-29T04:59:00Z","version":"1","changeset":"40357615","user":"Josef K","uid":"47097","natural":"tree","id":"node/4271011565"},"geometry":{"type":"Point","coordinates":[-9.1658741,38.7695404]}},{"type":"Feature","id":"node/4271011566","properties":{"timestamp":"2016-06-29T04:59:00Z","version":"1","changeset":"40357615","user":"Josef K","uid":"47097","natural":"tree","id":"node/4271011566"},"geometry":{"type":"Point","coordinates":[-9.1661,38.7695525]}},{"type":"Feature","id":"node/4271011570","properties":{"timestamp":"2016-06-29T04:59:00Z","version":"1","changeset":"40357615","user":"Josef K","uid":"47097","natural":"tree","id":"node/4271011570"},"geometry":{"type":"Point","coordinates":[-9.1659254,38.7696113]}},{"type":"Feature","id":"node/4271011575","properties":{"timestamp":"2016-06-29T04:59:00Z","version":"1","changeset":"40357615","user":"Josef K","uid":"47097","natural":"tree","id":"node/4271011575"},"geometry":{"type":"Point","coordinates":[-9.1659795,38.7696861]}},{"type":"Feature","id":"node/13715708613","properties":{"timestamp":"2026-04-08T08:44:25Z","version":"1","changeset":"181036708","user":"Jimiiee","uid":"2644617","natural":"tree","id":"node/13715708613"},"geometry":{"type":"Point","coordinates":[-9.1644902,38.7699725]}},{"type":"Feature","id":"node/13715708614","properties":{"timestamp":"2026-04-08T08:44:25Z","version":"1","changeset":"181036708","user":"Jimiiee","uid":"2644617","natural":"tree","id":"node/13715708614"},"geometry":{"type":"Point","coordinates":[-9.164454,38.7700976]}},{"type":"Feature","id":"node/13715708615","properties":{"timestamp":"2026-04-08T08:44:25Z","version":"1","changeset":"181036708","user":"Jimiiee","uid":"2644617","natural":"tree","id":"node/13715708615"},"geometry":{"type":"Point","coordinates":[-9.1643864,38.7703048]}},{"type":"Feature","id":"node/13718446513","properties":{"timestamp":"2026-04-09T12:17:25Z","version":"1","changeset":"181094495","user":"Jimiiee","uid":"2644617","natural":"tree","id":"node/13718446513"},"geometry":{"type":"Point","coordinates":[-9.1661769,38.7699766]}},{"type":"Feature","id":"node/13718446514","properties":{"timestamp":"2026-04-09T12:17:25Z","version":"1","changeset":"181094495","user":"Jimiiee","uid":"2644617","natural":"tree","id":"node/13718446514"},"geometry":{"type":"Point","coordinates":[-9.166125,38.7700015]}},{"type":"Feature","id":"node/13718446515","properties":{"timestamp":"2026-04-09T12:17:25Z","version":"1","changeset":"181094495","user":"Jimiiee","uid":"2644617","natural":"tree","id":"node/13718446515"},"geometry":{"type":"Point","coordinates":[-9.1660839,38.7700229]}},{"type":"Feature","id":"node/13718446516","properties":{"timestamp":"2026-04-09T12:17:25Z","version":"1","changeset":"181094495","user":"Jimiiee","uid":"2644617","natural":"tree","id":"node/13718446516"},"geometry":{"type":"Point","coordinates":[-9.1660347,38.7700443]}},{"type":"Feature","id":"node/13718446517","properties":{"timestamp":"2026-04-09T12:17:25Z","version":"1","changeset":"181094495","user":"Jimiiee","uid":"2644617","natural":"tree","id":"node/13718446517"},"geometry":{"type":"Point","coordinates":[-9.1659314,38.7700924]}},{"type":"Feature","id":"node/13718446518","properties":{"timestamp":"2026-04-09T12:17:25Z","version":"1","changeset":"181094495","user":"Jimiiee","uid":"2644617","natural":"tree","id":"node/13718446518"},"geometry":{"type":"Point","coordinates":[-9.165856,38.7701244]}},{"type":"Feature","id":"node/13718446519","properties":{"timestamp":"2026-04-09T12:17:25Z","version":"1","changeset":"181094495","user":"Jimiiee","uid":"2644617","natural":"tree","id":"node/13718446519"},"geometry":{"type":"Point","coordinates":[-9.1657943,38.7701471]}},{"type":"Feature","id":"node/13718446520","properties":{"timestamp":"2026-04-09T12:17:25Z","version":"1","changeset":"181094495","user":"Jimiiee","uid":"2644617","natural":"tree","id":"node/13718446520"},"geometry":{"type":"Point","coordinates":[-9.1656698,38.7701325]}},{"type":"Feature","id":"node/13718446521","properties":{"timestamp":"2026-04-09T12:17:25Z","version":"1","changeset":"181094495","user":"Jimiiee","uid":"2644617","natural":"tree","id":"node/13718446521"},"geometry":{"type":"Point","coordinates":[-9.1657206,38.7701512]}},{"type":"Feature","id":"node/13718446522","properties":{"timestamp":"2026-04-09T12:17:25Z","version":"1","changeset":"181094495","user":"Jimiiee","uid":"2644617","natural":"tree","id":"node/13718446522"},"geometry":{"type":"Point","coordinates":[-9.1656681,38.7700309]}},{"type":"Feature","id":"node/13718446523","properties":{"timestamp":"2026-04-09T12:17:25Z","version":"1","changeset":"181094495","user":"Jimiiee","uid":"2644617","natural":"tree","id":"node/13718446523"},"geometry":{"type":"Point","coordinates":[-9.1661672,38.7698929]}},{"type":"Feature","id":"node/13718446524","properties":{"timestamp":"2026-04-09T12:17:25Z","version":"1","changeset":"181094495","user":"Jimiiee","uid":"2644617","natural":"tree","id":"node/13718446524"},"geometry":{"type":"Point","coordinates":[-9.1661393,38.7698506]}},{"type":"Feature","id":"node/13718446525","properties":{"timestamp":"2026-04-09T12:17:25Z","version":"1","changeset":"181094495","user":"Jimiiee","uid":"2644617","natural":"tree","id":"node/13718446525"},"geometry":{"type":"Point","coordinates":[-9.1661121,38.7698083]}},{"type":"Feature","id":"node/13718446526","properties":{"timestamp":"2026-04-09T12:17:25Z","version":"1","changeset":"181094495","user":"Jimiiee","uid":"2644617","natural":"tree","id":"node/13718446526"},"geometry":{"type":"Point","coordinates":[-9.1660458,38.7694816]}},{"type":"Feature","id":"node/13718446527","properties":{"timestamp":"2026-04-09T12:17:25Z","version":"1","changeset":"181094495","user":"Jimiiee","uid":"2644617","natural":"tree","id":"node/13718446527"},"geometry":{"type":"Point","coordinates":[-9.1668032,38.7694751]}},{"type":"Feature","id":"node/13718446528","properties":{"timestamp":"2026-04-09T12:17:25Z","version":"1","changeset":"181094495","user":"Jimiiee","uid":"2644617","natural":"tree","id":"node/13718446528"},"geometry":{"type":"Point","coordinates":[-9.1671167,38.7693358]}},{"type":"Feature","id":"node/13718446529","properties":{"timestamp":"2026-04-09T12:17:25Z","version":"1","changeset":"181094495","user":"Jimiiee","uid":"2644617","natural":"tree","id":"node/13718446529"},"geometry":{"type":"Point","coordinates":[-9.1672343,38.7692718]}},{"type":"Feature","id":"node/13718446530","properties":{"timestamp":"2026-04-09T12:17:25Z","version":"1","changeset":"181094495","user":"Jimiiee","uid":"2644617","natural":"tree","id":"node/13718446530"},"geometry":{"type":"Point","coordinates":[-9.1675199,38.7691472]}},{"type":"Feature","id":"node/13718446531","properties":{"timestamp":"2026-04-09T12:17:25Z","version":"1","changeset":"181094495","user":"Jimiiee","uid":"2644617","natural":"tree","id":"node/13718446531"},"geometry":{"type":"Point","coordinates":[-9.1675953,38.7691125]}},{"type":"Feature","id":"node/13718446532","properties":{"timestamp":"2026-04-09T12:17:25Z","version":"1","changeset":"181094495","user":"Jimiiee","uid":"2644617","natural":"tree","id":"node/13718446532"},"geometry":{"type":"Point","coordinates":[-9.1676443,38.7690902]}},{"type":"Feature","id":"node/13718446533","properties":{"timestamp":"2026-04-09T12:17:25Z","version":"1","changeset":"181094495","user":"Jimiiee","uid":"2644617","natural":"tree","id":"node/13718446533"},"geometry":{"type":"Point","coordinates":[-9.1677061,38.7690673]}},{"type":"Feature","id":"node/13718446534","properties":{"timestamp":"2026-04-09T12:17:25Z","version":"1","changeset":"181094495","user":"Jimiiee","uid":"2644617","natural":"tree","id":"node/13718446534"},"geometry":{"type":"Point","coordinates":[-9.1675757,38.7690097]}},{"type":"Feature","id":"node/13718446535","properties":{"timestamp":"2026-04-09T12:17:25Z","version":"1","changeset":"181094495","user":"Jimiiee","uid":"2644617","natural":"tree","id":"node/13718446535"},"geometry":{"type":"Point","coordinates":[-9.1676541,38.7689709]}},{"type":"Feature","id":"node/13718446536","properties":{"timestamp":"2026-04-09T12:17:25Z","version":"1","changeset":"181094495","user":"Jimiiee","uid":"2644617","natural":"tree","id":"node/13718446536"},"geometry":{"type":"Point","coordinates":[-9.1674838,38.7689257]}},{"type":"Feature","id":"node/13718446537","properties":{"timestamp":"2026-04-09T12:17:25Z","version":"1","changeset":"181094495","user":"Jimiiee","uid":"2644617","natural":"tree","id":"node/13718446537"},"geometry":{"type":"Point","coordinates":[-9.1675464,38.7696195]}}]}