{"type":"FeatureCollection","features":[{"type":"Feature","id":"relation/6365185","properties":{"timestamp":"2016-06-29T04:59:04Z","version":"1","changeset":"40357615","user":"Josef K","uid":"47097","building":"school","type":"multipolygon","id":"relation/6365185"},"geometry":{"type":"Polygon","coordinates":[[[-9.1683435,38.7673638],[-9.1684615,38.7673111],[-9.1684459,38.7672898],[-9.1684654,38.767281],[-9.1684352,38.7672399],[-9.1683762,38.7671596],[-9.1684011,38.7671484],[-9.1683011,38.7670123],[-9.1682382,38.7670404],[-9.1681713,38.7669494],[-9.1680143,38.7670196],[-9.1680876,38.7671193],[-9.1677877,38.7672532],[-9.1678648,38.7673581],[-9.1678235,38.7673765],[-9.167982,38.7675922],[-9.1683805,38.7674142],[-9.1683435,38.7673638]],[[-9.1682162,38.7673377],[-9.1680872,38.7673953],[-9.1680117,38.7672925],[-9.1681407,38.7672349],[-9.1682162,38.7673377]]]}},{"type":"Feature","id":"way/336011137","properties":{"timestamp":"2025-04-20T18:37:16Z","version":"5","changeset":"165208128","user":"PedroMTG13","uid":"12609629","building":"storage_tank","content":"water","man_made":"covered=reservoir","id":"way/336011137"},"geometry":{"type":"Polygon","coordinates":[[[-9.1696213,38.7669203],[-9.169889,38.7659635],[-9.1686604,38.7657545],[-9.1683927,38.7667113],[-9.1696213,38.7669203]]]}},{"type":"Feature","id":"way/336011138","properties":{"timestamp":"2025-04-20T18:37:16Z","version":"5","changeset":"165208128","user":"PedroMTG13","uid":"12609629","building":"storage_tank","content":"water","man_made":"covered=reservoir","id":"way/336011138"},"geometry":{"type":"Polygon","coordinates":[[[-9.1701837,38.7648612],[-9.1689695,38.7646534],[-9.1687009,38.7656068],[-9.1699151,38.7658148],[-9.1701837,38.7648612]]]}},{"type":"Feature","id":"way/427932960","properties":{"timestamp":"2026-04-08T08:44:25Z","version":"4","changeset":"181036708","user":"Jimiiee","uid":"2644617","building":"college","nohousenumber":"yes","id":"way/427932960"},"geometry":{"type":"Polygon","coordinates":[[[-9.1655276,38.7679419],[-9.1657637,38.7682871],[-9.1659982,38.7681849],[-9.165957,38.768118],[-9.1660252,38.7680897],[-9.1659367,38.7679602],[-9.1659192,38.7679677],[-9.1658976,38.7679371],[-9.165864,38.7679505],[-9.165847,38.7679572],[-9.1657724,38.767848],[-9.1655276,38.7679419]]]}},{"type":"Feature","id":"way/427932961","properties":{"timestamp":"2023-07-01T10:55:33Z","version":"2","changeset":"137987685","user":"tomasrm22","uid":"19736714","building":"school","nohousenumber":"yes","id":"way/427932961"},"geometry":{"type":"Polygon","coordinates":[[[-9.1662314,38.7675621],[-9.1661898,38.767503],[-9.1661789,38.7675077],[-9.1661634,38.7674857],[-9.1661743,38.767481],[-9.1661284,38.7674159],[-9.1658532,38.7675337],[-9.165841,38.7675164],[-9.1656906,38.7675808],[-9.1657893,38.767721],[-9.1659397,38.7676566],[-9.1659562,38.7676799],[-9.1662314,38.7675621]]]}},{"type":"Feature","id":"way/427932962","properties":{"timestamp":"2023-07-01T10:55:53Z","version":"2","changeset":"137987685","user":"tomasrm22","uid":"19736714","building":"school","nohousenumber":"yes","id":"way/427932962"},"geometry":{"type":"Polygon","coordinates":[[[-9.1665099,38.7677586],[-9.1664417,38.7677883],[-9.1664315,38.767774],[-9.1662734,38.7678429],[-9.1662909,38.7678674],[-9.1660885,38.7679556],[-9.166096,38.767966],[-9.1660245,38.7679972],[-9.1661299,38.7681443],[-9.1662811,38.7680784],[-9.1662722,38.768066],[-9.1663989,38.7680107],[-9.1663736,38.7679755],[-9.1664423,38.7679455],[-9.1664497,38.7679559],[-9.1666033,38.7678889],[-9.1665099,38.7677586]]]}},{"type":"Feature","id":"way/427932963","properties":{"timestamp":"2016-06-29T04:13:31Z","version":"1","changeset":"40357254","user":"Josef K","uid":"47097","building":"roof","id":"way/427932963"},"geometry":{"type":"Polygon","coordinates":[[[-9.1666824,38.7678163],[-9.1665656,38.7676506],[-9.1664119,38.7677165],[-9.1663158,38.7675778],[-9.1663315,38.7675485],[-9.1664848,38.7674828],[-9.1664606,38.7674484],[-9.1663079,38.7675157],[-9.1662889,38.7675425],[-9.1662454,38.7675612],[-9.1657439,38.7677762],[-9.1657617,38.7678015],[-9.1657785,38.7677941],[-9.1657989,38.7677856],[-9.1662714,38.767583],[-9.1663763,38.7677318],[-9.1658976,38.7679371],[-9.1659192,38.7679677],[-9.1659367,38.7679602],[-9.1665465,38.7676987],[-9.1666543,38.7678515],[-9.1666724,38.7678437],[-9.166695,38.767834],[-9.1666824,38.7678163]]]}},{"type":"Feature","id":"way/427932964","properties":{"timestamp":"2023-07-01T10:55:48Z","version":"2","changeset":"137987685","user":"tomasrm22","uid":"19736714","building":"school","nohousenumber":"yes","id":"way/427932964"},"geometry":{"type":"Polygon","coordinates":[[[-9.1667165,38.7673112],[-9.1664651,38.7674194],[-9.1666251,38.7676454],[-9.1668765,38.7675371],[-9.1667165,38.7673112]]]}},{"type":"Feature","id":"way/427932965","properties":{"timestamp":"2024-11-02T14:08:25Z","version":"2","changeset":"158660349","user":"Dilxe","uid":"16603393","building":"roof","layer":"1","id":"way/427932965"},"geometry":{"type":"Polygon","coordinates":[[[-9.1657617,38.7678015],[-9.165864,38.7679505],[-9.1658976,38.7679371],[-9.1657989,38.7677856],[-9.1657785,38.7677941],[-9.1657617,38.7678015]]]}},{"type":"Feature","id":"way/427932966","properties":{"timestamp":"2024-03-21T12:34:30Z","version":"3","changeset":"148961063","user":"tomasrm22","uid":"19736714","building":"school","building:levels":"3","nohousenumber":"yes","roof:levels":"2","id":"way/427932966"},"geometry":{"type":"Polygon","coordinates":[[[-9.1664651,38.7674194],[-9.1667165,38.7673112],[-9.1666115,38.767163],[-9.1662649,38.7673123],[-9.1663698,38.7674605],[-9.1664651,38.7674194]]]}},{"type":"Feature","id":"way/427932967","properties":{"timestamp":"2023-07-01T11:02:48Z","version":"2","changeset":"137987672","user":"tomasrm22","uid":"19736714","building":"guardhouse","id":"way/427932967"},"geometry":{"type":"Polygon","coordinates":[[[-9.1668808,38.7681167],[-9.1668228,38.7681434],[-9.1668652,38.7681993],[-9.1668797,38.7681927],[-9.1669072,38.768229],[-9.1669507,38.768209],[-9.1668808,38.7681167]]]}},{"type":"Feature","id":"way/427935105","properties":{"timestamp":"2025-07-19T15:49:28Z","version":"13","changeset":"169158961","user":"mikedld","uid":"284757","addr:city":"Lisboa","addr:housenumber":"20","addr:postcode":"1600-414","addr:street":"Rua Frederico George","branch":"Telheiras","brand":"Aldi","brand:wikidata":"Q41171373","brand:wikipedia":"pt:Aldi","building":"yes","contact:email":"portugal@aldi.pt","contact:facebook":"AldiSupermercados.pt","contact:instagram":"aldi.portugal","contact:linkedin":"https://linkedin.com/company/aldi-portugal","contact:youtube":"https://www.youtube.com/@aldi.portugal","name":"Aldi","opening_hours":"PH,Mo-Su 08:00-21:00","ref":"PT001054","shop":"supermarket","source:contact":"website","website":"https://www.aldi.pt/tools/lojas-e-horarios-de-funcionamento.html/l/lisboa/rua-frederico-george-20/3591918","id":"way/427935105"},"geometry":{"type":"Polygon","coordinates":[[[-9.1667869,38.7689717],[-9.1666379,38.7687671],[-9.1665643,38.7687997],[-9.1665364,38.7687614],[-9.1660505,38.7689766],[-9.1660902,38.7690311],[-9.1661454,38.7690066],[-9.1662639,38.7691693],[-9.1666267,38.7690086],[-9.1666454,38.7690343],[-9.1667869,38.7689717]]]}},{"type":"Feature","id":"way/427935117","properties":{"timestamp":"2016-06-29T04:59:03Z","version":"1","changeset":"40357615","user":"Josef K","uid":"47097","building":"office","building:levels":"9","name":"Torre MSF","id":"way/427935117"},"geometry":{"type":"Polygon","coordinates":[[[-9.164979,38.7701364],[-9.164925,38.7700619],[-9.1646385,38.7701881],[-9.1646914,38.7702611],[-9.1647262,38.7702458],[-9.1647472,38.7702748],[-9.1647371,38.7702792],[-9.1647629,38.7703146],[-9.1647899,38.7703519],[-9.1650754,38.7702261],[-9.1650476,38.7701877],[-9.1650217,38.7701521],[-9.1649857,38.770168],[-9.1649668,38.7701418],[-9.164979,38.7701364]]]}},{"type":"Feature","id":"way/427935118","properties":{"timestamp":"2016-06-29T04:59:03Z","version":"1","changeset":"40357615","user":"Josef K","uid":"47097","building":"office","building:levels":"9","name":"Torre Sul","id":"way/427935118"},"geometry":{"type":"Polygon","coordinates":[[[-9.165051,38.769935],[-9.1650443,38.7699255],[-9.1650794,38.7699104],[-9.1650988,38.7699376],[-9.1651942,38.7698963],[-9.1651725,38.7698658],[-9.1650347,38.7696722],[-9.1649862,38.7696933],[-9.1649378,38.7697142],[-9.1649437,38.7697225],[-9.1649079,38.769738],[-9.164888,38.7697101],[-9.1648467,38.769728],[-9.1647929,38.7697513],[-9.1649536,38.7699771],[-9.165051,38.769935]]]}},{"type":"Feature","id":"way/427935119","properties":{"timestamp":"2016-06-29T04:59:03Z","version":"1","changeset":"40357615","user":"Josef K","uid":"47097","building":"apartments","id":"way/427935119"},"geometry":{"type":"Polygon","coordinates":[[[-9.1669593,38.76896],[-9.1671223,38.7688877],[-9.1669775,38.7686893],[-9.1668145,38.7687617],[-9.1669593,38.76896]]]}},{"type":"Feature","id":"way/427935123","properties":{"timestamp":"2016-06-29T04:59:03Z","version":"1","changeset":"40357615","user":"Josef K","uid":"47097","building":"apartments","id":"way/427935123"},"geometry":{"type":"Polygon","coordinates":[[[-9.1671223,38.7688877],[-9.1669593,38.76896],[-9.1670995,38.7691521],[-9.1672625,38.7690797],[-9.1671223,38.7688877]]]}},{"type":"Feature","id":"way/427935124","properties":{"timestamp":"2026-04-08T08:44:25Z","version":"2","changeset":"181036708","user":"Jimiiee","uid":"2644617","building":"school","id":"way/427935124"},"geometry":{"type":"Polygon","coordinates":[[[-9.1680604,38.767699],[-9.1687522,38.7673901],[-9.1687426,38.7673808],[-9.1686741,38.7672834],[-9.1683805,38.7674142],[-9.167982,38.7675922],[-9.1680604,38.767699]]]}},{"type":"Feature","id":"way/427935125","properties":{"timestamp":"2016-06-29T04:59:03Z","version":"1","changeset":"40357615","user":"Josef K","uid":"47097","building":"apartments","id":"way/427935125"},"geometry":{"type":"Polygon","coordinates":[[[-9.1655118,38.7697388],[-9.1656501,38.7696774],[-9.1655777,38.7695784],[-9.1655007,38.7694731],[-9.1653625,38.7695346],[-9.1654352,38.769634],[-9.1655118,38.7697388]]]}},{"type":"Feature","id":"way/427935126","properties":{"timestamp":"2016-06-29T04:59:03Z","version":"1","changeset":"40357615","user":"Josef K","uid":"47097","building":"apartments","id":"way/427935126"},"geometry":{"type":"Polygon","coordinates":[[[-9.1653625,38.7695346],[-9.1655007,38.7694731],[-9.1654265,38.7693716],[-9.1653508,38.7692681],[-9.1652126,38.7693296],[-9.1652843,38.7694276],[-9.1653625,38.7695346]]]}},{"type":"Feature","id":"way/427935127","properties":{"timestamp":"2016-06-29T04:59:03Z","version":"1","changeset":"40357615","user":"Josef K","uid":"47097","building":"apartments","id":"way/427935127"},"geometry":{"type":"Polygon","coordinates":[[[-9.1652126,38.7693296],[-9.1653508,38.7692681],[-9.1652762,38.769166],[-9.1652012,38.7690635],[-9.1651717,38.7690767],[-9.165063,38.769125],[-9.1651378,38.7692272],[-9.1652126,38.7693296]]]}},{"type":"Feature","id":"way/427935128","properties":{"timestamp":"2016-06-29T04:59:03Z","version":"1","changeset":"40357615","user":"Josef K","uid":"47097","building":"apartments","id":"way/427935128"},"geometry":{"type":"Polygon","coordinates":[[[-9.1656501,38.7696774],[-9.1655118,38.7697388],[-9.1655869,38.7698415],[-9.1656616,38.7699437],[-9.1657649,38.7698978],[-9.1657999,38.7698822],[-9.1657273,38.769783],[-9.1656501,38.7696774]]]}},{"type":"Feature","id":"way/427935129","properties":{"timestamp":"2016-06-29T04:59:03Z","version":"1","changeset":"40357615","user":"Josef K","uid":"47097","building":"apartments","id":"way/427935129"},"geometry":{"type":"Polygon","coordinates":[[[-9.1653574,38.7688581],[-9.1652309,38.7689143],[-9.1650966,38.768974],[-9.1651717,38.7690767],[-9.1652012,38.7690635],[-9.1653121,38.7690142],[-9.1654325,38.7689607],[-9.1653574,38.7688581]]]}},{"type":"Feature","id":"way/427935130","properties":{"timestamp":"2016-06-29T04:59:03Z","version":"1","changeset":"40357615","user":"Josef K","uid":"47097","building":"apartments","id":"way/427935130"},"geometry":{"type":"Polygon","coordinates":[[[-9.1661049,38.7698856],[-9.1660282,38.7697807],[-9.1659004,38.7698376],[-9.1657999,38.7698822],[-9.1657649,38.7698978],[-9.1658416,38.7700026],[-9.1659775,38.7699422],[-9.1661049,38.7698856]]]}},{"type":"Feature","id":"way/526649550","properties":{"timestamp":"2024-11-02T14:08:25Z","version":"2","changeset":"158660349","user":"Dilxe","uid":"16603393","building":"roof","layer":"1","id":"way/526649550"},"geometry":{"type":"Polygon","coordinates":[[[-9.1712382,38.7676525],[-9.1709631,38.7674293],[-9.1708097,38.7675442],[-9.1708772,38.7675991],[-9.1707861,38.7676674],[-9.1709208,38.7677803],[-9.1710122,38.7677118],[-9.1710827,38.767769],[-9.1712382,38.7676525]]]}},{"type":"Feature","id":"way/526649551","properties":{"timestamp":"2024-11-02T14:08:25Z","version":"2","changeset":"158660349","user":"Dilxe","uid":"16603393","addr:street":"Eixo Norte-Sul","building":"commercial","building:levels":"1","id":"way/526649551"},"geometry":{"type":"Polygon","coordinates":[[[-9.17051,38.7679243],[-9.1705842,38.7679849],[-9.1706167,38.768012],[-9.1707189,38.7679376],[-9.1707072,38.7679276],[-9.1707656,38.7678843],[-9.170775,38.7678915],[-9.1709241,38.7677831],[-9.1709208,38.7677803],[-9.1707861,38.7676674],[-9.1707783,38.7676609],[-9.1704539,38.7678963],[-9.1704504,38.7679017],[-9.1704493,38.7679075],[-9.1704502,38.7679132],[-9.1704539,38.7679189],[-9.1704601,38.7679227],[-9.1704685,38.7679244],[-9.17051,38.7679243]]]}},{"type":"Feature","id":"way/526649552","properties":{"timestamp":"2017-09-22T04:35:56Z","version":"1","changeset":"52263008","user":"JPF_pt","uid":"350918","building":"commercial","id":"way/526649552"},"geometry":{"type":"Polygon","coordinates":[[[-9.1707163,38.7675435],[-9.170624,38.7674663],[-9.1704989,38.7675572],[-9.1705913,38.7676345],[-9.1707163,38.7675435]]]}},{"type":"Feature","id":"way/526649553","properties":{"timestamp":"2024-11-02T14:08:25Z","version":"2","changeset":"158660349","user":"Dilxe","uid":"16603393","building":"roof","layer":"1","id":"way/526649553"},"geometry":{"type":"Polygon","coordinates":[[[-9.1708233,38.7671477],[-9.170606,38.7672994],[-9.1706605,38.7673468],[-9.1707332,38.767296],[-9.1708707,38.7674158],[-9.1709191,38.7673819],[-9.1707813,38.7672619],[-9.1708774,38.7671948],[-9.1708233,38.7671477]]]}},{"type":"Feature","id":"way/681914784","properties":{"timestamp":"2019-12-08T19:49:04Z","version":"2","changeset":"78117320","user":"topolusitania","uid":"380552","building":"yes","leisure":"sports_centre","id":"way/681914784"},"geometry":{"type":"Polygon","coordinates":[[[-9.1701122,38.7677781],[-9.1701963,38.7675215],[-9.1696774,38.7674181],[-9.1695933,38.7676748],[-9.1701122,38.7677781]]]}},{"type":"Feature","id":"way/682160320","properties":{"timestamp":"2020-02-26T21:11:17Z","version":"2","changeset":"81521536","user":"HeapSrc","uid":"1728066","addr:city":"Lisboa","addr:housenumber":"71","addr:postcode":"1600-600","addr:street":"Rua Professor Bento de Jesus Caraça","addr:unit":"B","building":"yes","leisure":"fitness_centre","name":"Mega Craque Clube","opening_hours":"Mo-Fr 07:00-22:00; Sa-Su 09:00-19:00","phone":"+351217567440","sport":"swimming;running;fitness","website":"https://www.craque.com/","id":"way/682160320"},"geometry":{"type":"Polygon","coordinates":[[[-9.1709556,38.7654711],[-9.1711797,38.764783],[-9.1707464,38.764725],[-9.1706802,38.7649479],[-9.1705393,38.7649305],[-9.1704116,38.7653717],[-9.1709556,38.7654711]]]}},{"type":"Feature","id":"way/682163319","properties":{"timestamp":"2019-04-06T21:12:53Z","version":"1","changeset":"68962237","user":"FR_Fox","uid":"9598915","building":"residential","id":"way/682163319"},"geometry":{"type":"Polygon","coordinates":[[[-9.1708313,38.7668951],[-9.1707215,38.7667683],[-9.1705467,38.7668729],[-9.1702987,38.7666066],[-9.1704268,38.766109],[-9.1702581,38.7660852],[-9.1700995,38.7666621],[-9.1703821,38.7669553],[-9.170317,38.7669886],[-9.1704277,38.7671019],[-9.1708313,38.7668951]]]}},{"type":"Feature","id":"way/860995675","properties":{"timestamp":"2023-12-30T10:46:44Z","version":"2","changeset":"145691409","user":"iBattuta","uid":"20786629","building":"residential","id":"way/860995675"},"geometry":{"type":"Polygon","coordinates":[[[-9.1721941,38.7641102],[-9.1720827,38.7640232],[-9.1717974,38.764248],[-9.1718279,38.7642734],[-9.1717838,38.7643029],[-9.1717185,38.7643056],[-9.1716738,38.7642763],[-9.1716992,38.7642562],[-9.1711998,38.7638758],[-9.171189,38.7636395],[-9.1710343,38.7636411],[-9.1710479,38.7638838],[-9.1710827,38.7638818],[-9.1710971,38.7639095],[-9.1711237,38.7639344],[-9.1710941,38.7639613],[-9.1715915,38.7643399],[-9.1715698,38.7643559],[-9.1716576,38.7644209],[-9.1716726,38.7644088],[-9.171714,38.7644233],[-9.1717462,38.7644228],[-9.1717827,38.7644207],[-9.1718239,38.7644083],[-9.1718409,38.7644193],[-9.1719246,38.7643496],[-9.1719072,38.7643327],[-9.1721941,38.7641102]]]}},{"type":"Feature","id":"way/860997013","properties":{"timestamp":"2022-01-20T15:19:54Z","version":"2","changeset":"116390312","user":"Hoanui","uid":"14899633","building":"retail","id":"way/860997013"},"geometry":{"type":"Polygon","coordinates":[[[-9.1710337,38.7636117],[-9.1713036,38.763608],[-9.1712695,38.7635821],[-9.1712314,38.7635592],[-9.1711733,38.7635289],[-9.1711189,38.7635061],[-9.171027,38.7634777],[-9.1710337,38.7636117]]]}},{"type":"Feature","id":"way/860997014","properties":{"timestamp":"2020-10-20T09:49:39Z","version":"1","changeset":"92757968","user":"N_C_C","uid":"10555629","building":"yes","id":"way/860997014"},"geometry":{"type":"Polygon","coordinates":[[[-9.1713183,38.7636193],[-9.1713281,38.7638118],[-9.1714077,38.7637795],[-9.1714352,38.7638208],[-9.1713561,38.7638525],[-9.1716718,38.7640901],[-9.1717185,38.764053],[-9.1715166,38.7639008],[-9.1715116,38.7638826],[-9.1715004,38.7638524],[-9.1714879,38.7638215],[-9.1714806,38.7638044],[-9.1715491,38.7637761],[-9.1715214,38.7637316],[-9.1714508,38.7637577],[-9.1714313,38.7637326],[-9.1714123,38.7637104],[-9.1713825,38.7636791],[-9.1713591,38.7636557],[-9.1713183,38.7636193]]]}},{"type":"Feature","id":"way/861000634","properties":{"timestamp":"2020-10-20T09:56:03Z","version":"1","changeset":"92758452","user":"N_C_C","uid":"10555629","building":"house","id":"way/861000634"},"geometry":{"type":"Polygon","coordinates":[[[-9.1701111,38.7637828],[-9.1701073,38.7636899],[-9.170059,38.7636912],[-9.1700599,38.763705],[-9.170034,38.7637057],[-9.1700358,38.7637436],[-9.1699952,38.7637448],[-9.1699972,38.7637851],[-9.1700441,38.7637838],[-9.1700447,38.7637956],[-9.1700723,38.7637948],[-9.1700717,38.763783],[-9.1701111,38.7637828]]]}},{"type":"Feature","id":"way/861000635","properties":{"timestamp":"2020-10-20T09:56:03Z","version":"1","changeset":"92758452","user":"N_C_C","uid":"10555629","building":"house","id":"way/861000635"},"geometry":{"type":"Polygon","coordinates":[[[-9.1701111,38.7637828],[-9.1701619,38.7637812],[-9.1701625,38.7637926],[-9.1701855,38.7637919],[-9.1701849,38.7637799],[-9.1702288,38.7637785],[-9.1702267,38.7637397],[-9.1701869,38.763741],[-9.1701848,38.7637016],[-9.1701604,38.7637024],[-9.1701593,38.7636884],[-9.1701073,38.7636899],[-9.1701111,38.7637828]]]}},{"type":"Feature","id":"way/861000636","properties":{"timestamp":"2020-10-20T09:56:03Z","version":"1","changeset":"92758452","user":"N_C_C","uid":"10555629","building":"house","id":"way/861000636"},"geometry":{"type":"Polygon","coordinates":[[[-9.170059,38.7636912],[-9.1701073,38.7636899],[-9.1701037,38.7636191],[-9.1700571,38.7636201],[-9.1700583,38.7636504],[-9.1699547,38.763653],[-9.1699564,38.7636932],[-9.170041,38.7636911],[-9.1700403,38.7636737],[-9.1700583,38.7636733],[-9.170059,38.7636912]]]}},{"type":"Feature","id":"way/861000637","properties":{"timestamp":"2020-10-20T09:56:03Z","version":"1","changeset":"92758452","user":"N_C_C","uid":"10555629","building":"house","id":"way/861000637"},"geometry":{"type":"Polygon","coordinates":[[[-9.1701593,38.7636884],[-9.1701585,38.7636705],[-9.1701803,38.7636698],[-9.1701811,38.7636865],[-9.1702664,38.7636841],[-9.1702646,38.7636455],[-9.1701564,38.7636487],[-9.1701557,38.7636178],[-9.1701037,38.7636191],[-9.1701073,38.7636899],[-9.1701593,38.7636884]]]}},{"type":"Feature","id":"way/861000638","properties":{"timestamp":"2020-10-20T09:56:03Z","version":"1","changeset":"92758452","user":"N_C_C","uid":"10555629","building":"house","id":"way/861000638"},"geometry":{"type":"Polygon","coordinates":[[[-9.1701037,38.7636191],[-9.1701007,38.7635575],[-9.1700559,38.7635587],[-9.1699494,38.7635617],[-9.1699511,38.7635994],[-9.1700375,38.763597],[-9.1700368,38.7635806],[-9.1700553,38.7635801],[-9.1700571,38.7636201],[-9.1701037,38.7636191]]]}},{"type":"Feature","id":"way/861000639","properties":{"timestamp":"2020-10-20T09:56:03Z","version":"1","changeset":"92758452","user":"N_C_C","uid":"10555629","building":"house","id":"way/861000639"},"geometry":{"type":"Polygon","coordinates":[[[-9.1701557,38.7636178],[-9.170154,38.7635778],[-9.1701757,38.7635773],[-9.1701765,38.7635939],[-9.170263,38.7635917],[-9.1702613,38.763553],[-9.1701951,38.7635548],[-9.1701007,38.7635575],[-9.1701037,38.7636191],[-9.1701557,38.7636178]]]}},{"type":"Feature","id":"way/861000640","properties":{"timestamp":"2020-10-20T09:56:03Z","version":"1","changeset":"92758452","user":"N_C_C","uid":"10555629","building":"house","id":"way/861000640"},"geometry":{"type":"Polygon","coordinates":[[[-9.1700092,38.7635068],[-9.1700116,38.7635499],[-9.1700553,38.7635485],[-9.1700559,38.7635587],[-9.1701007,38.7635575],[-9.1700982,38.7635039],[-9.1700092,38.7635068]]]}},{"type":"Feature","id":"way/861000641","properties":{"timestamp":"2020-10-20T09:56:03Z","version":"1","changeset":"92758452","user":"N_C_C","uid":"10555629","building":"house","id":"way/861000641"},"geometry":{"type":"Polygon","coordinates":[[[-9.1701926,38.7635012],[-9.1700982,38.7635039],[-9.1701007,38.7635575],[-9.1701951,38.7635548],[-9.1701926,38.7635012]]]}},{"type":"Feature","id":"way/881493098","properties":{"timestamp":"2023-07-01T11:15:42Z","version":"2","changeset":"137987672","user":"tomasrm22","uid":"19736714","building":"apartments","id":"way/881493098"},"geometry":{"type":"Polygon","coordinates":[[[-9.1683652,38.7678177],[-9.1682636,38.7678646],[-9.1683683,38.768008],[-9.1684729,38.7681512],[-9.168759,38.7680237],[-9.1686104,38.7678212],[-9.1684274,38.7679027],[-9.1683652,38.7678177]]]}},{"type":"Feature","id":"way/881493099","properties":{"timestamp":"2020-12-06T04:30:46Z","version":"1","changeset":"95354558","user":"DiogoBaptista98","uid":"1193685","building":"yes","id":"way/881493099"},"geometry":{"type":"Polygon","coordinates":[[[-9.1686104,38.7678212],[-9.168759,38.7680237],[-9.1688097,38.7680947],[-9.1690419,38.7679924],[-9.1689378,38.7678483],[-9.1688332,38.7677036],[-9.1689421,38.7676558],[-9.1689133,38.7676172],[-9.1687562,38.7676876],[-9.1687942,38.7677394],[-9.1686104,38.7678212]]]}},{"type":"Feature","id":"way/881493100","properties":{"timestamp":"2020-12-06T04:30:46Z","version":"1","changeset":"95354558","user":"DiogoBaptista98","uid":"1193685","building":"yes","id":"way/881493100"},"geometry":{"type":"Polygon","coordinates":[[[-9.1687839,38.768392],[-9.1687213,38.7683068],[-9.1689044,38.768225],[-9.1688097,38.7680947],[-9.168759,38.7680237],[-9.1684729,38.7681512],[-9.1685776,38.7682946],[-9.1686821,38.7684376],[-9.1687839,38.768392]]]}},{"type":"Feature","id":"way/881493101","properties":{"timestamp":"2020-12-06T04:30:46Z","version":"1","changeset":"95354558","user":"DiogoBaptista98","uid":"1193685","building":"yes","id":"way/881493101"},"geometry":{"type":"Polygon","coordinates":[[[-9.1688097,38.7680947],[-9.1689044,38.768225],[-9.169087,38.7681435],[-9.1691496,38.7682287],[-9.1691969,38.7682089],[-9.1691453,38.7681354],[-9.1690419,38.7679924],[-9.1688097,38.7680947]]]}},{"type":"Feature","id":"way/881493102","properties":{"timestamp":"2020-12-06T04:30:46Z","version":"1","changeset":"95354558","user":"DiogoBaptista98","uid":"1193685","building":"apartments","id":"way/881493102"},"geometry":{"type":"Polygon","coordinates":[[[-9.1691507,38.7679446],[-9.1690419,38.7679924],[-9.1691453,38.7681354],[-9.1692541,38.7680876],[-9.1691507,38.7679446]]]}},{"type":"Feature","id":"way/881493103","properties":{"timestamp":"2020-12-06T04:30:46Z","version":"1","changeset":"95354558","user":"DiogoBaptista98","uid":"1193685","building":"apartments","id":"way/881493103"},"geometry":{"type":"Polygon","coordinates":[[[-9.1689378,38.7678483],[-9.1690419,38.7679924],[-9.1691507,38.7679446],[-9.1690466,38.7678005],[-9.1689378,38.7678483]]]}},{"type":"Feature","id":"way/881493104","properties":{"timestamp":"2020-12-06T04:30:46Z","version":"1","changeset":"95354558","user":"DiogoBaptista98","uid":"1193685","building":"apartments","id":"way/881493104"},"geometry":{"type":"Polygon","coordinates":[[[-9.1688332,38.7677036],[-9.1689378,38.7678483],[-9.1690466,38.7678005],[-9.1689421,38.7676558],[-9.1688332,38.7677036]]]}},{"type":"Feature","id":"way/881493105","properties":{"timestamp":"2020-12-06T04:30:46Z","version":"1","changeset":"95354558","user":"DiogoBaptista98","uid":"1193685","building":"apartments","id":"way/881493105"},"geometry":{"type":"Polygon","coordinates":[[[-9.1686104,38.7678212],[-9.1687942,38.7677394],[-9.1687562,38.7676876],[-9.1687319,38.7676544],[-9.1685482,38.7677362],[-9.1686104,38.7678212]]]}},{"type":"Feature","id":"way/881493106","properties":{"timestamp":"2020-12-06T04:30:46Z","version":"1","changeset":"95354558","user":"DiogoBaptista98","uid":"1193685","building":"apartments","id":"way/881493106"},"geometry":{"type":"Polygon","coordinates":[[[-9.1684274,38.7679027],[-9.1686104,38.7678212],[-9.1685482,38.7677362],[-9.1683652,38.7678177],[-9.1684274,38.7679027]]]}},{"type":"Feature","id":"way/881493107","properties":{"timestamp":"2022-10-09T08:20:46Z","version":"3","changeset":"127235308","user":"josejade","uid":"17329951","addr:housenumber":"33","addr:street":"Rua Abel Salazar","building":"apartments","id":"way/881493107"},"geometry":{"type":"Polygon","coordinates":[[[-9.1682598,38.7680562],[-9.1683683,38.768008],[-9.1682636,38.7678646],[-9.1681551,38.7679127],[-9.1682598,38.7680562]]]}},{"type":"Feature","id":"way/881493108","properties":{"timestamp":"2022-10-09T08:20:47Z","version":"3","changeset":"127235308","user":"josejade","uid":"17329951","addr:housenumber":"35","addr:street":"Rua Abel Salazar","building":"apartments","id":"way/881493108"},"geometry":{"type":"Polygon","coordinates":[[[-9.1683644,38.7681994],[-9.1684729,38.7681512],[-9.1683683,38.768008],[-9.1682598,38.7680562],[-9.1683644,38.7681994]]]}},{"type":"Feature","id":"way/881493109","properties":{"timestamp":"2022-10-09T08:20:48Z","version":"3","changeset":"127235308","user":"josejade","uid":"17329951","addr:housenumber":"37","addr:street":"Rua Abel Salazar","building":"apartments","id":"way/881493109"},"geometry":{"type":"Polygon","coordinates":[[[-9.1684691,38.7683428],[-9.1685776,38.7682946],[-9.1684729,38.7681512],[-9.1683644,38.7681994],[-9.1684691,38.7683428]]]}},{"type":"Feature","id":"way/881493110","properties":{"timestamp":"2022-10-09T08:20:48Z","version":"3","changeset":"127235308","user":"josejade","uid":"17329951","addr:housenumber":"39","addr:street":"Rua Abel Salazar","building":"apartments","id":"way/881493110"},"geometry":{"type":"Polygon","coordinates":[[[-9.1686821,38.7684376],[-9.1685776,38.7682946],[-9.1684691,38.7683428],[-9.1685736,38.7684858],[-9.1686821,38.7684376]]]}},{"type":"Feature","id":"way/881493111","properties":{"timestamp":"2020-12-06T04:30:46Z","version":"1","changeset":"95354558","user":"DiogoBaptista98","uid":"1193685","building":"apartments","id":"way/881493111"},"geometry":{"type":"Polygon","coordinates":[[[-9.168967,38.7683102],[-9.1689044,38.768225],[-9.1687213,38.7683068],[-9.1687839,38.768392],[-9.168967,38.7683102]]]}},{"type":"Feature","id":"way/881493112","properties":{"timestamp":"2020-12-06T04:30:46Z","version":"1","changeset":"95354558","user":"DiogoBaptista98","uid":"1193685","building":"apartments","id":"way/881493112"},"geometry":{"type":"Polygon","coordinates":[[[-9.169087,38.7681435],[-9.1689044,38.768225],[-9.168967,38.7683102],[-9.1691496,38.7682287],[-9.169087,38.7681435]]]}},{"type":"Feature","id":"way/881493113","properties":{"timestamp":"2023-07-01T11:15:32Z","version":"2","changeset":"137987672","user":"tomasrm22","uid":"19736714","building":"apartments","id":"way/881493113"},"geometry":{"type":"Polygon","coordinates":[[[-9.1671882,38.7684383],[-9.1672966,38.7683902],[-9.1674023,38.7685351],[-9.1676342,38.7684312],[-9.1675393,38.7683003],[-9.1673558,38.7683825],[-9.1673092,38.7683194],[-9.1671514,38.7683901],[-9.1671882,38.7684383]]]}},{"type":"Feature","id":"way/881493114","properties":{"timestamp":"2023-07-01T11:06:31Z","version":"2","changeset":"137987672","user":"tomasrm22","uid":"19736714","building":"apartments","id":"way/881493114"},"geometry":{"type":"Polygon","coordinates":[[[-9.1676586,38.7681337],[-9.1677213,38.7682188],[-9.1675393,38.7683003],[-9.1676342,38.7684312],[-9.1676855,38.7685044],[-9.1679704,38.7683768],[-9.1678653,38.7682322],[-9.1677603,38.7680879],[-9.1676586,38.7681337]]]}},{"type":"Feature","id":"way/881493115","properties":{"timestamp":"2020-12-06T04:30:46Z","version":"1","changeset":"95354558","user":"DiogoBaptista98","uid":"1193685","building":"yes","id":"way/881493115"},"geometry":{"type":"Polygon","coordinates":[[[-9.1676855,38.7685044],[-9.1676342,38.7684312],[-9.1674023,38.7685351],[-9.1675071,38.7686788],[-9.1676112,38.7688214],[-9.1675492,38.7688489],[-9.1676017,38.7689231],[-9.1677116,38.7688707],[-9.1676496,38.7687853],[-9.1678334,38.7687042],[-9.1676855,38.7685044]]]}},{"type":"Feature","id":"way/881493116","properties":{"timestamp":"2020-12-06T04:30:46Z","version":"1","changeset":"95354558","user":"DiogoBaptista98","uid":"1193685","building":"yes","id":"way/881493116"},"geometry":{"type":"Polygon","coordinates":[[[-9.168079,38.7687087],[-9.1681787,38.7686629],[-9.1680747,38.7685201],[-9.1679704,38.7683768],[-9.1676855,38.7685044],[-9.1678334,38.7687042],[-9.168017,38.7686233],[-9.168079,38.7687087]]]}},{"type":"Feature","id":"way/881493117","properties":{"timestamp":"2022-10-09T08:20:51Z","version":"3","changeset":"127235308","user":"josejade","uid":"17329951","addr:housenumber":"42","addr:street":"Rua Abel Salazar","building":"apartments","id":"way/881493117"},"geometry":{"type":"Polygon","coordinates":[[[-9.1681837,38.7684719],[-9.1680747,38.7685201],[-9.1681787,38.7686629],[-9.1682877,38.7686147],[-9.1681837,38.7684719]]]}},{"type":"Feature","id":"way/881493118","properties":{"timestamp":"2022-10-09T08:20:51Z","version":"3","changeset":"127235308","user":"josejade","uid":"17329951","addr:housenumber":"40","addr:street":"Rua Abel Salazar","building":"apartments","id":"way/881493118"},"geometry":{"type":"Polygon","coordinates":[[[-9.1680794,38.7683286],[-9.1679704,38.7683768],[-9.1680747,38.7685201],[-9.1681837,38.7684719],[-9.1680794,38.7683286]]]}},{"type":"Feature","id":"way/881493119","properties":{"timestamp":"2022-10-09T08:20:50Z","version":"3","changeset":"127235308","user":"josejade","uid":"17329951","addr:housenumber":"38","addr:street":"Rua Abel Salazar","building":"apartments","id":"way/881493119"},"geometry":{"type":"Polygon","coordinates":[[[-9.1679743,38.768184],[-9.1678653,38.7682322],[-9.1679704,38.7683768],[-9.1680794,38.7683286],[-9.1679743,38.768184]]]}},{"type":"Feature","id":"way/881493120","properties":{"timestamp":"2022-10-09T08:20:49Z","version":"3","changeset":"127235308","user":"josejade","uid":"17329951","addr:housenumber":"36","addr:street":"Rua Abel Salazar","building":"apartments","id":"way/881493120"},"geometry":{"type":"Polygon","coordinates":[[[-9.1677603,38.7680879],[-9.1678653,38.7682322],[-9.1679743,38.768184],[-9.1678693,38.7680397],[-9.1677603,38.7680879]]]}},{"type":"Feature","id":"way/881493121","properties":{"timestamp":"2023-07-01T11:05:13Z","version":"3","changeset":"137987907","user":"tomasrm22","uid":"19736714","addr:housenumber":"11","addr:street":"Rua Armindo Rodrigues","building":"apartments","id":"way/881493121"},"geometry":{"type":"Polygon","coordinates":[[[-9.1675393,38.7683003],[-9.1677213,38.7682188],[-9.1676586,38.7681337],[-9.1674766,38.7682152],[-9.1675393,38.7683003]]]}},{"type":"Feature","id":"way/881493122","properties":{"timestamp":"2023-07-01T11:04:52Z","version":"3","changeset":"137987907","user":"tomasrm22","uid":"19736714","addr:housenumber":"13","addr:street":"Rua Armindo Rodrigues","building":"apartments","id":"way/881493122"},"geometry":{"type":"Polygon","coordinates":[[[-9.1673558,38.7683825],[-9.1675393,38.7683003],[-9.1674766,38.7682152],[-9.1672931,38.7682975],[-9.1673092,38.7683194],[-9.1673558,38.7683825]]]}},{"type":"Feature","id":"way/881493123","properties":{"timestamp":"2020-12-06T04:30:46Z","version":"1","changeset":"95354558","user":"DiogoBaptista98","uid":"1193685","building":"apartments","id":"way/881493123"},"geometry":{"type":"Polygon","coordinates":[[[-9.1672939,38.7685832],[-9.1674023,38.7685351],[-9.1672966,38.7683902],[-9.1671882,38.7684383],[-9.1672939,38.7685832]]]}},{"type":"Feature","id":"way/881493124","properties":{"timestamp":"2020-12-06T04:30:46Z","version":"1","changeset":"95354558","user":"DiogoBaptista98","uid":"1193685","building":"apartments","id":"way/881493124"},"geometry":{"type":"Polygon","coordinates":[[[-9.1673988,38.7687268],[-9.1675071,38.7686788],[-9.1674023,38.7685351],[-9.1672939,38.7685832],[-9.1673988,38.7687268]]]}},{"type":"Feature","id":"way/881493125","properties":{"timestamp":"2020-12-06T04:30:46Z","version":"1","changeset":"95354558","user":"DiogoBaptista98","uid":"1193685","building":"apartments","id":"way/881493125"},"geometry":{"type":"Polygon","coordinates":[[[-9.1675028,38.7688695],[-9.1675492,38.7688489],[-9.1676112,38.7688214],[-9.1675071,38.7686788],[-9.1673988,38.7687268],[-9.1675028,38.7688695]]]}},{"type":"Feature","id":"way/881493126","properties":{"timestamp":"2020-12-06T04:30:46Z","version":"1","changeset":"95354558","user":"DiogoBaptista98","uid":"1193685","building":"apartments","id":"way/881493126"},"geometry":{"type":"Polygon","coordinates":[[[-9.1678954,38.7687896],[-9.168079,38.7687087],[-9.168017,38.7686233],[-9.1678334,38.7687042],[-9.1678954,38.7687896]]]}},{"type":"Feature","id":"way/881493127","properties":{"timestamp":"2020-12-06T04:30:46Z","version":"1","changeset":"95354558","user":"DiogoBaptista98","uid":"1193685","building":"apartments","id":"way/881493127"},"geometry":{"type":"Polygon","coordinates":[[[-9.1676496,38.7687853],[-9.1677116,38.7688707],[-9.1678954,38.7687896],[-9.1678334,38.7687042],[-9.1676496,38.7687853]]]}},{"type":"Feature","id":"way/881493128","properties":{"timestamp":"2020-12-06T04:30:46Z","version":"1","changeset":"95354558","user":"DiogoBaptista98","uid":"1193685","building":"apartments","id":"way/881493128"},"geometry":{"type":"Polygon","coordinates":[[[-9.1682267,38.7690325],[-9.168275,38.7690106],[-9.1682846,38.7690234],[-9.1683134,38.7690104],[-9.1683519,38.769062],[-9.1684394,38.7690223],[-9.1683903,38.7689564],[-9.1684641,38.768923],[-9.1684225,38.7688673],[-9.1683189,38.7689142],[-9.1683115,38.7689043],[-9.1681767,38.7689655],[-9.1682267,38.7690325]]]}},{"type":"Feature","id":"way/881493129","properties":{"timestamp":"2020-12-06T04:30:46Z","version":"1","changeset":"95354558","user":"DiogoBaptista98","uid":"1193685","building":"apartments","id":"way/881493129"},"geometry":{"type":"Polygon","coordinates":[[[-9.1680485,38.7691133],[-9.1682267,38.7690325],[-9.1681767,38.7689655],[-9.1681688,38.7689549],[-9.1679907,38.7690357],[-9.1680485,38.7691133]]]}},{"type":"Feature","id":"way/881493130","properties":{"timestamp":"2022-11-15T22:44:13Z","version":"2","changeset":"128962263","user":"DiogoBaptista98","uid":"1193685","building":"apartments","id":"way/881493130"},"geometry":{"type":"Polygon","coordinates":[[[-9.1678104,38.7691174],[-9.1678587,38.7691821],[-9.1678683,38.769195],[-9.1679196,38.7691717],[-9.1680485,38.7691133],[-9.1679907,38.7690357],[-9.1678637,38.7690932],[-9.1678104,38.7691174]]]}},{"type":"Feature","id":"way/881493131","properties":{"timestamp":"2020-12-06T04:30:46Z","version":"1","changeset":"95354558","user":"DiogoBaptista98","uid":"1193685","building":"apartments","id":"way/881493131"},"geometry":{"type":"Polygon","coordinates":[[[-9.1674316,38.7692632],[-9.1674943,38.7693473],[-9.1678587,38.7691821],[-9.1678104,38.7691174],[-9.167796,38.769098],[-9.1674316,38.7692632]]]}},{"type":"Feature","id":"way/881493132","properties":{"timestamp":"2022-10-09T08:19:06Z","version":"2","changeset":"127235325","user":"josejade","uid":"17329951","building":"apartments","id":"way/881493132"},"geometry":{"type":"Polygon","coordinates":[[[-9.1672048,38.7676717],[-9.167296,38.7677963],[-9.1674692,38.7677193],[-9.1676055,38.7679056],[-9.1677542,38.7678394],[-9.1675268,38.7675286],[-9.1672048,38.7676717]]]}},{"type":"Feature","id":"way/881493133","properties":{"timestamp":"2023-07-01T11:03:56Z","version":"3","changeset":"137987907","user":"tomasrm22","uid":"19736714","addr:housenumber":"26","addr:street":"Rua Armindo Rodrigues","building":"apartments","id":"way/881493133"},"geometry":{"type":"Polygon","coordinates":[[[-9.1672376,38.7680542],[-9.1671748,38.7679684],[-9.1669917,38.7680498],[-9.1670545,38.7681356],[-9.1672376,38.7680542]]]}},{"type":"Feature","id":"way/881493134","properties":{"timestamp":"2023-07-01T11:04:19Z","version":"3","changeset":"137987907","user":"tomasrm22","uid":"19736714","addr:housenumber":"24","addr:street":"Rua Armindo Rodrigues","building":"apartments","id":"way/881493134"},"geometry":{"type":"Polygon","coordinates":[[[-9.1673579,38.7678871],[-9.1671748,38.7679684],[-9.1672376,38.7680542],[-9.1674206,38.7679729],[-9.1673579,38.7678871]]]}},{"type":"Feature","id":"way/881493135","properties":{"timestamp":"2020-12-06T04:30:46Z","version":"1","changeset":"95354558","user":"DiogoBaptista98","uid":"1193685","building":"apartments","id":"way/881493135"},"geometry":{"type":"Polygon","coordinates":[[[-9.1670025,38.7695837],[-9.1669241,38.7694762],[-9.1666616,38.7695925],[-9.16674,38.7697],[-9.1670025,38.7695837]]]}},{"type":"Feature","id":"way/881493136","properties":{"timestamp":"2020-12-06T04:30:46Z","version":"1","changeset":"95354558","user":"DiogoBaptista98","uid":"1193685","building":"apartments","id":"way/881493136"},"geometry":{"type":"Polygon","coordinates":[[[-9.1671869,38.7693597],[-9.1669241,38.7694762],[-9.1670025,38.7695837],[-9.1672653,38.7694672],[-9.1671869,38.7693597]]]}},{"type":"Feature","id":"way/881493137","properties":{"timestamp":"2020-12-06T04:30:46Z","version":"1","changeset":"95354558","user":"DiogoBaptista98","uid":"1193685","building":"apartments","id":"way/881493137"},"geometry":{"type":"Polygon","coordinates":[[[-9.169066,38.7686573],[-9.1690166,38.7685897],[-9.1688771,38.7686517],[-9.1688844,38.7686617],[-9.1687843,38.7687062],[-9.1688244,38.7687611],[-9.168878,38.7687373],[-9.1688892,38.7687527],[-9.1689104,38.7687433],[-9.1689483,38.7687952],[-9.1690353,38.7687566],[-9.1689966,38.7687035],[-9.169013,38.7686962],[-9.1690045,38.7686846],[-9.169066,38.7686573]]]}},{"type":"Feature","id":"way/881493138","properties":{"timestamp":"2020-12-06T04:30:46Z","version":"1","changeset":"95354558","user":"DiogoBaptista98","uid":"1193685","building":"apartments","id":"way/881493138"},"geometry":{"type":"Polygon","coordinates":[[[-9.169246,38.7685774],[-9.1691895,38.7685],[-9.1690095,38.76858],[-9.1690166,38.7685897],[-9.169066,38.7686573],[-9.169246,38.7685774]]]}},{"type":"Feature","id":"way/881493139","properties":{"timestamp":"2020-12-06T04:30:46Z","version":"1","changeset":"95354558","user":"DiogoBaptista98","uid":"1193685","building":"apartments","id":"way/881493139"},"geometry":{"type":"Polygon","coordinates":[[[-9.1694171,38.768486],[-9.1693691,38.7684203],[-9.1691895,38.7685],[-9.169246,38.7685774],[-9.1694255,38.7684976],[-9.1694171,38.768486]]]}},{"type":"Feature","id":"way/881493140","properties":{"timestamp":"2020-12-06T04:30:46Z","version":"1","changeset":"95354558","user":"DiogoBaptista98","uid":"1193685","building":"apartments","id":"way/881493140"},"geometry":{"type":"Polygon","coordinates":[[[-9.1696011,38.7684042],[-9.1695392,38.7683195],[-9.1693551,38.7684012],[-9.1693691,38.7684203],[-9.1694171,38.768486],[-9.1696011,38.7684042]]]}},{"type":"Feature","id":"way/881493141","properties":{"timestamp":"2020-12-06T04:30:46Z","version":"1","changeset":"95354558","user":"DiogoBaptista98","uid":"1193685","building":"apartments","id":"way/881493141"},"geometry":{"type":"Polygon","coordinates":[[[-9.1697844,38.7683229],[-9.1697224,38.7682381],[-9.1695392,38.7683195],[-9.1696011,38.7684042],[-9.1697844,38.7683229]]]}},{"type":"Feature","id":"way/881493142","properties":{"timestamp":"2020-12-06T04:30:46Z","version":"1","changeset":"95354558","user":"DiogoBaptista98","uid":"1193685","building":"apartments","id":"way/881493142"},"geometry":{"type":"Polygon","coordinates":[[[-9.1699054,38.7681568],[-9.1697224,38.7682381],[-9.1697844,38.7683229],[-9.1699673,38.7682416],[-9.1699054,38.7681568]]]}},{"type":"Feature","id":"way/1003762721","properties":{"timestamp":"2022-10-14T15:02:30Z","version":"2","changeset":"127530644","user":"DiogoBaptista98","uid":"1193685","building":"industrial","id":"way/1003762721"},"geometry":{"type":"Polygon","coordinates":[[[-9.1682648,38.7666638],[-9.1683497,38.7663534],[-9.168397,38.7663613],[-9.168474,38.7660798],[-9.1682061,38.7660353],[-9.1680441,38.7666271],[-9.1682648,38.7666638]]]}},{"type":"Feature","id":"way/1113471092","properties":{"timestamp":"2022-11-15T22:44:13Z","version":"1","changeset":"128962263","user":"DiogoBaptista98","uid":"1193685","building":"roof","layer":"1","id":"way/1113471092"},"geometry":{"type":"Polygon","coordinates":[[[-9.1666987,38.769098],[-9.1664464,38.7692094],[-9.1665047,38.7692898],[-9.166757,38.7691784],[-9.1666987,38.769098]]]}},{"type":"Feature","id":"way/1235438662","properties":{"timestamp":"2023-12-30T10:46:44Z","version":"2","changeset":"145691409","user":"iBattuta","uid":"20786629","building":"residential","id":"way/1235438662"},"geometry":{"type":"Polygon","coordinates":[[[-9.1721368,38.7655914],[-9.1721578,38.7655189],[-9.1722373,38.7655329],[-9.1722593,38.7654567],[-9.1721859,38.7654438],[-9.1721913,38.765425],[-9.1723383,38.764915],[-9.1722202,38.7648943],[-9.1720248,38.7655718],[-9.1721368,38.7655914]]]}},{"type":"Feature","id":"way/1235438663","properties":{"timestamp":"2023-12-30T10:46:44Z","version":"2","changeset":"145691409","user":"iBattuta","uid":"20786629","building":"residential","id":"way/1235438663"},"geometry":{"type":"Polygon","coordinates":[[[-9.1710441,38.7642721],[-9.1709389,38.7643572],[-9.1713812,38.7646899],[-9.1714865,38.7646048],[-9.1710441,38.7642721]]]}},{"type":"Feature","id":"way/1235438664","properties":{"timestamp":"2023-12-30T10:46:44Z","version":"2","changeset":"145691409","user":"iBattuta","uid":"20786629","building":"residential","id":"way/1235438664"},"geometry":{"type":"Polygon","coordinates":[[[-9.1714963,38.7654556],[-9.1716774,38.7647523],[-9.1715284,38.7647289],[-9.17152,38.7647614],[-9.1714487,38.7647503],[-9.1714186,38.7648671],[-9.1714805,38.7648767],[-9.171338,38.7654308],[-9.1714963,38.7654556]]]}},{"type":"Feature","id":"way/1235438665","properties":{"timestamp":"2023-12-30T10:46:44Z","version":"2","changeset":"145691409","user":"iBattuta","uid":"20786629","building":"residential","id":"way/1235438665"},"geometry":{"type":"Polygon","coordinates":[[[-9.1717571,38.7660346],[-9.1718934,38.7655331],[-9.1717683,38.7655125],[-9.1716319,38.7660139],[-9.1717571,38.7660346]]]}},{"type":"Feature","id":"way/1235477621","properties":{"timestamp":"2023-12-30T10:46:44Z","version":"1","changeset":"145691409","user":"iBattuta","uid":"20786629","building":"residential","id":"way/1235477621"},"geometry":{"type":"Polygon","coordinates":[[[-9.1717739,38.7665779],[-9.1718726,38.7662165],[-9.1719781,38.766234],[-9.1720099,38.7661176],[-9.1718971,38.7660989],[-9.1719074,38.7660614],[-9.1718107,38.7660454],[-9.17167,38.7665607],[-9.1717739,38.7665779]]]}},{"type":"Feature","id":"way/1235477622","properties":{"timestamp":"2023-12-30T10:46:44Z","version":"1","changeset":"145691409","user":"iBattuta","uid":"20786629","building":"residential","id":"way/1235477622"},"geometry":{"type":"Polygon","coordinates":[[[-9.1711901,38.7661444],[-9.1713976,38.765444],[-9.1712614,38.7654195],[-9.1712521,38.7654506],[-9.1711779,38.7654372],[-9.1711375,38.7655736],[-9.1711949,38.7655839],[-9.171037,38.7661168],[-9.1711901,38.7661444]]]}},{"type":"Feature","id":"way/1235477623","properties":{"timestamp":"2023-12-30T10:46:44Z","version":"1","changeset":"145691409","user":"iBattuta","uid":"20786629","building":"residential","id":"way/1235477623"},"geometry":{"type":"Polygon","coordinates":[[[-9.1710888,38.766713],[-9.1712199,38.7661988],[-9.1710449,38.7661717],[-9.1709742,38.7664491],[-9.1710169,38.7664558],[-9.1709983,38.7665287],[-9.1709107,38.7665151],[-9.1708834,38.7666221],[-9.1709744,38.7666362],[-9.1709599,38.7666931],[-9.1710888,38.766713]]]}},{"type":"Feature","id":"way/1235477624","properties":{"timestamp":"2023-12-30T10:46:44Z","version":"1","changeset":"145691409","user":"iBattuta","uid":"20786629","building":"residential","id":"way/1235477624"},"geometry":{"type":"Polygon","coordinates":[[[-9.1710239,38.7671063],[-9.1714126,38.7668748],[-9.1714634,38.7669266],[-9.1715663,38.7668653],[-9.1714663,38.7667632],[-9.1715361,38.7667216],[-9.1715024,38.7666873],[-9.170941,38.7670218],[-9.1710239,38.7671063]]]}},{"type":"Feature","id":"way/1244769044","properties":{"timestamp":"2024-01-30T23:03:44Z","version":"1","changeset":"146882542","user":"RazorWind","uid":"11152051","building":"yes","id":"way/1244769044"},"geometry":{"type":"Polygon","coordinates":[[[-9.1679974,38.765507],[-9.1679465,38.7653985],[-9.1679118,38.7654084],[-9.1678074,38.765438],[-9.1678584,38.7655466],[-9.1679974,38.765507]]]}},{"type":"Feature","id":"way/1244769045","properties":{"timestamp":"2024-01-30T23:03:44Z","version":"1","changeset":"146882542","user":"RazorWind","uid":"11152051","building":"yes","id":"way/1244769045"},"geometry":{"type":"Polygon","coordinates":[[[-9.1679118,38.7654084],[-9.1678603,38.765298],[-9.1678265,38.7653072],[-9.1677216,38.7653367],[-9.1677733,38.7654476],[-9.1678074,38.765438],[-9.1679118,38.7654084]]]}},{"type":"Feature","id":"way/1244769046","properties":{"timestamp":"2024-01-30T23:03:44Z","version":"1","changeset":"146882542","user":"RazorWind","uid":"11152051","building":"yes","id":"way/1244769046"},"geometry":{"type":"Polygon","coordinates":[[[-9.1678265,38.7653072],[-9.1677757,38.7651974],[-9.1677434,38.7652064],[-9.1676352,38.7652362],[-9.1676863,38.7653466],[-9.1677216,38.7653367],[-9.1678265,38.7653072]]]}},{"type":"Feature","id":"way/1244769047","properties":{"timestamp":"2024-01-30T23:03:44Z","version":"1","changeset":"146882542","user":"RazorWind","uid":"11152051","building":"yes","id":"way/1244769047"},"geometry":{"type":"Polygon","coordinates":[[[-9.1677434,38.7652064],[-9.1676937,38.7650964],[-9.1675516,38.7651355],[-9.1676014,38.7652455],[-9.1676352,38.7652362],[-9.1677434,38.7652064]]]}},{"type":"Feature","id":"way/1244769048","properties":{"timestamp":"2024-01-30T23:03:44Z","version":"1","changeset":"146882542","user":"RazorWind","uid":"11152051","building":"yes","id":"way/1244769048"},"geometry":{"type":"Polygon","coordinates":[[[-9.1674651,38.7653487],[-9.1674154,38.7652388],[-9.1672734,38.7652779],[-9.1673231,38.7653878],[-9.1673572,38.7653784],[-9.1674651,38.7653487]]]}},{"type":"Feature","id":"way/1244769049","properties":{"timestamp":"2024-01-30T23:03:44Z","version":"1","changeset":"146882542","user":"RazorWind","uid":"11152051","building":"yes","id":"way/1244769049"},"geometry":{"type":"Polygon","coordinates":[[[-9.1675483,38.7654497],[-9.1674976,38.7653395],[-9.1674651,38.7653487],[-9.1673572,38.7653784],[-9.167408,38.765489],[-9.1674435,38.7654791],[-9.1675483,38.7654497]]]}},{"type":"Feature","id":"way/1244769050","properties":{"timestamp":"2024-01-30T23:03:44Z","version":"1","changeset":"146882542","user":"RazorWind","uid":"11152051","building":"yes","id":"way/1244769050"},"geometry":{"type":"Polygon","coordinates":[[[-9.1676336,38.7655509],[-9.1675822,38.7654401],[-9.1675483,38.7654497],[-9.1674435,38.7654791],[-9.167495,38.76559],[-9.167524,38.7655818],[-9.1676336,38.7655509]]]}},{"type":"Feature","id":"way/1244769051","properties":{"timestamp":"2024-01-30T23:03:44Z","version":"1","changeset":"146882542","user":"RazorWind","uid":"11152051","building":"yes","id":"way/1244769051"},"geometry":{"type":"Polygon","coordinates":[[[-9.1677198,38.7656521],[-9.1676681,38.7655411],[-9.1676336,38.7655509],[-9.167524,38.7655818],[-9.1675758,38.7656929],[-9.167644,38.7656736],[-9.1677198,38.7656521]]]}},{"type":"Feature","id":"way/1244769052","properties":{"timestamp":"2024-01-30T23:03:44Z","version":"1","changeset":"146882542","user":"RazorWind","uid":"11152051","building":"yes","id":"way/1244769052"},"geometry":{"type":"Polygon","coordinates":[[[-9.1678408,38.7657456],[-9.16779,38.765633],[-9.1677198,38.7656521],[-9.167644,38.7656736],[-9.1676947,38.7657857],[-9.1678408,38.7657456]]]}},{"type":"Feature","id":"way/1244769053","properties":{"timestamp":"2024-01-30T23:03:44Z","version":"1","changeset":"146882542","user":"RazorWind","uid":"11152051","building":"yes","id":"way/1244769053"},"geometry":{"type":"Polygon","coordinates":[[[-9.1671268,38.7649421],[-9.1670766,38.7648332],[-9.1669679,38.7648635],[-9.1669359,38.7648714],[-9.1669866,38.7649814],[-9.1670205,38.7649719],[-9.1671268,38.7649421]]]}},{"type":"Feature","id":"way/1244769054","properties":{"timestamp":"2024-01-30T23:03:44Z","version":"1","changeset":"146882542","user":"RazorWind","uid":"11152051","building":"yes","id":"way/1244769054"},"geometry":{"type":"Polygon","coordinates":[[[-9.1672105,38.7650422],[-9.1671608,38.7649325],[-9.1671268,38.7649421],[-9.1670205,38.7649719],[-9.1670699,38.7650809],[-9.1671018,38.7650721],[-9.1672105,38.7650422]]]}},{"type":"Feature","id":"way/1244769055","properties":{"timestamp":"2024-01-30T23:03:44Z","version":"1","changeset":"146882542","user":"RazorWind","uid":"11152051","building":"yes","id":"way/1244769055"},"geometry":{"type":"Polygon","coordinates":[[[-9.1672985,38.7651445],[-9.1672472,38.7650326],[-9.1672105,38.7650422],[-9.1671018,38.7650721],[-9.1671535,38.7651849],[-9.1672985,38.7651445]]]}},{"type":"Feature","id":"way/1244769056","properties":{"timestamp":"2024-01-30T23:03:44Z","version":"1","changeset":"146882542","user":"RazorWind","uid":"11152051","building":"yes","id":"way/1244769056"},"geometry":{"type":"Polygon","coordinates":[[[-9.1675723,38.7650154],[-9.167522,38.7649038],[-9.1674872,38.7649133],[-9.1673803,38.7649426],[-9.1674306,38.7650542],[-9.1675723,38.7650154]]]}},{"type":"Feature","id":"way/1244769057","properties":{"timestamp":"2024-01-30T23:03:44Z","version":"1","changeset":"146882542","user":"RazorWind","uid":"11152051","building":"yes","id":"way/1244769057"},"geometry":{"type":"Polygon","coordinates":[[[-9.1674872,38.7649133],[-9.167438,38.7648032],[-9.1673842,38.7648178],[-9.1673203,38.7648352],[-9.1672969,38.7648415],[-9.1673462,38.7649518],[-9.1673803,38.7649426],[-9.1674872,38.7649133]]]}},{"type":"Feature","id":"way/1244769058","properties":{"timestamp":"2024-01-30T23:03:44Z","version":"1","changeset":"146882542","user":"RazorWind","uid":"11152051","building":"yes","id":"way/1244769058"},"geometry":{"type":"Polygon","coordinates":[[[-9.1673842,38.7648178],[-9.1673398,38.7647209],[-9.1672761,38.7647387],[-9.1673203,38.7648352],[-9.1673842,38.7648178]]]}},{"type":"Feature","id":"way/1244769059","properties":{"timestamp":"2024-01-30T23:03:44Z","version":"1","changeset":"146882542","user":"RazorWind","uid":"11152051","building":"yes","id":"way/1244769059"},"geometry":{"type":"Polygon","coordinates":[[[-9.1671117,38.7648235],[-9.167061,38.7647126],[-9.1669513,38.7647431],[-9.1669172,38.7647527],[-9.1669679,38.7648635],[-9.1670766,38.7648332],[-9.1671117,38.7648235]]]}},{"type":"Feature","id":"way/1244769060","properties":{"timestamp":"2024-01-30T23:03:44Z","version":"1","changeset":"146882542","user":"RazorWind","uid":"11152051","building":"yes","id":"way/1244769060"},"geometry":{"type":"Polygon","coordinates":[[[-9.167096,38.7647029],[-9.1670456,38.7645925],[-9.1669008,38.7646327],[-9.1669513,38.7647431],[-9.167061,38.7647126],[-9.167096,38.7647029]]]}},{"type":"Feature","id":"way/1244769061","properties":{"timestamp":"2024-01-30T23:03:44Z","version":"1","changeset":"146882542","user":"RazorWind","uid":"11152051","building":"yes","id":"way/1244769061"},"geometry":{"type":"Polygon","coordinates":[[[-9.1681641,38.7650694],[-9.168198,38.7649456],[-9.1680564,38.7649221],[-9.1680208,38.7649161],[-9.1679867,38.7650396],[-9.1681641,38.7650694]]]}},{"type":"Feature","id":"way/1244769062","properties":{"timestamp":"2024-01-30T23:03:44Z","version":"1","changeset":"146882542","user":"RazorWind","uid":"11152051","building":"yes","id":"way/1244769062"},"geometry":{"type":"Polygon","coordinates":[[[-9.1681641,38.7650694],[-9.1679867,38.7650396],[-9.1679524,38.7651601],[-9.1681304,38.7651911],[-9.1681641,38.7650694]]]}},{"type":"Feature","id":"way/1244769063","properties":{"timestamp":"2024-01-30T23:03:44Z","version":"1","changeset":"146882542","user":"RazorWind","uid":"11152051","building":"yes","id":"way/1244769063"},"geometry":{"type":"Polygon","coordinates":[[[-9.1681304,38.7651911],[-9.1679524,38.7651601],[-9.1679347,38.7652217],[-9.1679786,38.7652889],[-9.1680965,38.7653095],[-9.1681304,38.7651911]]]}},{"type":"Feature","id":"way/1244769064","properties":{"timestamp":"2024-01-30T23:03:44Z","version":"1","changeset":"146882542","user":"RazorWind","uid":"11152051","building":"yes","id":"way/1244769064"},"geometry":{"type":"Polygon","coordinates":[[[-9.168198,38.7649456],[-9.1682332,38.7648163],[-9.1680644,38.7648929],[-9.1680564,38.7649221],[-9.168198,38.7649456]]]}},{"type":"Feature","id":"way/1244769065","properties":{"timestamp":"2024-01-30T23:03:44Z","version":"1","changeset":"146882542","user":"RazorWind","uid":"11152051","building":"yes","id":"way/1244769065"},"geometry":{"type":"Polygon","coordinates":[[[-9.1682665,38.764694],[-9.1682921,38.7645976],[-9.1681136,38.7645691],[-9.1680793,38.7647003],[-9.1681777,38.764716],[-9.1681712,38.7647408],[-9.1682665,38.764694]]]}},{"type":"Feature","id":"way/1244769066","properties":{"timestamp":"2024-01-30T23:03:44Z","version":"1","changeset":"146882542","user":"RazorWind","uid":"11152051","building":"yes","id":"way/1244769066"},"geometry":{"type":"Polygon","coordinates":[[[-9.1682921,38.7645976],[-9.1683237,38.7644785],[-9.1681265,38.7644467],[-9.1681347,38.7644885],[-9.1681136,38.7645691],[-9.1682921,38.7645976]]]}},{"type":"Feature","id":"way/1244769067","properties":{"timestamp":"2024-01-30T23:03:44Z","version":"1","changeset":"146882542","user":"RazorWind","uid":"11152051","building":"yes","id":"way/1244769067"},"geometry":{"type":"Polygon","coordinates":[[[-9.1683237,38.7644785],[-9.1683578,38.7643589],[-9.1681781,38.7643303],[-9.16816,38.7644096],[-9.1681265,38.7644467],[-9.1683237,38.7644785]]]}},{"type":"Feature","id":"way/1244769068","properties":{"timestamp":"2024-01-30T23:03:44Z","version":"1","changeset":"146882542","user":"RazorWind","uid":"11152051","building":"yes","id":"way/1244769068"},"geometry":{"type":"Polygon","coordinates":[[[-9.1683578,38.7643589],[-9.1683677,38.764321],[-9.1682212,38.7641655],[-9.1681781,38.7643303],[-9.1683578,38.7643589]]]}},{"type":"Feature","id":"way/1244769069","properties":{"timestamp":"2024-01-30T23:03:44Z","version":"1","changeset":"146882542","user":"RazorWind","uid":"11152051","building":"yes","id":"way/1244769069"},"geometry":{"type":"Polygon","coordinates":[[[-9.1681467,38.7640879],[-9.1680226,38.7639526],[-9.1679638,38.7640471],[-9.1681305,38.7641121],[-9.1681467,38.7640879]]]}},{"type":"Feature","id":"way/1244769070","properties":{"timestamp":"2024-01-30T23:03:44Z","version":"1","changeset":"146882542","user":"RazorWind","uid":"11152051","building":"yes","id":"way/1244769070"},"geometry":{"type":"Polygon","coordinates":[[[-9.1678729,38.7648808],[-9.1678267,38.7648255],[-9.1676707,38.7649049],[-9.167717,38.7649601],[-9.1678729,38.7648808]]]}},{"type":"Feature","id":"way/1244769071","properties":{"timestamp":"2024-01-30T23:03:44Z","version":"1","changeset":"146882542","user":"RazorWind","uid":"11152051","building":"yes","id":"way/1244769071"},"geometry":{"type":"Polygon","coordinates":[[[-9.1678267,38.7648255],[-9.1677948,38.7647731],[-9.1676213,38.7648199],[-9.1676707,38.7649049],[-9.1678267,38.7648255]]]}},{"type":"Feature","id":"way/1244769072","properties":{"timestamp":"2024-01-30T23:03:44Z","version":"1","changeset":"146882542","user":"RazorWind","uid":"11152051","building":"yes","id":"way/1244769072"},"geometry":{"type":"Polygon","coordinates":[[[-9.1677948,38.7647731],[-9.1677848,38.7647208],[-9.1676018,38.7647268],[-9.1676213,38.7648199],[-9.1677948,38.7647731]]]}},{"type":"Feature","id":"way/1244769073","properties":{"timestamp":"2024-01-30T23:03:44Z","version":"1","changeset":"146882542","user":"RazorWind","uid":"11152051","building":"yes","id":"way/1244769073"},"geometry":{"type":"Polygon","coordinates":[[[-9.1677848,38.7647208],[-9.1677907,38.764668],[-9.1676136,38.7646336],[-9.1676018,38.7647268],[-9.1677848,38.7647208]]]}},{"type":"Feature","id":"way/1244769074","properties":{"timestamp":"2024-01-30T23:03:44Z","version":"1","changeset":"146882542","user":"RazorWind","uid":"11152051","building":"yes","id":"way/1244769074"},"geometry":{"type":"Polygon","coordinates":[[[-9.1677907,38.764668],[-9.1678152,38.7646176],[-9.1676487,38.764555],[-9.1676136,38.7646336],[-9.1677907,38.764668]]]}},{"type":"Feature","id":"way/1244769075","properties":{"timestamp":"2024-01-30T23:03:44Z","version":"1","changeset":"146882542","user":"RazorWind","uid":"11152051","building":"yes","id":"way/1244769075"},"geometry":{"type":"Polygon","coordinates":[[[-9.1678152,38.7646176],[-9.1678509,38.764559],[-9.1676852,38.7644968],[-9.1676487,38.764555],[-9.1678152,38.7646176]]]}},{"type":"Feature","id":"way/1244769076","properties":{"timestamp":"2024-01-30T23:03:44Z","version":"1","changeset":"146882542","user":"RazorWind","uid":"11152051","building":"yes","id":"way/1244769076"},"geometry":{"type":"Polygon","coordinates":[[[-9.1678509,38.764559],[-9.1678856,38.7645067],[-9.1677198,38.764442],[-9.1676852,38.7644968],[-9.1678509,38.764559]]]}},{"type":"Feature","id":"way/1244769077","properties":{"timestamp":"2024-01-30T23:03:44Z","version":"1","changeset":"146882542","user":"RazorWind","uid":"11152051","building":"yes","id":"way/1244769077"},"geometry":{"type":"Polygon","coordinates":[[[-9.1678856,38.7645067],[-9.1679208,38.7644518],[-9.1677551,38.764387],[-9.1677198,38.764442],[-9.1678856,38.7645067]]]}},{"type":"Feature","id":"way/1244769078","properties":{"timestamp":"2024-01-30T23:03:44Z","version":"1","changeset":"146882542","user":"RazorWind","uid":"11152051","building":"yes","id":"way/1244769078"},"geometry":{"type":"Polygon","coordinates":[[[-9.1679208,38.7644518],[-9.1679349,38.7644308],[-9.1679725,38.7644006],[-9.1677884,38.7643304],[-9.1677551,38.764387],[-9.1679208,38.7644518]]]}},{"type":"Feature","id":"way/1244769079","properties":{"timestamp":"2024-01-30T23:03:44Z","version":"1","changeset":"146882542","user":"RazorWind","uid":"11152051","building":"yes","id":"way/1244769079"},"geometry":{"type":"Polygon","coordinates":[[[-9.1679725,38.7644006],[-9.1679784,38.7643565],[-9.1679902,38.7643368],[-9.1678252,38.7642744],[-9.1677884,38.7643304],[-9.1679725,38.7644006]]]}},{"type":"Feature","id":"way/1244769080","properties":{"timestamp":"2024-01-30T23:03:44Z","version":"1","changeset":"146882542","user":"RazorWind","uid":"11152051","building":"yes","id":"way/1244769080"},"geometry":{"type":"Polygon","coordinates":[[[-9.1679902,38.7643368],[-9.1680253,38.7642798],[-9.1678594,38.7642181],[-9.1678252,38.7642744],[-9.1679902,38.7643368]]]}},{"type":"Feature","id":"way/1244769081","properties":{"timestamp":"2024-01-30T23:03:44Z","version":"1","changeset":"146882542","user":"RazorWind","uid":"11152051","building":"yes","id":"way/1244769081"},"geometry":{"type":"Polygon","coordinates":[[[-9.1680253,38.7642798],[-9.1680604,38.7642225],[-9.1678945,38.7641607],[-9.1678594,38.7642181],[-9.1680253,38.7642798]]]}},{"type":"Feature","id":"way/1244769082","properties":{"timestamp":"2024-01-30T23:03:44Z","version":"1","changeset":"146882542","user":"RazorWind","uid":"11152051","building":"yes","id":"way/1244769082"},"geometry":{"type":"Polygon","coordinates":[[[-9.1680604,38.7642225],[-9.1680955,38.7641661],[-9.1679302,38.7641051],[-9.1678945,38.7641607],[-9.1680604,38.7642225]]]}},{"type":"Feature","id":"way/1244769083","properties":{"timestamp":"2024-01-30T23:03:44Z","version":"1","changeset":"146882542","user":"RazorWind","uid":"11152051","building":"yes","id":"way/1244769083"},"geometry":{"type":"Polygon","coordinates":[[[-9.1680955,38.7641661],[-9.1681305,38.7641121],[-9.1679638,38.7640471],[-9.1679302,38.7641051],[-9.1680955,38.7641661]]]}},{"type":"Feature","id":"way/1244769084","properties":{"timestamp":"2024-01-30T23:03:44Z","version":"1","changeset":"146882542","user":"RazorWind","uid":"11152051","building":"yes","id":"way/1244769084"},"geometry":{"type":"Polygon","coordinates":[[[-9.1704108,38.7660527],[-9.1704529,38.7658987],[-9.1703302,38.7658781],[-9.1702873,38.7660321],[-9.1704108,38.7660527]]]}},{"type":"Feature","id":"way/1244769085","properties":{"timestamp":"2024-01-30T23:03:44Z","version":"1","changeset":"146882542","user":"RazorWind","uid":"11152051","building":"yes","id":"way/1244769085"},"geometry":{"type":"Polygon","coordinates":[[[-9.1704529,38.7658987],[-9.1704946,38.7657474],[-9.170372,38.7657268],[-9.1703302,38.7658781],[-9.1704529,38.7658987]]]}},{"type":"Feature","id":"way/1244769086","properties":{"timestamp":"2025-01-31T00:38:44Z","version":"2","changeset":"161960084","user":"DanielAgos","uid":"20972402","building":"yes","id":"way/1244769086"},"geometry":{"type":"Polygon","coordinates":[[[-9.167184,38.7672837],[-9.1671649,38.7673526],[-9.1674463,38.7674],[-9.1674654,38.7673311],[-9.167184,38.7672837]]]}},{"type":"Feature","id":"way/1244769087","properties":{"timestamp":"2025-01-31T00:38:44Z","version":"2","changeset":"161960084","user":"DanielAgos","uid":"20972402","building":"yes","id":"way/1244769087"},"geometry":{"type":"Polygon","coordinates":[[[-9.1666673,38.7670004],[-9.1666481,38.7670703],[-9.1669325,38.7671173],[-9.1669518,38.767047],[-9.1666673,38.7670004]]]}},{"type":"Feature","id":"way/1244769088","properties":{"timestamp":"2025-01-31T00:38:44Z","version":"2","changeset":"161960084","user":"DanielAgos","uid":"20972402","building":"yes","id":"way/1244769088"},"geometry":{"type":"Polygon","coordinates":[[[-9.167366,38.7666393],[-9.1673465,38.7667108],[-9.1676288,38.7667577],[-9.1676483,38.7666861],[-9.167366,38.7666393]]]}},{"type":"Feature","id":"way/1355522433","properties":{"timestamp":"2025-01-31T00:38:44Z","version":"1","changeset":"161960084","user":"DanielAgos","uid":"20972402","building":"yes","id":"way/1355522433"},"geometry":{"type":"Polygon","coordinates":[[[-9.1669903,38.7669042],[-9.167011,38.7668276],[-9.1667266,38.7667809],[-9.1667059,38.7668574],[-9.1669903,38.7669042]]]}},{"type":"Feature","id":"way/1355522434","properties":{"timestamp":"2025-01-31T00:38:44Z","version":"1","changeset":"161960084","user":"DanielAgos","uid":"20972402","building":"yes","id":"way/1355522434"},"geometry":{"type":"Polygon","coordinates":[[[-9.1667059,38.7668574],[-9.1666867,38.7669285],[-9.1669711,38.7669753],[-9.1669903,38.7669042],[-9.1667059,38.7668574]]]}},{"type":"Feature","id":"way/1355522435","properties":{"timestamp":"2025-01-31T00:38:44Z","version":"1","changeset":"161960084","user":"DanielAgos","uid":"20972402","building":"yes","id":"way/1355522435"},"geometry":{"type":"Polygon","coordinates":[[[-9.1666867,38.7669285],[-9.1666673,38.7670004],[-9.1669518,38.767047],[-9.1669711,38.7669753],[-9.1666867,38.7669285]]]}},{"type":"Feature","id":"way/1355522436","properties":{"timestamp":"2025-01-31T00:38:44Z","version":"1","changeset":"161960084","user":"DanielAgos","uid":"20972402","building":"yes","id":"way/1355522436"},"geometry":{"type":"Polygon","coordinates":[[[-9.1675853,38.7668985],[-9.1676053,38.7668264],[-9.1673239,38.766779],[-9.1673039,38.7668511],[-9.1675853,38.7668985]]]}},{"type":"Feature","id":"way/1355522437","properties":{"timestamp":"2025-01-31T00:38:44Z","version":"1","changeset":"161960084","user":"DanielAgos","uid":"20972402","building":"yes","id":"way/1355522437"},"geometry":{"type":"Polygon","coordinates":[[[-9.1675653,38.7669706],[-9.1675853,38.7668985],[-9.1673039,38.7668511],[-9.1672839,38.7669232],[-9.1675653,38.7669706]]]}},{"type":"Feature","id":"way/1355522438","properties":{"timestamp":"2025-01-31T00:38:44Z","version":"1","changeset":"161960084","user":"DanielAgos","uid":"20972402","building":"yes","id":"way/1355522438"},"geometry":{"type":"Polygon","coordinates":[[[-9.1675453,38.7670427],[-9.1675653,38.7669706],[-9.1672839,38.7669232],[-9.1672639,38.7669953],[-9.1675453,38.7670427]]]}},{"type":"Feature","id":"way/1355522439","properties":{"timestamp":"2025-01-31T00:38:44Z","version":"1","changeset":"161960084","user":"DanielAgos","uid":"20972402","building":"yes","id":"way/1355522439"},"geometry":{"type":"Polygon","coordinates":[[[-9.1675253,38.7671148],[-9.1675453,38.7670427],[-9.1672639,38.7669953],[-9.167244,38.7670674],[-9.1675253,38.7671148]]]}},{"type":"Feature","id":"way/1355522440","properties":{"timestamp":"2025-01-31T00:38:44Z","version":"1","changeset":"161960084","user":"DanielAgos","uid":"20972402","building":"yes","id":"way/1355522440"},"geometry":{"type":"Polygon","coordinates":[[[-9.1675054,38.7671869],[-9.1675253,38.7671148],[-9.167244,38.7670674],[-9.167224,38.7671395],[-9.1675054,38.7671869]]]}},{"type":"Feature","id":"way/1355522441","properties":{"timestamp":"2025-01-31T00:38:44Z","version":"1","changeset":"161960084","user":"DanielAgos","uid":"20972402","building":"yes","id":"way/1355522441"},"geometry":{"type":"Polygon","coordinates":[[[-9.1674854,38.767259],[-9.1675054,38.7671869],[-9.167224,38.7671395],[-9.167204,38.7672116],[-9.1674854,38.767259]]]}},{"type":"Feature","id":"way/1355522442","properties":{"timestamp":"2025-01-31T00:38:44Z","version":"1","changeset":"161960084","user":"DanielAgos","uid":"20972402","building":"yes","id":"way/1355522442"},"geometry":{"type":"Polygon","coordinates":[[[-9.1674654,38.7673311],[-9.1674854,38.767259],[-9.167204,38.7672116],[-9.167184,38.7672837],[-9.1674654,38.7673311]]]}},{"type":"Feature","id":"way/1355522443","properties":{"timestamp":"2025-01-31T00:38:44Z","version":"1","changeset":"161960084","user":"DanielAgos","uid":"20972402","building":"yes","id":"way/1355522443"},"geometry":{"type":"Polygon","coordinates":[[[-9.1677652,38.7662582],[-9.1677846,38.7661869],[-9.1675023,38.76614],[-9.1674828,38.7662113],[-9.1677652,38.7662582]]]}},{"type":"Feature","id":"way/1355522444","properties":{"timestamp":"2025-01-31T00:38:44Z","version":"1","changeset":"161960084","user":"DanielAgos","uid":"20972402","building":"yes","id":"way/1355522444"},"geometry":{"type":"Polygon","coordinates":[[[-9.1677457,38.7663295],[-9.1677652,38.7662582],[-9.1674828,38.7662113],[-9.1674634,38.7662827],[-9.1677457,38.7663295]]]}},{"type":"Feature","id":"way/1355522445","properties":{"timestamp":"2025-01-31T00:38:44Z","version":"1","changeset":"161960084","user":"DanielAgos","uid":"20972402","building":"yes","id":"way/1355522445"},"geometry":{"type":"Polygon","coordinates":[[[-9.1677262,38.7664008],[-9.1677457,38.7663295],[-9.1674634,38.7662827],[-9.1674439,38.766354],[-9.1677262,38.7664008]]]}},{"type":"Feature","id":"way/1355522446","properties":{"timestamp":"2025-01-31T00:38:44Z","version":"1","changeset":"161960084","user":"DanielAgos","uid":"20972402","building":"yes","id":"way/1355522446"},"geometry":{"type":"Polygon","coordinates":[[[-9.1677068,38.7664722],[-9.1677262,38.7664008],[-9.1674439,38.766354],[-9.1674244,38.7664253],[-9.1677068,38.7664722]]]}},{"type":"Feature","id":"way/1355522447","properties":{"timestamp":"2025-01-31T00:38:44Z","version":"1","changeset":"161960084","user":"DanielAgos","uid":"20972402","building":"yes","id":"way/1355522447"},"geometry":{"type":"Polygon","coordinates":[[[-9.1676873,38.7665435],[-9.1677068,38.7664722],[-9.1674244,38.7664253],[-9.167405,38.7664966],[-9.1676873,38.7665435]]]}},{"type":"Feature","id":"way/1355522448","properties":{"timestamp":"2025-01-31T00:38:44Z","version":"1","changeset":"161960084","user":"DanielAgos","uid":"20972402","building":"yes","id":"way/1355522448"},"geometry":{"type":"Polygon","coordinates":[[[-9.1676678,38.7666148],[-9.1676873,38.7665435],[-9.167405,38.7664966],[-9.1673855,38.766568],[-9.1676678,38.7666148]]]}},{"type":"Feature","id":"way/1355522449","properties":{"timestamp":"2025-01-31T00:38:44Z","version":"1","changeset":"161960084","user":"DanielAgos","uid":"20972402","building":"yes","id":"way/1355522449"},"geometry":{"type":"Polygon","coordinates":[[[-9.1676483,38.7666861],[-9.1676678,38.7666148],[-9.1673855,38.766568],[-9.167366,38.7666393],[-9.1676483,38.7666861]]]}},{"type":"Feature","id":"way/1355522450","properties":{"timestamp":"2025-01-31T00:38:44Z","version":"1","changeset":"161960084","user":"DanielAgos","uid":"20972402","building":"terrace","id":"way/1355522450"},"geometry":{"type":"Polygon","coordinates":[[[-9.1672065,38.7666839],[-9.1670573,38.7666582],[-9.1670338,38.7667411],[-9.167183,38.7667668],[-9.1672065,38.7666839]]]}},{"type":"Feature","id":"way/1355522451","properties":{"timestamp":"2025-01-31T00:38:44Z","version":"1","changeset":"161960084","user":"DanielAgos","uid":"20972402","building":"terrace","id":"way/1355522451"},"geometry":{"type":"Polygon","coordinates":[[[-9.1672301,38.766601],[-9.1670808,38.7665753],[-9.1670573,38.7666582],[-9.1672065,38.7666839],[-9.1672301,38.766601]]]}},{"type":"Feature","id":"way/1355522452","properties":{"timestamp":"2025-01-31T00:38:44Z","version":"1","changeset":"161960084","user":"DanielAgos","uid":"20972402","building":"terrace","id":"way/1355522452"},"geometry":{"type":"Polygon","coordinates":[[[-9.1672536,38.7665182],[-9.1671043,38.7664925],[-9.1670808,38.7665753],[-9.1672301,38.766601],[-9.1672536,38.7665182]]]}},{"type":"Feature","id":"way/1355522453","properties":{"timestamp":"2025-01-31T00:38:44Z","version":"1","changeset":"161960084","user":"DanielAgos","uid":"20972402","building":"terrace","id":"way/1355522453"},"geometry":{"type":"Polygon","coordinates":[[[-9.1672772,38.7664353],[-9.1671278,38.7664096],[-9.1671043,38.7664925],[-9.1672536,38.7665182],[-9.1672772,38.7664353]]]}},{"type":"Feature","id":"way/1355522454","properties":{"timestamp":"2025-01-31T00:38:44Z","version":"1","changeset":"161960084","user":"DanielAgos","uid":"20972402","building":"terrace","id":"way/1355522454"},"geometry":{"type":"Polygon","coordinates":[[[-9.1673007,38.7663524],[-9.1671513,38.7663267],[-9.1671278,38.7664096],[-9.1672772,38.7664353],[-9.1673007,38.7663524]]]}},{"type":"Feature","id":"way/1497611658","properties":{"timestamp":"2026-04-08T08:44:25Z","version":"1","changeset":"181036708","user":"Jimiiee","uid":"2644617","building":"yes","id":"way/1497611658"},"geometry":{"type":"Polygon","coordinates":[[[-9.1687426,38.7673808],[-9.1689688,38.7672842],[-9.1689004,38.7671868],[-9.1686741,38.7672834],[-9.1687426,38.7673808]]]}}]}