{"type":"FeatureCollection","features":[{"type":"Feature","id":"way/427935116","properties":{"timestamp":"2026-04-08T08:44:25Z","version":"3","changeset":"181036708","user":"Jimiiee","uid":"2644617","landuse":"commercial","name":"Natura Towers","id":"way/427935116"},"geometry":{"type":"Polygon","coordinates":[[[-9.1656306,38.7703027],[-9.1649457,38.7693437],[-9.164746,38.7692982],[-9.1645491,38.7697688],[-9.1644872,38.7700847],[-9.1644265,38.7703759],[-9.1644265,38.7704506],[-9.1644603,38.7704979],[-9.1645012,38.7705616],[-9.1645631,38.7706026],[-9.164618,38.7706217],[-9.1646903,38.7706263],[-9.1651881,38.7704481],[-9.1656306,38.7703027]]]}},{"type":"Feature","id":"way/686377702","properties":{"timestamp":"2024-01-15T16:14:58Z","version":"2","changeset":"146289081","user":"Miguel_A","uid":"89955","bridge":"viaduct","bridge:structure":"beam","layer":"1","man_made":"bridge","name":"Viaduto de Telheiras","id":"way/686377702"},"geometry":{"type":"Polygon","coordinates":[[[-9.1727437,38.7634551],[-9.1727524,38.7635291],[-9.1727638,38.7636274],[-9.1727736,38.7637111],[-9.1728238,38.7637201],[-9.172886,38.7637312],[-9.1729482,38.7637424],[-9.172979,38.7637479],[-9.173041,38.763759],[-9.173103,38.7637701],[-9.1731531,38.7637791],[-9.1731449,38.7637068],[-9.1731416,38.7636776],[-9.1731314,38.7635886],[-9.173124,38.7635238],[-9.1730757,38.763515],[-9.1730141,38.7635039],[-9.1729525,38.7634928],[-9.1729202,38.763487],[-9.1728579,38.7634757],[-9.1727955,38.7634645],[-9.1727437,38.7634551]]]}},{"type":"Feature","id":"way/722386218","properties":{"timestamp":"2026-04-08T08:44:25Z","version":"5","changeset":"181036708","user":"Jimiiee","uid":"2644617","bridge:structure":"beam","layer":"1","man_made":"bridge","id":"way/722386218"},"geometry":{"type":"Polygon","coordinates":[[[-9.1687155,38.7690928],[-9.1687899,38.769195],[-9.1689888,38.7694684],[-9.1690682,38.7695775],[-9.1691473,38.7695396],[-9.1692192,38.7694949],[-9.1691887,38.7694495],[-9.1691428,38.7693862],[-9.1689774,38.7691576],[-9.1688757,38.769017],[-9.1687956,38.7690549],[-9.1687155,38.7690928]]]}},{"type":"Feature","id":"way/776616396","properties":{"timestamp":"2020-02-26T21:25:45Z","version":"1","changeset":"81521797","user":"HeapSrc","uid":"1728066","access":"customers","leisure":"swimming_pool","length":"25","lit":"yes","location":"indoor","swimming_pool":"covered","id":"way/776616396"},"geometry":{"type":"Polygon","coordinates":[[[-9.1709743,38.7654013],[-9.1710922,38.7649813],[-9.1708419,38.7649386],[-9.1707241,38.7653586],[-9.1709743,38.7654013]]]}},{"type":"Feature","id":"way/1003762722","properties":{"timestamp":"2026-04-08T08:44:25Z","version":"3","changeset":"181036708","user":"Jimiiee","uid":"2644617","landuse":"industrial","man_made":"water_works","name":"Reservatório de Telheiras","operator":"EPAL","id":"way/1003762722"},"geometry":{"type":"Polygon","coordinates":[[[-9.1696243,38.7671924],[-9.1697675,38.7666713],[-9.170327,38.7646349],[-9.1686409,38.7643547],[-9.168581,38.7645588],[-9.1679271,38.7669072],[-9.1690632,38.7670981],[-9.1696243,38.7671924]]]}},{"type":"Feature","id":"way/1371375056","properties":{"timestamp":"2026-04-01T09:32:14Z","version":"2","changeset":"180710834","user":"Jimiiee","uid":"2644617","boundary":"place","name":"Telheiras Norte","place":"neighbourhood","id":"way/1371375056"},"geometry":{"type":"Polygon","coordinates":[[[-9.1722871,38.7635026],[-9.1712075,38.7633112],[-9.1708535,38.7632537],[-9.1706483,38.763237],[-9.1705088,38.7632391],[-9.1669321,38.7633468],[-9.1669536,38.7638571],[-9.1669388,38.7640171],[-9.1668946,38.7641384],[-9.1666652,38.7645462],[-9.166633,38.7646518],[-9.166633,38.7647355],[-9.1666558,38.7648285],[-9.1667014,38.7649132],[-9.1672298,38.7655856],[-9.1672808,38.7656891],[-9.1673009,38.7657728],[-9.1672969,38.7658596],[-9.1672768,38.7659255],[-9.1672473,38.7659819],[-9.1671668,38.7660896],[-9.1663434,38.7669429],[-9.1662602,38.7669868],[-9.1661797,38.7670098],[-9.1660617,38.7670286],[-9.1659558,38.7670349],[-9.1654716,38.7670307],[-9.1654341,38.7674364],[-9.1652893,38.7679708],[-9.1650291,38.768571],[-9.1648694,38.7690042],[-9.1646267,38.7696626],[-9.1643666,38.7703151],[-9.1643402,38.7704243],[-9.164326,38.770494],[-9.1643442,38.7705644],[-9.1643859,38.7706188],[-9.1644486,38.7706611],[-9.1645399,38.7706879],[-9.16461,38.7706897],[-9.1646721,38.7706784],[-9.1648628,38.7706026],[-9.1651592,38.770496],[-9.1659048,38.7702827],[-9.1662776,38.7701875],[-9.1666451,38.7700704],[-9.1669361,38.7699752],[-9.1681445,38.7694566],[-9.1689961,38.7690718],[-9.169609,38.7688031],[-9.1700636,38.7685699],[-9.1704994,38.7683106],[-9.1707408,38.7681318],[-9.1710359,38.7678892],[-9.1713242,38.7676383],[-9.171575,38.7673748],[-9.171984,38.7668456],[-9.1721356,38.7665832],[-9.1722724,38.7663322],[-9.1724749,38.7658554],[-9.1726023,38.765435],[-9.1726734,38.7650691],[-9.1726801,38.7649446],[-9.1726653,38.7647721],[-9.172617,38.7645629],[-9.1724749,38.7641028],[-9.1723582,38.7638623],[-9.1722845,38.7636908],[-9.1722737,38.7635727],[-9.1722871,38.7635026]]]}},{"type":"Feature","id":"way/1371375057","properties":{"timestamp":"2026-04-01T09:32:14Z","version":"2","changeset":"180710834","user":"Jimiiee","uid":"2644617","name":"Telheiras Sul","place":"neighbourhood","id":"way/1371375057"},"geometry":{"type":"Polygon","coordinates":[[[-9.1654716,38.7670307],[-9.1659558,38.7670349],[-9.1660617,38.7670286],[-9.1661797,38.7670098],[-9.1662602,38.7669868],[-9.1663434,38.7669429],[-9.1664694,38.7668321],[-9.1666827,38.7666093],[-9.1671668,38.7660896],[-9.1672473,38.7659819],[-9.1672768,38.7659255],[-9.1672969,38.7658596],[-9.1673009,38.7657728],[-9.1672808,38.7656891],[-9.1672298,38.7655856],[-9.1667014,38.7649132],[-9.1666558,38.7648285],[-9.166633,38.7647355],[-9.166633,38.7646518],[-9.1666652,38.7645462],[-9.1668946,38.7641384],[-9.1669388,38.7640171],[-9.1669536,38.7638571],[-9.1669321,38.7633468],[-9.1705088,38.7632391],[-9.1706483,38.763237],[-9.1708535,38.7632537],[-9.1712075,38.7633112],[-9.1722871,38.7635026],[-9.1723783,38.7632234],[-9.1724226,38.7631],[-9.1724937,38.7628971],[-9.1725165,38.7627633],[-9.1725218,38.762574],[-9.172491,38.7618828],[-9.172432,38.7611372],[-9.1723086,38.7604679],[-9.172208,38.759853],[-9.1721289,38.7594284],[-9.1719398,38.7588637],[-9.1718955,38.758779],[-9.1717896,38.7586671],[-9.1715777,38.7585301],[-9.1714055,38.7584212],[-9.171343,38.7583816],[-9.1711982,38.7582613],[-9.1710936,38.7581097],[-9.1709957,38.7579936],[-9.1707958,38.7578597],[-9.1705625,38.7577468],[-9.170301,38.7576663],[-9.1701373,38.7576349],[-9.1699617,38.7576129],[-9.169739,38.7575931],[-9.1682249,38.7574529],[-9.1677783,38.7574445],[-9.1663125,38.7574529],[-9.1645959,38.7576202],[-9.1641681,38.7576997],[-9.1636853,38.7578053],[-9.161793,38.7582425],[-9.161624,38.7583094],[-9.1615234,38.7583868],[-9.1614684,38.7584642],[-9.1614242,38.7585479],[-9.1613826,38.7586953],[-9.1613518,38.7588386],[-9.1613317,38.759007],[-9.1613464,38.7591826],[-9.1613907,38.7593008],[-9.161455,38.7594002],[-9.1615596,38.7595194],[-9.1619673,38.7599136],[-9.1628739,38.7608893],[-9.1630228,38.7610964],[-9.1635405,38.7618148],[-9.1641507,38.7625479],[-9.164494,38.7630341],[-9.1647099,38.7634033],[-9.1649205,38.7638205],[-9.1650693,38.7641478],[-9.1651846,38.7644301],[-9.1652799,38.7647187],[-9.1653939,38.7652364],[-9.1654354,38.7655668],[-9.1654743,38.765961],[-9.1655038,38.7663312],[-9.1654864,38.7666208],[-9.1654716,38.7670307]]]}},{"type":"Feature","id":"way/1371896837","properties":{"timestamp":"2025-03-26T20:10:32Z","version":"1","changeset":"164137428","user":"DiogoBaptista98","uid":"1193685","architect":"Duarte Nuno Simões;Maria do Rosário Venade;Maria Teresa Marques da Silva;Nuno da Silva Araújo Simões;Sérgio de Almeida Rebelo","name":"Bairro Coociclo","place":"city_block","id":"way/1371896837"},"geometry":{"type":"Polygon","coordinates":[[[-9.1676313,38.7635401],[-9.1675581,38.7635737],[-9.167476,38.7636263],[-9.1674053,38.7636923],[-9.1673516,38.7637722],[-9.1673223,38.7638337],[-9.1670524,38.7643643],[-9.1670296,38.7644258],[-9.1670524,38.7644873],[-9.1670922,38.7645095],[-9.167167,38.764538],[-9.1672855,38.7645847],[-9.1674146,38.7646334],[-9.1676018,38.7647268],[-9.1676213,38.7648199],[-9.1676707,38.7649049],[-9.167717,38.7649601],[-9.1679786,38.7652889],[-9.1680965,38.7653095],[-9.1683677,38.764321],[-9.1682212,38.7641655],[-9.1681467,38.7640879],[-9.1680226,38.7639526],[-9.1679404,38.7638659],[-9.1678146,38.7637328],[-9.1677451,38.7636587],[-9.1676313,38.7635401]]]}},{"type":"Feature","id":"way/1494978830","properties":{"timestamp":"2026-04-08T08:44:25Z","version":"2","changeset":"181036708","user":"Jimiiee","uid":"2644617","landuse":"residential","id":"way/1494978830"},"geometry":{"type":"Polygon","coordinates":[[[-9.1648694,38.7690042],[-9.164746,38.7692982],[-9.1649457,38.7693437],[-9.1656306,38.7703027],[-9.1659221,38.7702112],[-9.1661147,38.7701429],[-9.1662443,38.7700774],[-9.1664346,38.769919],[-9.1664871,38.7699363],[-9.1665852,38.7697934],[-9.1666706,38.7699146],[-9.1678038,38.7694592],[-9.168595,38.7690803],[-9.1687155,38.7690928],[-9.1688757,38.769017],[-9.1688599,38.7689975],[-9.1689539,38.7689218],[-9.1700692,38.7683909],[-9.170043,38.7683429],[-9.1700985,38.768298],[-9.170107,38.7682475],[-9.1704082,38.7680862],[-9.1703428,38.7680269],[-9.1703013,38.7680447],[-9.1702651,38.7679809],[-9.1703743,38.7678668],[-9.1704396,38.767651],[-9.1705476,38.7673296],[-9.1708812,38.7670945],[-9.1709431,38.7671166],[-9.1711873,38.7673677],[-9.1718412,38.7669813],[-9.1719613,38.7668588],[-9.172291,38.7662822],[-9.1724671,38.765326],[-9.172233,38.7637068],[-9.1723562,38.7631206],[-9.1724055,38.7614918],[-9.172233,38.7603434],[-9.1719978,38.7591053],[-9.1714055,38.7584212],[-9.17078,38.7579159],[-9.168791,38.7575847],[-9.1678354,38.7574908],[-9.1650536,38.7575074],[-9.1636945,38.7577171],[-9.161932,38.7581753],[-9.1612737,38.758926],[-9.161302,38.7593234],[-9.1624365,38.7603124],[-9.1639599,38.7621613],[-9.1646788,38.7630648],[-9.1649685,38.7637759],[-9.1657087,38.7653904],[-9.1656551,38.7663357],[-9.1655425,38.7672585],[-9.1652787,38.7680969],[-9.1650463,38.7686025],[-9.1648694,38.7690042]]]}},{"type":"Feature","id":"way/390480223","properties":{"timestamp":"2026-04-08T08:44:25Z","version":"5","changeset":"181036708","user":"Jimiiee","uid":"2644617","barrier":"fence","fence_type":"chain_link","operator":"Empresa Portuguesa das Águas Livres SA","short_name":"EPAL","id":"way/390480223"},"geometry":{"type":"LineString","coordinates":[[-9.1686409,38.7643547],[-9.170327,38.7646349],[-9.1697675,38.7666713],[-9.1696243,38.7671924],[-9.1690632,38.7670981],[-9.1679271,38.7669072],[-9.168581,38.7645588],[-9.1686409,38.7643547]]}},{"type":"Feature","id":"way/403338005","properties":{"timestamp":"2024-03-06T17:33:01Z","version":"6","changeset":"148306995","user":"dmfr","uid":"15324596","circuits":"1","fixme":"Este percurso é aproximado e provavelmente bastante incorreto. Obter fonte que indique traçado da linha.","frequency":"50","layer":"-1","location":"underground","name":"Carriche - Sete Rios","operator":"REN","operator:wikidata":"Q1862842","power":"cable","voltage":"220000","id":"way/403338005"},"geometry":{"type":"LineString","coordinates":[[-9.1700199,38.7390092],[-9.1698138,38.7393843],[-9.1666621,38.7797778]]}},{"type":"Feature","id":"way/427932956","properties":{"timestamp":"2016-06-29T04:13:31Z","version":"1","changeset":"40357254","user":"Josef K","uid":"47097","barrier":"wall","id":"way/427932956"},"geometry":{"type":"LineString","coordinates":[[-9.1668808,38.7681167],[-9.1669605,38.7678574],[-9.1671583,38.7677799]]}},{"type":"Feature","id":"way/427932958","properties":{"timestamp":"2017-09-22T04:53:40Z","version":"2","changeset":"52263224","user":"JPF_pt","uid":"350918","barrier":"fence","fence_type":"metal","id":"way/427932958"},"geometry":{"type":"LineString","coordinates":[[-9.1671583,38.7677799],[-9.1670702,38.7676678],[-9.1671321,38.7676356],[-9.1669171,38.7673176],[-9.1668867,38.7672499],[-9.1668954,38.7671588],[-9.1666047,38.7670987]]}},{"type":"Feature","id":"way/526653548","properties":{"timestamp":"2017-09-22T04:53:39Z","version":"1","changeset":"52263224","user":"JPF_pt","uid":"350918","barrier":"fence","id":"way/526653548"},"geometry":{"type":"LineString","coordinates":[[-9.1726731,38.7649537],[-9.1725252,38.7656985],[-9.172291,38.7662822],[-9.1719613,38.7668588],[-9.1718412,38.7669813],[-9.1711873,38.7673677],[-9.1709431,38.7671166],[-9.1708812,38.7670945],[-9.1705476,38.7673296],[-9.1704396,38.767651],[-9.1703743,38.7678668],[-9.1702651,38.7679809]]}},{"type":"Feature","id":"way/527701059","properties":{"timestamp":"2024-02-05T12:19:55Z","version":"2","changeset":"147091608","user":"Cariocecus","uid":"176099","leaf_type":"mixed","natural":"tree_row","id":"way/527701059"},"geometry":{"type":"LineString","coordinates":[[-9.1666499,38.7699594],[-9.1660019,38.7702111],[-9.1657257,38.7702717],[-9.1647359,38.7706356]]}},{"type":"Feature","id":"way/1103899770","properties":{"timestamp":"2025-04-20T18:37:16Z","version":"3","changeset":"165208128","user":"PedroMTG13","uid":"12609629","layer":"-1","location":"underground","man_made":"pipeline","name":"Adutor Vila Franca de Xira-Telheiras","source":"Bing","substance":"water","tunnel":"yes","usage":"transmission","id":"way/1103899770"},"geometry":{"type":"LineString","coordinates":[[-9.1090117,38.7999875],[-9.1094597,38.7998777],[-9.1096415,38.7995579],[-9.1114493,38.796438],[-9.1121976,38.7951709],[-9.1127944,38.7944266],[-9.1132373,38.7940483],[-9.1170437,38.7946767],[-9.1173568,38.7942727],[-9.1167872,38.7932267],[-9.1161096,38.7904384],[-9.1160238,38.789698],[-9.1161221,38.7891259],[-9.1174239,38.7876669],[-9.1183026,38.7868481],[-9.1208615,38.7846223],[-9.1214056,38.784224],[-9.1231605,38.782912],[-9.1243846,38.7824068],[-9.1247725,38.7822147],[-9.124694,38.7818692],[-9.1245894,38.7807181],[-9.1245559,38.7803428],[-9.1245103,38.7800448],[-9.1244325,38.779749],[-9.1242917,38.7793601],[-9.1239551,38.7787077],[-9.1238451,38.778463],[-9.1237767,38.7782769],[-9.1237472,38.7780407],[-9.1237324,38.7776392],[-9.1237164,38.7770547],[-9.1236962,38.7766167],[-9.123707,38.7761431],[-9.1237482,38.7756038],[-9.1236064,38.7737969],[-9.1237566,38.7727095],[-9.123947,38.771574],[-9.1240999,38.7707166],[-9.1242448,38.7700788],[-9.124395,38.7695183],[-9.1246471,38.7688637],[-9.1249099,38.7683054],[-9.1253659,38.7675504],[-9.1259024,38.7668206],[-9.1265649,38.7661074],[-9.1275439,38.7651705],[-9.1280669,38.7647187],[-9.1286328,38.7643193],[-9.1291291,38.7640265],[-9.1297942,38.7637149],[-9.1304031,38.7635016],[-9.1310871,38.7633091],[-9.1318113,38.7631774],[-9.1325355,38.7631105],[-9.1333321,38.7630958],[-9.1344264,38.7631146],[-9.1365373,38.7631418],[-9.1379079,38.7631669],[-9.1389674,38.763169],[-9.139815,38.7631523],[-9.1402031,38.7631276],[-9.1409335,38.7630812],[-9.1418213,38.7629975],[-9.1428754,38.7628595],[-9.1439027,38.7626901],[-9.1452733,38.7624391],[-9.1462201,38.7622613],[-9.1470838,38.762094],[-9.1479367,38.7619058],[-9.149082,38.7616004],[-9.1497579,38.7613892],[-9.1508254,38.7610295],[-9.1524965,38.7604459],[-9.1537732,38.7599983],[-9.1546395,38.7597034],[-9.1556695,38.7594127],[-9.1574639,38.758986],[-9.1586629,38.7586995],[-9.159084,38.7586388],[-9.1593951,38.7586409],[-9.159843,38.7587204],[-9.1601636,38.7588658],[-9.1607872,38.7592579],[-9.1612244,38.7595779],[-9.1617407,38.7600339],[-9.1622061,38.7605432],[-9.1626942,38.7611518],[-9.1631797,38.76166],[-9.1636343,38.7621756],[-9.1639723,38.7625813],[-9.1642874,38.7630216],[-9.1646013,38.763558],[-9.1648118,38.7640024],[-9.165021,38.7645588],[-9.1651136,38.7648861],[-9.1652262,38.7654486],[-9.1652745,38.7658355],[-9.165827,38.7657812],[-9.1662763,38.765663],[-9.1669469,38.7653744],[-9.1683041,38.7647255],[-9.1690899,38.7648563]]}},{"type":"Feature","id":"way/1113471096","properties":{"timestamp":"2026-04-08T08:44:25Z","version":"2","changeset":"181036708","user":"Jimiiee","uid":"2644617","barrier":"retaining_wall","id":"way/1113471096"},"geometry":{"type":"LineString","coordinates":[[-9.1665417,38.7687434],[-9.1663167,38.768843],[-9.1660014,38.7689825],[-9.1662357,38.7693044],[-9.1663646,38.7694815],[-9.1666207,38.7693682]]}},{"type":"Feature","id":"way/1231463640","properties":{"timestamp":"2026-02-24T12:30:21Z","version":"4","changeset":"178986489","user":"dmfr","uid":"15324596","circuits":"2","frequency":"50","layer":"-1","location":"underground","operator":"E-REDES","operator:wikidata":"Q111843687","operator:wikipedia":"pt:Energias de Portugal","power":"cable","voltage":"60000","id":"way/1231463640"},"geometry":{"type":"LineString","coordinates":[[-9.165112,38.768006],[-9.1652048,38.7677575],[-9.1653442,38.7670506],[-9.1653657,38.7659338],[-9.1652638,38.765206],[-9.1649956,38.7642524],[-9.1646147,38.7634325],[-9.1640997,38.762642],[-9.1629732,38.761362],[-9.1617501,38.7599063],[-9.1606289,38.7590613],[-9.1591981,38.7582051],[-9.1565177,38.7589645]]}},{"type":"Feature","id":"way/1231463642","properties":{"timestamp":"2026-02-24T12:30:21Z","version":"3","changeset":"178986489","user":"dmfr","uid":"15324596","circuits":"2","frequency":"50","layer":"-1","location":"underground","operator":"E-REDES","operator:wikidata":"Q111843687","operator:wikipedia":"pt:Energias de Portugal","power":"cable","voltage":"60000","id":"way/1231463642"},"geometry":{"type":"LineString","coordinates":[[-9.165112,38.768006],[-9.1640005,38.7677909]]}},{"type":"Feature","id":"way/1308302083","properties":{"timestamp":"2024-08-16T17:41:43Z","version":"1","changeset":"155340007","user":"aselvadeasfalto","uid":"11912760","barrier":"kerb","id":"way/1308302083"},"geometry":{"type":"LineString","coordinates":[[-9.1670026,38.7634078],[-9.1670117,38.7636054]]}},{"type":"Feature","id":"way/1308302091","properties":{"timestamp":"2024-08-16T17:41:43Z","version":"1","changeset":"155340007","user":"aselvadeasfalto","uid":"11912760","barrier":"kerb","id":"way/1308302091"},"geometry":{"type":"LineString","coordinates":[[-9.1670247,38.7638877],[-9.1670212,38.7639582],[-9.167009,38.7640281],[-9.1669883,38.7640967],[-9.1669594,38.7641635],[-9.1667421,38.7645482],[-9.1667198,38.7645978],[-9.1667068,38.7646464],[-9.1667019,38.764696],[-9.1667053,38.7647457],[-9.1667084,38.7647587],[-9.1667167,38.7647937],[-9.1667358,38.7648403],[-9.1667625,38.7648846],[-9.1668015,38.7649323],[-9.1671321,38.7653509]]}},{"type":"Feature","id":"way/1395958602","properties":{"timestamp":"2026-02-24T12:31:19Z","version":"3","changeset":"178986514","user":"dmfr","uid":"15324596","circuits":"4","frequency":"50","layer":"-1","location":"underground","operator":"E-REDES","operator:wikidata":"Q111843687","operator:wikipedia":"pt:Energias de Portugal","power":"cable","voltage":"60000","id":"way/1395958602"},"geometry":{"type":"LineString","coordinates":[[-9.1635269,38.7741502],[-9.1635847,38.7734456],[-9.1637564,38.7720905],[-9.1641372,38.7705681],[-9.1646254,38.7693092],[-9.165112,38.768006]]}},{"type":"Feature","id":"way/1497611650","properties":{"timestamp":"2026-04-08T08:44:25Z","version":"1","changeset":"181036708","user":"Jimiiee","uid":"2644617","natural":"tree_row","id":"way/1497611650"},"geometry":{"type":"LineString","coordinates":[[-9.1649872,38.7687657],[-9.1645909,38.7698634]]}},{"type":"Feature","id":"way/1497611653","properties":{"timestamp":"2026-04-08T08:44:25Z","version":"1","changeset":"181036708","user":"Jimiiee","uid":"2644617","barrier":"wall","wall":"noise_barrier","id":"way/1497611653"},"geometry":{"type":"LineString","coordinates":[[-9.167754,38.7695972],[-9.1669408,38.769986],[-9.166491,38.7701295]]}},{"type":"Feature","id":"node/82779922","properties":{"timestamp":"2017-09-19T03:31:54Z","version":"8","changeset":"52160969","user":"JPF_pt","uid":"350918","highway":"motorway_junction","id":"node/82779922"},"geometry":{"type":"Point","coordinates":[-9.1675865,38.7698849]}},{"type":"Feature","id":"node/254811761","properties":{"timestamp":"2022-10-09T08:19:56Z","version":"8","changeset":"127235355","user":"josejade","uid":"17329951","button_operated":"no","crossing":"traffic_signals","highway":"traffic_signals","tactile_paving":"no","traffic_signals:sound":"no","traffic_signals:vibration":"no","id":"node/254811761"},"geometry":{"type":"Point","coordinates":[-9.1670936,38.763312]}},{"type":"Feature","id":"node/254811773","properties":{"timestamp":"2023-02-11T19:42:16Z","version":"6","changeset":"132419334","user":"Alexmol","uid":"347293","crossing":"uncontrolled","crossing:island":"no","crossing:markings":"zebra","highway":"crossing","tactile_paving":"no","id":"node/254811773"},"geometry":{"type":"Point","coordinates":[-9.1666348,38.7647688]}},{"type":"Feature","id":"node/254940972","properties":{"timestamp":"2023-02-11T19:42:16Z","version":"6","changeset":"132419334","user":"Alexmol","uid":"347293","crossing":"uncontrolled","crossing:island":"no","crossing:markings":"zebra","highway":"crossing","tactile_paving":"yes","id":"node/254940972"},"geometry":{"type":"Point","coordinates":[-9.1675662,38.7673296]}},{"type":"Feature","id":"node/259102688","properties":{"timestamp":"2024-11-14T14:44:38Z","version":"6","changeset":"159133277","user":"DanielAgos","uid":"20972402","button_operated":"no","crossing":"traffic_signals","crossing_ref":"zebra","highway":"traffic_signals","tactile_paving":"no","id":"node/259102688"},"geometry":{"type":"Point","coordinates":[-9.1655615,38.7668737]}},{"type":"Feature","id":"node/259102690","properties":{"timestamp":"2021-12-23T14:32:53Z","version":"5","changeset":"115301293","user":"rui228","uid":"12612838","highway":"motorway_junction","id":"node/259102690"},"geometry":{"type":"Point","coordinates":[-9.1653552,38.7666965]}},{"type":"Feature","id":"node/259103234","properties":{"timestamp":"2021-12-23T14:32:53Z","version":"5","changeset":"115301293","user":"rui228","uid":"12612838","highway":"motorway_junction","id":"node/259103234"},"geometry":{"type":"Point","coordinates":[-9.165303,38.767354]}},{"type":"Feature","id":"node/259286171","properties":{"timestamp":"2022-03-01T02:28:26Z","version":"3","changeset":"117964586","user":"DiogoBaptista98","uid":"1193685","highway":"turning_circle","id":"node/259286171"},"geometry":{"type":"Point","coordinates":[-9.1678203,38.7658189]}},{"type":"Feature","id":"node/259286731","properties":{"timestamp":"2024-11-27T14:25:15Z","version":"5","changeset":"159662581","user":"adaptive","uid":"102819","crossing":"traffic_signals","highway":"crossing","tactile_paving":"no","id":"node/259286731"},"geometry":{"type":"Point","coordinates":[-9.1708705,38.7633793]}},{"type":"Feature","id":"node/259288462","properties":{"timestamp":"2026-04-08T08:44:25Z","version":"4","changeset":"181036708","user":"Jimiiee","uid":"2644617","crossing":"uncontrolled","crossing:island":"no","crossing:markings":"zebra","highway":"crossing","tactile_paving":"no","id":"node/259288462"},"geometry":{"type":"Point","coordinates":[-9.1655744,38.7701139]}},{"type":"Feature","id":"node/409747649","properties":{"timestamp":"2024-11-14T14:44:36Z","version":"5","changeset":"159133277","user":"DanielAgos","uid":"20972402","button_operated":"yes","crossing":"traffic_signals","highway":"traffic_signals","id":"node/409747649"},"geometry":{"type":"Point","coordinates":[-9.1642447,38.7705782]}},{"type":"Feature","id":"node/430435426","properties":{"timestamp":"2026-02-17T00:30:43Z","version":"13","changeset":"178653868","user":"DanielAgos","uid":"20972402","button_operated":"yes","crossing":"traffic_signals","crossing:markings":"lines","highway":"crossing","tactile_paving":"yes","traffic_signals:sound":"yes","id":"node/430435426"},"geometry":{"type":"Point","coordinates":[-9.1640683,38.7708507]}},{"type":"Feature","id":"node/484248561","properties":{"timestamp":"2022-10-09T08:19:53Z","version":"7","changeset":"127235355","user":"josejade","uid":"17329951","button_operated":"yes","crossing":"traffic_signals","highway":"traffic_signals","tactile_paving":"no","traffic_signals:sound":"no","traffic_signals:vibration":"no","id":"node/484248561"},"geometry":{"type":"Point","coordinates":[-9.1672477,38.7634431]}},{"type":"Feature","id":"node/658938711","properties":{"timestamp":"2019-09-06T03:10:07Z","version":"3","changeset":"74155340","user":"DiogoBaptista98","uid":"1193685","crossing":"traffic_signals","highway":"traffic_signals","id":"node/658938711"},"geometry":{"type":"Point","coordinates":[-9.172487,38.7633918]}},{"type":"Feature","id":"node/1301579467","properties":{"timestamp":"2026-04-08T08:44:25Z","version":"3","changeset":"181036708","user":"Jimiiee","uid":"2644617","crossing":"uncontrolled","crossing:island":"no","crossing:markings":"zebra","highway":"crossing","tactile_paving":"no","id":"node/1301579467"},"geometry":{"type":"Point","coordinates":[-9.16493,38.7694186]}},{"type":"Feature","id":"node/1929583965","properties":{"timestamp":"2023-07-01T11:16:47Z","version":"2","changeset":"137988298","user":"tomasrm22","uid":"19736714","disused:shop":"yes","id":"node/1929583965"},"geometry":{"type":"Point","coordinates":[-9.1677154,38.7677992]}},{"type":"Feature","id":"node/1933000181","properties":{"timestamp":"2022-10-09T08:19:57Z","version":"7","changeset":"127235355","user":"josejade","uid":"17329951","button_operated":"no","crossing":"traffic_signals","highway":"crossing","tactile_paving":"no","traffic_signals:sound":"no","traffic_signals:vibration":"no","id":"node/1933000181"},"geometry":{"type":"Point","coordinates":[-9.1670967,38.7633806]}},{"type":"Feature","id":"node/2753333943","properties":{"timestamp":"2021-05-26T07:26:28Z","version":"4","changeset":"105336457","user":"willisturm","uid":"5589496","crossing":"traffic_signals","highway":"crossing","id":"node/2753333943"},"geometry":{"type":"Point","coordinates":[-9.172397,38.7634652]}},{"type":"Feature","id":"node/2753372136","properties":{"timestamp":"2023-02-11T19:15:11Z","version":"3","changeset":"132418364","user":"Alexmol","uid":"347293","crossing":"uncontrolled","crossing:markings":"zebra","highway":"crossing","id":"node/2753372136"},"geometry":{"type":"Point","coordinates":[-9.1687627,38.7631831]}},{"type":"Feature","id":"node/2753372145","properties":{"timestamp":"2022-02-09T00:44:11Z","version":"4","changeset":"117181264","user":"DiogoBaptista98","uid":"1193685","crossing":"traffic_signals","highway":"traffic_signals","id":"node/2753372145"},"geometry":{"type":"Point","coordinates":[-9.1709789,38.7634033]}},{"type":"Feature","id":"node/2753390322","properties":{"timestamp":"2014-03-30T09:12:14Z","version":"1","changeset":"21396721","user":"JPF_pt","uid":"350918","highway":"traffic_signals","id":"node/2753390322"},"geometry":{"type":"Point","coordinates":[-9.1641441,38.770938]}},{"type":"Feature","id":"node/2753390323","properties":{"timestamp":"2025-10-20T14:58:26Z","version":"8","changeset":"173541628","user":"Dilxe","uid":"16603393","button_operated":"yes","crossing":"traffic_signals","highway":"traffic_signals","tactile_paving":"yes","traffic_signals:sound":"yes","id":"node/2753390323"},"geometry":{"type":"Point","coordinates":[-9.1638745,38.7708844]}},{"type":"Feature","id":"node/3653656818","properties":{"timestamp":"2024-03-21T12:33:50Z","version":"8","changeset":"148960259","user":"tomasrm22","uid":"19736714","button_operated":"no","crossing":"traffic_signals","crossing_ref":"zebra","highway":"traffic_signals","tactile_paving":"no","traffic_signals:sound":"no","traffic_signals:vibration":"no","id":"node/3653656818"},"geometry":{"type":"Point","coordinates":[-9.1653382,38.7671667]}},{"type":"Feature","id":"node/3807675862","properties":{"timestamp":"2017-09-30T04:01:18Z","version":"2","changeset":"52499117","user":"JPF_pt","uid":"350918","highway":"turning_circle","id":"node/3807675862"},"geometry":{"type":"Point","coordinates":[-9.1674004,38.7661012]}},{"type":"Feature","id":"node/3807675865","properties":{"timestamp":"2024-03-25T22:49:13Z","version":"8","changeset":"149152311","user":"tomasrm22","uid":"19736714","button_operated":"no","crossing":"traffic_signals","crossing_ref":"zebra","highway":"traffic_signals","tactile_paving":"no","traffic_signals:sound":"no","traffic_signals:vibration":"no","id":"node/3807675865"},"geometry":{"type":"Point","coordinates":[-9.1654743,38.7672261]}},{"type":"Feature","id":"node/3807675868","properties":{"timestamp":"2019-02-12T15:10:55Z","version":"5","changeset":"67134719","user":"Reino Baptista","uid":"2820801","elevator":"yes","highway":"elevator","opening_hours":"24/7","id":"node/3807675868"},"geometry":{"type":"Point","coordinates":[-9.1654526,38.7674256]}},{"type":"Feature","id":"node/3807675869","properties":{"timestamp":"2019-02-12T15:10:55Z","version":"5","changeset":"67134719","user":"Reino Baptista","uid":"2820801","elevator":"lift","highway":"elevator","opening_hours":"24/7","id":"node/3807675869"},"geometry":{"type":"Point","coordinates":[-9.1649892,38.7673877]}},{"type":"Feature","id":"node/3904783618","properties":{"timestamp":"2019-02-01T11:46:59Z","version":"7","changeset":"66830831","user":"hvalentim","uid":"705092","description":"Vértice geodésico; pilar cilindrico s/ base cilindrica.","ele":"132.72","height":"2.16","man_made":"survey_point","name":"Telheiras","note:en":"Survey Points are meant to be used to rectify aerial imagery and not the other way around. Please do not move nor delete them. Their position corresponds to official reference ground measures.","note:pt":"Os Vértices Geodésicos servem para melhorar o alinhamento da fotografia aérea e não o inverso. Por favor não os mova nem apague. A sua posição corresponde a medidas de referência oficiais, obtidas in loco.","ref":"RGN-PTTM06_Abr15.xls","source":"DGT - Rede Geodésica Nacional","triangulation_point":"yes","id":"node/3904783618"},"geometry":{"type":"Point","coordinates":[-9.1702422,38.7655995]}},{"type":"Feature","id":"node/3936256622","properties":{"timestamp":"2016-01-09T18:13:00Z","version":"1","changeset":"36468414","user":"Reino Baptista","uid":"2820801","barrier":"gate","bicycle":"yes","foot":"yes","motorcar":"yes","motorcycle":"yes","id":"node/3936256622"},"geometry":{"type":"Point","coordinates":[-9.168581,38.7645588]}},{"type":"Feature","id":"node/4065669972","properties":{"timestamp":"2019-09-06T03:10:07Z","version":"2","changeset":"74155340","user":"DiogoBaptista98","uid":"1193685","crossing":"traffic_signals","highway":"traffic_signals","id":"node/4065669972"},"geometry":{"type":"Point","coordinates":[-9.1724406,38.763565]}},{"type":"Feature","id":"node/4270844766","properties":{"timestamp":"2023-02-11T19:15:11Z","version":"2","changeset":"132418364","user":"Alexmol","uid":"347293","crossing":"uncontrolled","crossing:markings":"zebra","highway":"crossing","id":"node/4270844766"},"geometry":{"type":"Point","coordinates":[-9.1687413,38.7626927]}},{"type":"Feature","id":"node/4270870555","properties":{"timestamp":"2024-03-21T12:33:57Z","version":"6","changeset":"148960259","user":"tomasrm22","uid":"19736714","button_operated":"no","crossing":"traffic_signals","crossing_ref":"zebra","highway":"traffic_signals","tactile_paving":"no","traffic_signals":"pedestrian_crossing","traffic_signals:sound":"no","traffic_signals:vibration":"no","id":"node/4270870555"},"geometry":{"type":"Point","coordinates":[-9.1654611,38.7670408]}},{"type":"Feature","id":"node/4270956885","properties":{"timestamp":"2016-06-29T04:13:29Z","version":"1","changeset":"40357254","user":"Josef K","uid":"47097","highway":"turning_circle","id":"node/4270956885"},"geometry":{"type":"Point","coordinates":[-9.166774,38.7672279]}},{"type":"Feature","id":"node/4270956888","properties":{"timestamp":"2023-02-11T19:15:11Z","version":"2","changeset":"132418364","user":"Alexmol","uid":"347293","crossing":"uncontrolled","crossing:markings":"zebra","highway":"crossing","id":"node/4270956888"},"geometry":{"type":"Point","coordinates":[-9.166815,38.7672918]}},{"type":"Feature","id":"node/4270956935","properties":{"timestamp":"2023-02-11T19:15:11Z","version":"2","changeset":"132418364","user":"Alexmol","uid":"347293","crossing":"uncontrolled","crossing:markings":"zebra","highway":"crossing","id":"node/4270956935"},"geometry":{"type":"Point","coordinates":[-9.166917,38.7677835]}},{"type":"Feature","id":"node/4270956966","properties":{"timestamp":"2023-02-11T19:15:11Z","version":"2","changeset":"132418364","user":"Alexmol","uid":"347293","crossing":"uncontrolled","crossing:markings":"zebra","highway":"crossing","id":"node/4270956966"},"geometry":{"type":"Point","coordinates":[-9.1667909,38.7680098]}},{"type":"Feature","id":"node/4270956985","properties":{"timestamp":"2016-06-29T04:13:30Z","version":"1","changeset":"40357254","user":"Josef K","uid":"47097","barrier":"gate","id":"node/4270956985"},"geometry":{"type":"Point","coordinates":[-9.1668623,38.7682478]}},{"type":"Feature","id":"node/4270956987","properties":{"timestamp":"2016-06-29T04:13:31Z","version":"1","changeset":"40357254","user":"Josef K","uid":"47097","barrier":"gate","id":"node/4270956987"},"geometry":{"type":"Point","coordinates":[-9.1667518,38.7682967]}},{"type":"Feature","id":"node/4271011315","properties":{"timestamp":"2020-12-06T04:30:46Z","version":"3","changeset":"95354558","user":"DiogoBaptista98","uid":"1193685","addr:city":"Lisboa","addr:country":"PT","addr:housenumber":"1","addr:street":"Rua Daniel Santa Rita","id":"node/4271011315"},"geometry":{"type":"Point","coordinates":[-9.1649862,38.7696933]}},{"type":"Feature","id":"node/4271011316","properties":{"timestamp":"2020-12-06T04:30:46Z","version":"2","changeset":"95354558","user":"DiogoBaptista98","uid":"1193685","addr:city":"Lisboa","addr:country":"PT","addr:housenumber":"1","addr:street":"Rua Francisco da Conceição Silva","id":"node/4271011316"},"geometry":{"type":"Point","coordinates":[-9.1659004,38.7698376]}},{"type":"Feature","id":"node/4271011317","properties":{"timestamp":"2020-12-06T04:30:46Z","version":"2","changeset":"95354558","user":"DiogoBaptista98","uid":"1193685","addr:city":"Lisboa","addr:country":"PT","addr:housenumber":"11","addr:street":"Rua Francisco da Conceição Silva","id":"node/4271011317"},"geometry":{"type":"Point","coordinates":[-9.1653121,38.7690142]}},{"type":"Feature","id":"node/4271011318","properties":{"timestamp":"2020-12-06T04:30:46Z","version":"3","changeset":"95354558","user":"DiogoBaptista98","uid":"1193685","addr:city":"Lisboa","addr:country":"PT","addr:housenumber":"2","addr:street":"Rua Daniel Santa Rita","id":"node/4271011318"},"geometry":{"type":"Point","coordinates":[-9.1647629,38.7703146]}},{"type":"Feature","id":"node/4271011319","properties":{"timestamp":"2020-12-06T04:30:46Z","version":"2","changeset":"95354558","user":"DiogoBaptista98","uid":"1193685","addr:city":"Lisboa","addr:country":"PT","addr:housenumber":"28","addr:street":"Rua Francisco George","id":"node/4271011319"},"geometry":{"type":"Point","coordinates":[-9.1659775,38.7699422]}},{"type":"Feature","id":"node/4271011320","properties":{"timestamp":"2020-12-06T04:30:46Z","version":"2","changeset":"95354558","user":"DiogoBaptista98","uid":"1193685","addr:city":"Lisboa","addr:country":"PT","addr:housenumber":"3","addr:street":"Rua Francisco da Conceição Silva","id":"node/4271011320"},"geometry":{"type":"Point","coordinates":[-9.1657273,38.769783]}},{"type":"Feature","id":"node/4271011321","properties":{"timestamp":"2020-12-06T04:30:46Z","version":"2","changeset":"95354558","user":"DiogoBaptista98","uid":"1193685","addr:city":"Lisboa","addr:country":"PT","addr:housenumber":"30","addr:street":"Rua Frederico George","id":"node/4271011321"},"geometry":{"type":"Point","coordinates":[-9.1655869,38.7698415]}},{"type":"Feature","id":"node/4271011322","properties":{"timestamp":"2020-12-06T04:30:46Z","version":"2","changeset":"95354558","user":"DiogoBaptista98","uid":"1193685","addr:city":"Lisboa","addr:country":"PT","addr:housenumber":"32","addr:street":"Rua Frederico George","id":"node/4271011322"},"geometry":{"type":"Point","coordinates":[-9.1654352,38.769634]}},{"type":"Feature","id":"node/4271011323","properties":{"timestamp":"2020-12-06T04:30:46Z","version":"2","changeset":"95354558","user":"DiogoBaptista98","uid":"1193685","addr:city":"Lisboa","addr:country":"PT","addr:housenumber":"34","addr:street":"Rua Frederico George","id":"node/4271011323"},"geometry":{"type":"Point","coordinates":[-9.1652843,38.7694276]}},{"type":"Feature","id":"node/4271011324","properties":{"timestamp":"2020-12-06T04:30:46Z","version":"2","changeset":"95354558","user":"DiogoBaptista98","uid":"1193685","addr:city":"Lisboa","addr:country":"PT","addr:housenumber":"36","addr:street":"Rua Frederico George","id":"node/4271011324"},"geometry":{"type":"Point","coordinates":[-9.1651378,38.7692272]}},{"type":"Feature","id":"node/4271011325","properties":{"timestamp":"2020-12-06T04:30:46Z","version":"3","changeset":"95354558","user":"DiogoBaptista98","uid":"1193685","addr:city":"Lisboa","addr:country":"PT","addr:housenumber":"37","addr:street":"Rua Frederico George","id":"node/4271011325"},"geometry":{"type":"Point","coordinates":[-9.1650476,38.7701877]}},{"type":"Feature","id":"node/4271011326","properties":{"timestamp":"2020-12-06T04:30:46Z","version":"2","changeset":"95354558","user":"DiogoBaptista98","uid":"1193685","addr:city":"Lisboa","addr:country":"PT","addr:housenumber":"38","addr:street":"Rua Frederico George","id":"node/4271011326"},"geometry":{"type":"Point","coordinates":[-9.1652309,38.7689143]}},{"type":"Feature","id":"node/4271011327","properties":{"timestamp":"2020-12-06T04:30:46Z","version":"3","changeset":"95354558","user":"DiogoBaptista98","uid":"1193685","addr:city":"Lisboa","addr:country":"PT","addr:housenumber":"39","addr:street":"Rua Frederico George","id":"node/4271011327"},"geometry":{"type":"Point","coordinates":[-9.1651725,38.7698658]}},{"type":"Feature","id":"node/4271011328","properties":{"timestamp":"2020-12-06T04:30:46Z","version":"3","changeset":"95354558","user":"DiogoBaptista98","uid":"1193685","addr:city":"Lisboa","addr:country":"PT","addr:housenumber":"4","addr:street":"Rua Daniel Santa Rita","id":"node/4271011328"},"geometry":{"type":"Point","coordinates":[-9.1648467,38.769728]}},{"type":"Feature","id":"node/4271011329","properties":{"timestamp":"2020-12-06T04:30:46Z","version":"2","changeset":"95354558","user":"DiogoBaptista98","uid":"1193685","addr:city":"Lisboa","addr:country":"PT","addr:housenumber":"5","addr:street":"Rua Francisco da Conceição Silva","id":"node/4271011329"},"geometry":{"type":"Point","coordinates":[-9.1655777,38.7695784]}},{"type":"Feature","id":"node/4271011330","properties":{"timestamp":"2020-12-06T04:30:46Z","version":"2","changeset":"95354558","user":"DiogoBaptista98","uid":"1193685","addr:city":"Lisboa","addr:country":"PT","addr:housenumber":"7","addr:street":"Rua Francisco da Conceição Silva","id":"node/4271011330"},"geometry":{"type":"Point","coordinates":[-9.1654265,38.7693716]}},{"type":"Feature","id":"node/4271011331","properties":{"timestamp":"2020-12-06T04:30:46Z","version":"2","changeset":"95354558","user":"DiogoBaptista98","uid":"1193685","addr:city":"Lisboa","addr:country":"PT","addr:housenumber":"9","addr:street":"Rua Francisco da Conceição Silva","id":"node/4271011331"},"geometry":{"type":"Point","coordinates":[-9.1652762,38.769166]}},{"type":"Feature","id":"node/4271011343","properties":{"timestamp":"2022-10-09T08:19:12Z","version":"5","changeset":"127235311","user":"josejade","uid":"17329951","crossing":"marked","crossing:island":"yes","crossing_ref":"zebra","highway":"crossing","tactile_paving":"no","id":"node/4271011343"},"geometry":{"type":"Point","coordinates":[-9.1674459,38.7659413]}},{"type":"Feature","id":"node/4271011344","properties":{"timestamp":"2022-10-09T08:19:10Z","version":"4","changeset":"127235311","user":"josejade","uid":"17329951","crossing":"marked","crossing:island":"no","crossing_ref":"zebra","highway":"crossing","tactile_paving":"no","id":"node/4271011344"},"geometry":{"type":"Point","coordinates":[-9.1679142,38.7660874]}},{"type":"Feature","id":"node/4271011497","properties":{"timestamp":"2024-03-21T12:37:58Z","version":"5","changeset":"148960351","user":"tomasrm22","uid":"19736714","crossing":"uncontrolled","crossing:island":"no","crossing:markings":"zebra","highway":"crossing","kerb":"flush","tactile_paving":"yes","id":"node/4271011497"},"geometry":{"type":"Point","coordinates":[-9.1674798,38.7674769]}},{"type":"Feature","id":"node/4271011501","properties":{"timestamp":"2024-03-21T12:38:17Z","version":"5","changeset":"148960351","user":"tomasrm22","uid":"19736714","crossing":"uncontrolled","crossing:island":"no","crossing:markings":"zebra","highway":"crossing","kerb":"flush","tactile_paving":"yes","id":"node/4271011501"},"geometry":{"type":"Point","coordinates":[-9.1678707,38.7677967]}},{"type":"Feature","id":"node/4271011502","properties":{"timestamp":"2024-03-21T12:38:45Z","version":"5","changeset":"148960351","user":"tomasrm22","uid":"19736714","crossing":"uncontrolled","crossing:island":"no","crossing:markings":"zebra","highway":"crossing","kerb":"flush","tactile_paving":"yes","id":"node/4271011502"},"geometry":{"type":"Point","coordinates":[-9.1680463,38.7678207]}},{"type":"Feature","id":"node/4271011503","properties":{"timestamp":"2024-03-21T12:38:21Z","version":"5","changeset":"148960351","user":"tomasrm22","uid":"19736714","crossing":"uncontrolled","crossing:island":"no","crossing:markings":"zebra","highway":"crossing","kerb":"flush","tactile_paving":"yes","id":"node/4271011503"},"geometry":{"type":"Point","coordinates":[-9.1678197,38.7679218]}},{"type":"Feature","id":"node/4271011504","properties":{"timestamp":"2024-03-21T12:38:42Z","version":"5","changeset":"148960351","user":"tomasrm22","uid":"19736714","crossing":"uncontrolled","crossing:island":"no","crossing:markings":"zebra","highway":"crossing","kerb":"flush","tactile_paving":"yes","id":"node/4271011504"},"geometry":{"type":"Point","coordinates":[-9.1679811,38.7679488]}},{"type":"Feature","id":"node/4271011507","properties":{"timestamp":"2023-07-01T11:02:18Z","version":"4","changeset":"137987865","user":"tomasrm22","uid":"19736714","crossing":"uncontrolled","crossing:island":"no","crossing:markings":"zebra","highway":"crossing","tactile_paving":"yes","id":"node/4271011507"},"geometry":{"type":"Point","coordinates":[-9.16706,38.7682608]}},{"type":"Feature","id":"node/4271011583","properties":{"timestamp":"2023-02-11T19:15:11Z","version":"2","changeset":"132418364","user":"Alexmol","uid":"347293","crossing":"uncontrolled","crossing:markings":"zebra","highway":"crossing","id":"node/4271011583"},"geometry":{"type":"Point","coordinates":[-9.1661916,38.7698274]}},{"type":"Feature","id":"node/5121144711","properties":{"timestamp":"2026-04-08T08:44:25Z","version":"3","changeset":"181036708","user":"Jimiiee","uid":"2644617","barrier":"gate","bicycle":"no","foot":"yes","horse":"no","motor_vehicle":"no","id":"node/5121144711"},"geometry":{"type":"Point","coordinates":[-9.1704396,38.767651]}},{"type":"Feature","id":"node/5201170299","properties":{"timestamp":"2022-01-20T15:12:44Z","version":"3","changeset":"116389981","user":"Hoanui","uid":"14899633","barrier":"kerb","kerb":"lowered","id":"node/5201170299"},"geometry":{"type":"Point","coordinates":[-9.1707805,38.7638969]}},{"type":"Feature","id":"node/5584337285","properties":{"timestamp":"2026-05-09T05:47:56Z","version":"15","changeset":"182409420","user":"b-jazz","uid":"5800005","description":"Altitude: 133m; Proeminência: 44m; Dominância: 33,1%; Isolamento: 2,464Km; Dif. Abertura Topo.: 7°. 3589ª proem. de PT continental; 163ª Lisboa (distr.); 2ª Lisboa (conc.). 4317ª elevação entre os cumes c/ proem. >= 40m.","ele":"133","isolation":"2464","name":"Telheiras","natural":"peak","source:pkey":"37754","id":"node/5584337285"},"geometry":{"type":"Point","coordinates":[-9.1702259,38.7655968]}},{"type":"Feature","id":"node/6775924171","properties":{"timestamp":"2019-09-06T03:10:07Z","version":"1","changeset":"74155340","user":"DiogoBaptista98","uid":"1193685","crossing":"marked","highway":"crossing","id":"node/6775924171"},"geometry":{"type":"Point","coordinates":[-9.1709884,38.7629348]}},{"type":"Feature","id":"node/6776020768","properties":{"timestamp":"2024-03-25T18:07:51Z","version":"3","changeset":"149143482","user":"Rodvil","uid":"17836696","crossing":"marked","crossing:island":"no","highway":"crossing","tactile_paving":"no","id":"node/6776020768"},"geometry":{"type":"Point","coordinates":[-9.1680891,38.760647]}},{"type":"Feature","id":"node/6776035912","properties":{"timestamp":"2024-01-30T23:03:44Z","version":"2","changeset":"146882542","user":"RazorWind","uid":"11152051","crossing":"marked","crossing:markings":"yes","highway":"crossing","id":"node/6776035912"},"geometry":{"type":"Point","coordinates":[-9.171918,38.7646493]}},{"type":"Feature","id":"node/6776035923","properties":{"timestamp":"2019-09-06T03:10:07Z","version":"1","changeset":"74155340","user":"DiogoBaptista98","uid":"1193685","crossing":"marked","highway":"crossing","id":"node/6776035923"},"geometry":{"type":"Point","coordinates":[-9.1723331,38.7636338]}},{"type":"Feature","id":"node/7042299197","properties":{"timestamp":"2022-10-09T08:19:15Z","version":"4","changeset":"127235311","user":"josejade","uid":"17329951","crossing":"marked","highway":"crossing","tactile_paving":"no","id":"node/7042299197"},"geometry":{"type":"Point","coordinates":[-9.1674746,38.7658384]}},{"type":"Feature","id":"node/7056279793","properties":{"timestamp":"2021-06-03T19:21:23Z","version":"2","changeset":"105797145","user":"rictum_satz","uid":"2117094","crossing":"marked","highway":"crossing","id":"node/7056279793"},"geometry":{"type":"Point","coordinates":[-9.1685752,38.761829]}},{"type":"Feature","id":"node/7246206829","properties":{"timestamp":"2022-02-09T00:44:11Z","version":"3","changeset":"117181264","user":"DiogoBaptista98","uid":"1193685","crossing":"marked","crossing:island":"no","highway":"crossing","id":"node/7246206829"},"geometry":{"type":"Point","coordinates":[-9.170895,38.763887]}},{"type":"Feature","id":"node/7246206831","properties":{"timestamp":"2020-02-26T21:34:12Z","version":"1","changeset":"81522019","user":"HeapSrc","uid":"1728066","crossing":"marked","highway":"crossing","id":"node/7246206831"},"geometry":{"type":"Point","coordinates":[-9.1706902,38.7638968]}},{"type":"Feature","id":"node/7246206834","properties":{"timestamp":"2024-01-30T23:03:44Z","version":"2","changeset":"146882542","user":"RazorWind","uid":"11152051","crossing":"marked","crossing:markings":"yes","highway":"crossing","id":"node/7246206834"},"geometry":{"type":"Point","coordinates":[-9.1705766,38.7639384]}},{"type":"Feature","id":"node/7246206835","properties":{"timestamp":"2024-11-27T14:25:06Z","version":"9","changeset":"159662604","user":"adaptive","uid":"102819","button_operated":"no","crossing":"traffic_signals","highway":"traffic_signals","tactile_paving":"no","traffic_signals:sound":"no","id":"node/7246206835"},"geometry":{"type":"Point","coordinates":[-9.1706918,38.7632375]}},{"type":"Feature","id":"node/7246206838","properties":{"timestamp":"2022-02-09T00:44:11Z","version":"2","changeset":"117181264","user":"DiogoBaptista98","uid":"1193685","crossing":"traffic_signals","highway":"crossing","id":"node/7246206838"},"geometry":{"type":"Point","coordinates":[-9.1708176,38.763129]}},{"type":"Feature","id":"node/7863157387","properties":{"timestamp":"2020-08-31T23:14:41Z","version":"1","changeset":"90213645","user":"Pedro Guerra","uid":"8747636","highway":"mini_roundabout","id":"node/7863157387"},"geometry":{"type":"Point","coordinates":[-9.1716342,38.7661591]}},{"type":"Feature","id":"node/8198018122","properties":{"timestamp":"2024-10-20T14:06:07Z","version":"2","changeset":"158129950","user":"DanielAgos","uid":"20972402","access":"private","barrier":"gate","id":"node/8198018122"},"geometry":{"type":"Point","coordinates":[-9.170022,38.7683252]}},{"type":"Feature","id":"node/8198018123","properties":{"timestamp":"2024-10-20T14:06:07Z","version":"2","changeset":"158129950","user":"DanielAgos","uid":"20972402","noexit":"yes","id":"node/8198018123"},"geometry":{"type":"Point","coordinates":[-9.1689122,38.7688334]}},{"type":"Feature","id":"node/8890831089","properties":{"timestamp":"2023-11-03T19:37:07Z","version":"2","changeset":"143588808","user":"rui228","uid":"12612838","direction":"forward","highway":"give_way","id":"node/8890831089"},"geometry":{"type":"Point","coordinates":[-9.1679081,38.7659581]}},{"type":"Feature","id":"node/9258702584","properties":{"timestamp":"2023-02-11T19:42:16Z","version":"3","changeset":"132419334","user":"Alexmol","uid":"347293","crossing":"uncontrolled","crossing:markings":"zebra","highway":"crossing","tactile_paving":"no","id":"node/9258702584"},"geometry":{"type":"Point","coordinates":[-9.1665217,38.7648646]}},{"type":"Feature","id":"node/9258702607","properties":{"timestamp":"2023-02-11T19:42:16Z","version":"3","changeset":"132419334","user":"Alexmol","uid":"347293","crossing":"uncontrolled","crossing:markings":"zebra","highway":"crossing","tactile_paving":"no","id":"node/9258702607"},"geometry":{"type":"Point","coordinates":[-9.1670703,38.7631611]}},{"type":"Feature","id":"node/9258702608","properties":{"timestamp":"2021-11-17T01:33:01Z","version":"1","changeset":"113876124","user":"DiogoBaptista98","uid":"1193685","highway":"give_way","id":"node/9258702608"},"geometry":{"type":"Point","coordinates":[-9.1669918,38.7630775]}},{"type":"Feature","id":"node/9491112195","properties":{"timestamp":"2022-02-09T00:44:11Z","version":"1","changeset":"117181264","user":"DiogoBaptista98","uid":"1193685","crossing":"traffic_signals","highway":"traffic_signals","id":"node/9491112195"},"geometry":{"type":"Point","coordinates":[-9.1707389,38.7631297]}},{"type":"Feature","id":"node/9491112205","properties":{"timestamp":"2022-02-09T00:44:11Z","version":"1","changeset":"117181264","user":"DiogoBaptista98","uid":"1193685","highway":"traffic_signals","id":"node/9491112205"},"geometry":{"type":"Point","coordinates":[-9.1708763,38.7632318]}},{"type":"Feature","id":"node/9491112209","properties":{"timestamp":"2022-02-09T00:44:11Z","version":"1","changeset":"117181264","user":"DiogoBaptista98","uid":"1193685","crossing":"traffic_signals","highway":"traffic_signals","id":"node/9491112209"},"geometry":{"type":"Point","coordinates":[-9.1692204,38.7632779]}},{"type":"Feature","id":"node/9799243433","properties":{"timestamp":"2023-09-28T22:41:50Z","version":"2","changeset":"141888217","user":"Pedro A Ferreira","uid":"19192602","camera:mount":"pole","camera:type":"dome","man_made":"surveillance","mapillary":"531795934784065","surveillance":"public","surveillance:type":"camera","surveillance:zone":"traffic","id":"node/9799243433"},"geometry":{"type":"Point","coordinates":[-9.1402031,38.7631276]}},{"type":"Feature","id":"node/9923227802","properties":{"timestamp":"2025-02-04T13:43:42Z","version":"6","changeset":"162126140","user":"Alexmol","uid":"347293","MCC":"268","MNC":"06","check_date":"2025-01-28","communication:mobile_phone":"yes","man_made":"mast","material":"metal","operator":"MEO","owner":"Cellnex","ref":"98LN065","tower:construction":"freestanding","tower:type":"communication","id":"node/9923227802"},"geometry":{"type":"Point","coordinates":[-9.1686742,38.764405]}},{"type":"Feature","id":"node/10058722683","properties":{"timestamp":"2024-02-13T21:41:55Z","version":"4","changeset":"147427841","user":"Alexmol","uid":"347293","check_date":"2023-05-30","communication:mobile_phone":"no","location":"roof","man_made":"antenna","old_operator":"NOS","owner":"NOS","id":"node/10058722683"},"geometry":{"type":"Point","coordinates":[-9.1698448,38.7682465]}},{"type":"Feature","id":"node/10187000276","properties":{"timestamp":"2022-11-15T22:44:13Z","version":"1","changeset":"128962263","user":"DiogoBaptista98","uid":"1193685","entrance":"garage","id":"node/10187000276"},"geometry":{"type":"Point","coordinates":[-9.1678637,38.7690932]}},{"type":"Feature","id":"node/10187000278","properties":{"timestamp":"2022-11-15T22:44:13Z","version":"1","changeset":"128962263","user":"DiogoBaptista98","uid":"1193685","noexit":"yes","id":"node/10187000278"},"geometry":{"type":"Point","coordinates":[-9.1684879,38.7690295]}},{"type":"Feature","id":"node/10187000280","properties":{"timestamp":"2022-11-15T22:44:13Z","version":"1","changeset":"128962263","user":"DiogoBaptista98","uid":"1193685","barrier":"gate","id":"node/10187000280"},"geometry":{"type":"Point","coordinates":[-9.167349,38.7693027]}},{"type":"Feature","id":"node/10187000283","properties":{"timestamp":"2022-11-15T22:44:13Z","version":"1","changeset":"128962263","user":"DiogoBaptista98","uid":"1193685","noexit":"yes","id":"node/10187000283"},"geometry":{"type":"Point","coordinates":[-9.1679064,38.7692872]}},{"type":"Feature","id":"node/10187000284","properties":{"timestamp":"2022-11-15T22:44:13Z","version":"1","changeset":"128962263","user":"DiogoBaptista98","uid":"1193685","barrier":"gate","id":"node/10187000284"},"geometry":{"type":"Point","coordinates":[-9.1666064,38.7696821]}},{"type":"Feature","id":"node/10187000286","properties":{"timestamp":"2022-11-15T22:44:13Z","version":"1","changeset":"128962263","user":"DiogoBaptista98","uid":"1193685","noexit":"yes","id":"node/10187000286"},"geometry":{"type":"Point","coordinates":[-9.1673598,38.7695317]}},{"type":"Feature","id":"node/10198142165","properties":{"timestamp":"2022-11-17T21:18:22Z","version":"1","changeset":"129060362","user":"DiogoBaptista98","uid":"1193685","name":"Alto da Faia","place":"neighbourhood","id":"node/10198142165"},"geometry":{"type":"Point","coordinates":[-9.1681573,38.7682885]}},{"type":"Feature","id":"node/10882013448","properties":{"timestamp":"2025-12-12T01:18:42Z","version":"4","changeset":"175825729","user":"Pedro A Ferreira","uid":"19192602","direction":"forward","highway":"speed_camera","maxspeed":"50","note":"F050390355","ref":"PT_FIXO 50","id":"node/10882013448"},"geometry":{"type":"Point","coordinates":[-9.1647438,38.768988]}},{"type":"Feature","id":"node/11571472241","properties":{"timestamp":"2024-01-30T23:03:44Z","version":"1","changeset":"146882542","user":"RazorWind","uid":"11152051","crossing":"uncontrolled","crossing:markings":"yes","highway":"crossing","id":"node/11571472241"},"geometry":{"type":"Point","coordinates":[-9.1673971,38.7646852]}},{"type":"Feature","id":"node/12271101914","properties":{"timestamp":"2024-10-20T14:06:07Z","version":"1","changeset":"158129950","user":"DanielAgos","uid":"20972402","noexit":"yes","id":"node/12271101914"},"geometry":{"type":"Point","coordinates":[-9.1694657,38.7685791]}},{"type":"Feature","id":"node/12271101919","properties":{"timestamp":"2024-10-20T14:06:07Z","version":"1","changeset":"158129950","user":"DanielAgos","uid":"20972402","noexit":"yes","id":"node/12271101919"},"geometry":{"type":"Point","coordinates":[-9.1694844,38.7685713]}},{"type":"Feature","id":"node/12556467963","properties":{"timestamp":"2025-02-04T13:43:17Z","version":"1","changeset":"162126136","user":"Alexmol","uid":"347293","check_date":"2025-01-28","communication:emergency":"yes","man_made":"mast","material":"metal","operator":"SIRESP","tower:construction":"lattice","tower:type":"communication","id":"node/12556467963"},"geometry":{"type":"Point","coordinates":[-9.1686608,38.7645127]}},{"type":"Feature","id":"node/13512416478","properties":{"timestamp":"2026-01-30T17:08:38Z","version":"2","changeset":"177898830","user":"Alexmol","uid":"347293","access":"yes","authentication:membership_card":"yes","authentication:none":"no","brand":"edp Charge","brand:wikidata":"Q1341222","capacity":"2","charge_point:output":"120 kW","fee":"yes","man_made":"charge_point","maxstay":"unlimited","motorcar":"yes","network":"Mobi.E","opening_hours":"24/7","operator":"EDP","operator:wikidata":"Q1341222","parking:fee":"no","payment:app":"yes","payment:cards":"no","payment:cash":"no","payment:membership_card":"yes","phone":"+351 800 222 222","ref":"LSB-01143","ref:EU:EVSE":"PT*EDP*ELSB*01143*1;PT*EDP*ELSB*01143*2","socket:type2_combo":"2","socket:type2_combo:current":"300","socket:type2_combo:output":"120 kW","socket:type2_combo:voltage":"1000","website":"https://www.mobie.pt/","id":"node/13512416478"},"geometry":{"type":"Point","coordinates":[-9.166952,38.7690999]}},{"type":"Feature","id":"node/13512416489","properties":{"timestamp":"2026-01-30T17:08:38Z","version":"2","changeset":"177898830","user":"Alexmol","uid":"347293","access":"yes","authentication:membership_card":"yes","authentication:none":"no","brand":"edp Charge","brand:wikidata":"Q1341222","capacity":"2","charge_point:output":"82 kW","fee":"yes","man_made":"charge_point","maxstay":"unlimited","motorcar":"yes","network":"Mobi.E","opening_hours":"24/7","operator":"EDP","operator:wikidata":"Q1341222","parking:fee":"no","payment:app":"yes","payment:cards":"no","payment:cash":"no","payment:membership_card":"yes","phone":"+351 800 222 222","ref":"LSB-01142","ref:EU:EVSE":"PT*EDP*ELSB*01142*1;PT*EDP*ELSB*01142*2;PT*EDP*ELSB*01142*3","socket:type2":"1","socket:type2:current":"32","socket:type2:output":"22 kW","socket:type2:voltage":"400","socket:type2_combo":"2","socket:type2_combo:current":"200","socket:type2_combo:output":"60 kW","socket:type2_combo:voltage":"1000","website":"https://www.mobie.pt/","id":"node/13512416489"},"geometry":{"type":"Point","coordinates":[-9.1669246,38.7690605]}},{"type":"Feature","id":"node/13715708616","properties":{"timestamp":"2026-04-08T08:44:25Z","version":"1","changeset":"181036708","user":"Jimiiee","uid":"2644617","crossing":"uncontrolled","crossing:island":"no","crossing:markings":"zebra","highway":"crossing","tactile_paving":"no","id":"node/13715708616"},"geometry":{"type":"Point","coordinates":[-9.1646761,38.7697553]}},{"type":"Feature","id":"node/13715708636","properties":{"timestamp":"2026-04-08T08:44:25Z","version":"1","changeset":"181036708","user":"Jimiiee","uid":"2644617","crossing":"uncontrolled","crossing:island":"no","crossing:markings":"zebra","highway":"crossing","tactile_paving":"no","traffic_calming":"table","id":"node/13715708636"},"geometry":{"type":"Point","coordinates":[-9.1685692,38.7687547]}},{"type":"Feature","id":"node/13715708637","properties":{"timestamp":"2026-04-08T08:44:25Z","version":"1","changeset":"181036708","user":"Jimiiee","uid":"2644617","crossing":"uncontrolled","crossing:island":"no","crossing:markings":"zebra","highway":"crossing","tactile_paving":"no","traffic_calming":"table","id":"node/13715708637"},"geometry":{"type":"Point","coordinates":[-9.1683651,38.7687156]}},{"type":"Feature","id":"node/13715708638","properties":{"timestamp":"2026-04-08T08:44:25Z","version":"1","changeset":"181036708","user":"Jimiiee","uid":"2644617","crossing":"uncontrolled","crossing:island":"no","crossing:markings":"zebra","highway":"crossing","tactile_paving":"no","traffic_calming":"table","id":"node/13715708638"},"geometry":{"type":"Point","coordinates":[-9.1686352,38.7685948]}},{"type":"Feature","id":"node/13715708642","properties":{"timestamp":"2026-04-08T08:44:25Z","version":"1","changeset":"181036708","user":"Jimiiee","uid":"2644617","crossing":"uncontrolled","crossing:island":"no","crossing:markings":"zebra","highway":"crossing","tactile_paving":"no","id":"node/13715708642"},"geometry":{"type":"Point","coordinates":[-9.1662121,38.7700449]}},{"type":"Feature","id":"node/13715708643","properties":{"timestamp":"2026-04-08T08:44:25Z","version":"1","changeset":"181036708","user":"Jimiiee","uid":"2644617","crossing":"uncontrolled","crossing:island":"no","crossing:markings":"zebra","highway":"crossing","tactile_paving":"no","id":"node/13715708643"},"geometry":{"type":"Point","coordinates":[-9.1645226,38.7701938]}},{"type":"Feature","id":"node/13715708657","properties":{"timestamp":"2026-04-08T08:44:25Z","version":"1","changeset":"181036708","user":"Jimiiee","uid":"2644617","crossing":"uncontrolled","crossing:island":"no","crossing:markings":"zebra","highway":"crossing","tactile_paving":"no","id":"node/13715708657"},"geometry":{"type":"Point","coordinates":[-9.1674363,38.7690332]}},{"type":"Feature","id":"node/13715708658","properties":{"timestamp":"2026-04-08T08:44:25Z","version":"1","changeset":"181036708","user":"Jimiiee","uid":"2644617","crossing":"uncontrolled","crossing:island":"no","crossing:markings":"zebra","highway":"crossing","tactile_paving":"no","id":"node/13715708658"},"geometry":{"type":"Point","coordinates":[-9.1673612,38.7691618]}}]}