{"type":"FeatureCollection","features":[{"type":"Feature","id":"way/182604519","properties":{"timestamp":"2024-03-21T12:36:10Z","version":"12","changeset":"148961148","user":"tomasrm22","uid":"19736714","handrail":"yes","highway":"steps","incline":"down","lit":"no","ramp":"no","source":"bing","step_count":"60","surface":"sett","tactile_paving":"no","id":"way/182604519"},"geometry":{"type":"LineString","coordinates":[[-9.166989,38.7671445],[-9.166598,38.7670731],[-9.1665786,38.7670408],[-9.166593,38.7669627],[-9.1664337,38.7668841]]}},{"type":"Feature","id":"way/270291343","properties":{"timestamp":"2026-04-08T08:44:25Z","version":"4","changeset":"181036708","user":"Jimiiee","uid":"2644617","handrail":"yes","highway":"steps","lit":"yes","surface":"paved","wheelchair":"no","id":"way/270291343"},"geometry":{"type":"LineString","coordinates":[[-9.1703502,38.7676099],[-9.1704396,38.767651],[-9.1704401,38.7676888],[-9.1705298,38.7677526]]}},{"type":"Feature","id":"way/377392554","properties":{"timestamp":"2015-10-29T00:05:03Z","version":"1","changeset":"34939424","user":"rictum_satz","uid":"2117094","highway":"footway","id":"way/377392554"},"geometry":{"type":"LineString","coordinates":[[-9.1699177,38.763438],[-9.1699387,38.7639092]]}},{"type":"Feature","id":"way/377392555","properties":{"timestamp":"2015-10-29T00:05:03Z","version":"1","changeset":"34939424","user":"rictum_satz","uid":"2117094","highway":"footway","id":"way/377392555"},"geometry":{"type":"LineString","coordinates":[[-9.1695967,38.7634412],[-9.1695721,38.7638888]]}},{"type":"Feature","id":"way/377392557","properties":{"timestamp":"2022-10-09T08:19:12Z","version":"2","changeset":"127235332","user":"josejade","uid":"17329951","highway":"footway","surface":"sett","id":"way/377392557"},"geometry":{"type":"LineString","coordinates":[[-9.1674004,38.7661012],[-9.1678844,38.7661864]]}},{"type":"Feature","id":"way/377392558","properties":{"timestamp":"2024-07-14T13:10:58Z","version":"2","changeset":"153930076","user":"DanielAgos","uid":"20972402","handrail:center":"yes","highway":"steps","incline":"down","id":"way/377392558"},"geometry":{"type":"LineString","coordinates":[[-9.1670684,38.7668164],[-9.1665971,38.7667268]]}},{"type":"Feature","id":"way/377392559","properties":{"timestamp":"2019-02-12T15:11:01Z","version":"6","changeset":"67134719","user":"Reino Baptista","uid":"2820801","footway":"crossing","highway":"footway","lit":"yes","surface":"paved","id":"way/377392559"},"geometry":{"type":"LineString","coordinates":[[-9.1654486,38.7671751],[-9.1654473,38.7671988],[-9.1654743,38.7672261],[-9.1655101,38.7672796],[-9.1654894,38.7673682]]}},{"type":"Feature","id":"way/395067017","properties":{"timestamp":"2024-03-21T12:33:41Z","version":"9","changeset":"148960738","user":"tomasrm22","uid":"19736714","handrail":"yes","highway":"steps","incline":"up","lit":"yes","ramp":"no","surface":"metal","tactile_paving":"no","id":"way/395067017"},"geometry":{"type":"LineString","coordinates":[[-9.1654894,38.7673682],[-9.1654846,38.7674272],[-9.1654526,38.7674256]]}},{"type":"Feature","id":"way/415174904","properties":{"timestamp":"2017-11-01T10:28:47Z","version":"7","changeset":"53419692","user":"Schienennagelhammerträger","uid":"5423179","foot":"use_sidepath","highway":"cycleway","lit":"no","surface":"paved","width":"2","id":"way/415174904"},"geometry":{"type":"LineString","coordinates":[[-9.1645361,38.7701272],[-9.1643921,38.7703995],[-9.1643357,38.7705647],[-9.1642447,38.7705782]]}},{"type":"Feature","id":"way/427921683","properties":{"timestamp":"2016-06-29T01:50:21Z","version":"1","changeset":"40356349","user":"Josef K","uid":"47097","footway":"crossing","highway":"footway","id":"way/427921683"},"geometry":{"type":"LineString","coordinates":[[-9.1654486,38.7671751],[-9.1654611,38.7670408],[-9.1654705,38.7669379],[-9.1655615,38.7668737]]}},{"type":"Feature","id":"way/427932968","properties":{"timestamp":"2016-06-29T04:13:31Z","version":"1","changeset":"40357254","user":"Josef K","uid":"47097","access":"private","highway":"footway","id":"way/427932968"},"geometry":{"type":"LineString","coordinates":[[-9.166404,38.7677382],[-9.1662805,38.7675627]]}},{"type":"Feature","id":"way/427932969","properties":{"timestamp":"2016-06-29T04:13:31Z","version":"1","changeset":"40357254","user":"Josef K","uid":"47097","access":"private","highway":"footway","id":"way/427932969"},"geometry":{"type":"LineString","coordinates":[[-9.1666598,38.7678259],[-9.1666724,38.7678437],[-9.1667909,38.7680098]]}},{"type":"Feature","id":"way/427932971","properties":{"timestamp":"2016-06-29T04:13:31Z","version":"1","changeset":"40357254","user":"Josef K","uid":"47097","access":"private","highway":"footway","id":"way/427932971"},"geometry":{"type":"LineString","coordinates":[[-9.1662805,38.7675627],[-9.1663181,38.7675321],[-9.1664635,38.7674699]]}},{"type":"Feature","id":"way/427932972","properties":{"timestamp":"2016-06-29T04:13:32Z","version":"1","changeset":"40357254","user":"Josef K","uid":"47097","access":"private","highway":"footway","id":"way/427932972"},"geometry":{"type":"LineString","coordinates":[[-9.1662539,38.767574],[-9.1662454,38.7675612],[-9.1660647,38.7672886]]}},{"type":"Feature","id":"way/427932973","properties":{"timestamp":"2016-06-29T04:13:32Z","version":"1","changeset":"40357254","user":"Josef K","uid":"47097","access":"private","highway":"footway","id":"way/427932973"},"geometry":{"type":"LineString","coordinates":[[-9.1662805,38.7675627],[-9.1662539,38.767574],[-9.1657693,38.767781],[-9.1657785,38.7677941],[-9.1658702,38.767933]]}},{"type":"Feature","id":"way/427932974","properties":{"timestamp":"2016-06-29T04:13:32Z","version":"1","changeset":"40357254","user":"Josef K","uid":"47097","access":"private","highway":"footway","id":"way/427932974"},"geometry":{"type":"LineString","coordinates":[[-9.166917,38.7677835],[-9.1668805,38.7677316],[-9.1666824,38.7678163],[-9.1666598,38.7678259],[-9.1665532,38.7676744],[-9.166404,38.7677382],[-9.1659161,38.7679468]]}},{"type":"Feature","id":"way/525277188","properties":{"timestamp":"2023-04-11T10:41:50Z","version":"2","changeset":"134767647","user":"kcpels","uid":"11062493","bicycle":"designated","foot":"designated","highway":"cycleway","lit":"yes","motor_vehicle":"no","surface":"asphalt","width":"2","id":"way/525277188"},"geometry":{"type":"LineString","coordinates":[[-9.1642447,38.7705782],[-9.1641936,38.7707216],[-9.1641664,38.7708117]]}},{"type":"Feature","id":"way/527708933","properties":{"timestamp":"2024-01-30T23:03:44Z","version":"4","changeset":"146882542","user":"RazorWind","uid":"11152051","highway":"footway","lit":"yes","id":"way/527708933"},"geometry":{"type":"LineString","coordinates":[[-9.1683948,38.764309],[-9.1680396,38.7639037],[-9.1680012,38.7638698],[-9.1679748,38.7638471],[-9.1680219,38.7638116],[-9.1679549,38.7637468],[-9.1679633,38.7636547],[-9.1678494,38.7636477],[-9.167855,38.7635732],[-9.1677729,38.7635676],[-9.16778,38.7634583]]}},{"type":"Feature","id":"way/528918632","properties":{"timestamp":"2024-07-14T13:10:58Z","version":"2","changeset":"153930076","user":"DanielAgos","uid":"20972402","handrail:right":"yes","highway":"steps","incline":"down","lit":"yes","step_count":"22","surface":"paved","id":"way/528918632"},"geometry":{"type":"LineString","coordinates":[[-9.1673467,38.7663172],[-9.1670199,38.7662473]]}},{"type":"Feature","id":"way/537033968","properties":{"timestamp":"2024-01-30T23:03:44Z","version":"2","changeset":"146882542","user":"RazorWind","uid":"11152051","footway":"sidewalk","highway":"footway","id":"way/537033968"},"geometry":{"type":"LineString","coordinates":[[-9.1682796,38.7647256],[-9.1677054,38.7650038],[-9.1671577,38.7652772]]}},{"type":"Feature","id":"way/537033969","properties":{"timestamp":"2022-02-09T00:44:11Z","version":"7","changeset":"117181264","user":"DiogoBaptista98","uid":"1193685","footway":"sidewalk","highway":"footway","lit":"yes","surface":"sett","id":"way/537033969"},"geometry":{"type":"LineString","coordinates":[[-9.1670621,38.7652304],[-9.1669361,38.7650735],[-9.166812,38.7649355],[-9.1667557,38.7648571],[-9.1667208,38.7647776],[-9.1667141,38.7647579],[-9.1667121,38.7646704],[-9.1667342,38.764585],[-9.166798,38.7644699],[-9.1668965,38.7642894],[-9.1669753,38.7641472],[-9.1670124,38.764059],[-9.1670293,38.7639533],[-9.1670297,38.7638735],[-9.1670435,38.7637723],[-9.1670904,38.7636574],[-9.1671555,38.7635695],[-9.1672543,38.7634913],[-9.1672798,38.7634779],[-9.1673478,38.7634421],[-9.1674257,38.7634152],[-9.1675221,38.763398],[-9.1676558,38.7633845],[-9.1679668,38.7633758],[-9.1692235,38.763343],[-9.1705811,38.7633076],[-9.1706658,38.7633102],[-9.1706861,38.7633109],[-9.1707422,38.7633149],[-9.1707619,38.7633163],[-9.17079,38.7633327],[-9.1708075,38.7633564],[-9.1708088,38.7633818],[-9.1708145,38.7634957],[-9.1708221,38.7637961],[-9.1708256,38.7638871],[-9.1708096,38.7638971],[-9.1707805,38.7638969]]}},{"type":"Feature","id":"way/537033970","properties":{"timestamp":"2022-01-20T15:15:58Z","version":"7","changeset":"116389877","user":"Hoanui","uid":"14899633","handrail":"no","highway":"steps","incline":"up","ramp":"yes","ramp:stroller":"yes","surface":"sett","id":"way/537033970"},"geometry":{"type":"LineString","coordinates":[[-9.1709128,38.7641677],[-9.1708551,38.7643392]]}},{"type":"Feature","id":"way/537033971","properties":{"timestamp":"2024-01-30T23:03:44Z","version":"6","changeset":"146882542","user":"RazorWind","uid":"11152051","footway":"sidewalk","highway":"footway","lit":"yes","surface":"sett","id":"way/537033971"},"geometry":{"type":"LineString","coordinates":[[-9.170401,38.7652294],[-9.1704579,38.7650402],[-9.1704921,38.7649353],[-9.1705571,38.7647322],[-9.1705696,38.764691],[-9.1705717,38.7646367],[-9.1705465,38.7645787],[-9.1704726,38.7645325],[-9.1704248,38.7645214],[-9.1703655,38.7645089],[-9.1702727,38.7644917],[-9.1699939,38.7644453],[-9.1699346,38.7644354],[-9.169615,38.7643772],[-9.1692623,38.7643161],[-9.1691991,38.7643052],[-9.1689028,38.7642544],[-9.1687763,38.7642327],[-9.1685277,38.7642099],[-9.1684884,38.7642185],[-9.1684531,38.7642426],[-9.1684227,38.7642614],[-9.1683948,38.764309],[-9.16837,38.7643813],[-9.168319,38.7645856],[-9.1683023,38.7646447],[-9.1682796,38.7647256],[-9.1682326,38.764902],[-9.1681042,38.7653154],[-9.1681192,38.7654334]]}},{"type":"Feature","id":"way/537033972","properties":{"timestamp":"2024-01-30T23:03:44Z","version":"4","changeset":"146882542","user":"RazorWind","uid":"11152051","footway":"sidewalk","highway":"footway","id":"way/537033972"},"geometry":{"type":"LineString","coordinates":[[-9.1709128,38.7641677],[-9.1708353,38.7640923],[-9.1707114,38.7640302],[-9.1706123,38.7640067],[-9.1705739,38.7639855],[-9.1701314,38.7639628],[-9.1697222,38.7639385],[-9.1693578,38.7639158],[-9.1690041,38.7638977],[-9.1685515,38.7638706],[-9.1681891,38.76385],[-9.1681466,38.763849],[-9.1681078,38.7638558],[-9.1680789,38.763869],[-9.1680547,38.7638871],[-9.1680396,38.7639037]]}},{"type":"Feature","id":"way/537033981","properties":{"timestamp":"2022-02-09T00:44:11Z","version":"5","changeset":"117181264","user":"DiogoBaptista98","uid":"1193685","crossing":"zebra","footway":"crossing","highway":"footway","lit":"yes","surface":"asphalt","id":"way/537033981"},"geometry":{"type":"LineString","coordinates":[[-9.1707422,38.7633149],[-9.1706918,38.7632375],[-9.1706336,38.763161]]}},{"type":"Feature","id":"way/549101721","properties":{"timestamp":"2017-12-26T08:09:58Z","version":"1","changeset":"54923129","user":"Lara moovit","uid":"6677464","bridge":"yes","highway":"footway","layer":"1","id":"way/549101721"},"geometry":{"type":"LineString","coordinates":[[-9.1654526,38.7674256],[-9.1649892,38.7673877]]}},{"type":"Feature","id":"way/669985696","properties":{"timestamp":"2024-03-21T12:33:43Z","version":"2","changeset":"148960738","user":"tomasrm22","uid":"19736714","footway":"crossing","highway":"footway","lit":"yes","surface":"metal","id":"way/669985696"},"geometry":{"type":"LineString","coordinates":[[-9.1654894,38.7673682],[-9.1654575,38.7673666],[-9.1654526,38.7674256]]}},{"type":"Feature","id":"way/722384368","properties":{"timestamp":"2019-09-06T03:10:07Z","version":"1","changeset":"74155340","user":"DiogoBaptista98","uid":"1193685","footway":"sidewalk","highway":"footway","id":"way/722384368"},"geometry":{"type":"LineString","coordinates":[[-9.1710331,38.7628977],[-9.1714886,38.7632462],[-9.1719583,38.7636036],[-9.17221,38.7637941],[-9.1722655,38.7638365],[-9.172318,38.7638786],[-9.1723485,38.7639118],[-9.1723776,38.763956],[-9.172396,38.7639937],[-9.1724138,38.7640385],[-9.1724251,38.7640883],[-9.1724251,38.7641414],[-9.1724194,38.7641901],[-9.1724038,38.7642432],[-9.172379,38.7643013],[-9.1723464,38.7643483],[-9.1723031,38.7643931],[-9.1722612,38.7644285],[-9.1721576,38.764512],[-9.171993,38.7646448],[-9.1719817,38.764657],[-9.1719767,38.7646697],[-9.1719732,38.7646874]]}},{"type":"Feature","id":"way/722384369","properties":{"timestamp":"2024-01-30T23:03:44Z","version":"2","changeset":"146882542","user":"RazorWind","uid":"11152051","crossing":"marked","crossing:markings":"yes","footway":"crossing","highway":"footway","id":"way/722384369"},"geometry":{"type":"LineString","coordinates":[[-9.1718674,38.7646144],[-9.171918,38.7646493],[-9.1719732,38.7646874]]}},{"type":"Feature","id":"way/722384370","properties":{"timestamp":"2019-09-06T03:10:07Z","version":"1","changeset":"74155340","user":"DiogoBaptista98","uid":"1193685","footway":"sidewalk","highway":"footway","id":"way/722384370"},"geometry":{"type":"LineString","coordinates":[[-9.17221,38.7637941],[-9.1721146,38.7635642],[-9.1721903,38.7635937],[-9.172257,38.7636313],[-9.1722995,38.7636584]]}},{"type":"Feature","id":"way/722384371","properties":{"timestamp":"2019-09-06T03:10:07Z","version":"1","changeset":"74155340","user":"DiogoBaptista98","uid":"1193685","crossing":"marked","footway":"crossing","highway":"footway","id":"way/722384371"},"geometry":{"type":"LineString","coordinates":[[-9.1725464,38.7633895],[-9.172487,38.7633918],[-9.1724138,38.7633945],[-9.172397,38.7634652],[-9.1723847,38.7635168],[-9.17245,38.7635278],[-9.1724406,38.763565],[-9.172428,38.7636147],[-9.1723719,38.7636053],[-9.1723331,38.7636338],[-9.1722995,38.7636584]]}},{"type":"Feature","id":"way/776617538","properties":{"timestamp":"2022-01-20T15:13:10Z","version":"3","changeset":"116389913","user":"Hoanui","uid":"14899633","crossing":"marked","footway":"crossing","highway":"footway","lit":"yes","surface":"asphalt","id":"way/776617538"},"geometry":{"type":"LineString","coordinates":[[-9.1709393,38.7638835],[-9.170895,38.763887],[-9.1708256,38.7638871]]}},{"type":"Feature","id":"way/776617539","properties":{"timestamp":"2022-01-20T15:14:12Z","version":"4","changeset":"116389913","user":"Hoanui","uid":"14899633","crossing":"marked","footway":"crossing","highway":"footway","lit":"yes","surface":"asphalt","id":"way/776617539"},"geometry":{"type":"LineString","coordinates":[[-9.1707307,38.7638968],[-9.1706902,38.7638968],[-9.1706655,38.7638968]]}},{"type":"Feature","id":"way/776617540","properties":{"timestamp":"2024-01-30T23:03:44Z","version":"4","changeset":"146882542","user":"RazorWind","uid":"11152051","crossing":"marked","crossing:markings":"yes","footway":"crossing","highway":"footway","lit":"no","surface":"asphalt","id":"way/776617540"},"geometry":{"type":"LineString","coordinates":[[-9.1705739,38.7639855],[-9.1705766,38.7639384],[-9.1705769,38.7638999]]}},{"type":"Feature","id":"way/776617541","properties":{"timestamp":"2022-01-20T15:11:25Z","version":"3","changeset":"116389913","user":"Hoanui","uid":"14899633","highway":"footway","lit":"no","surface":"sett","id":"way/776617541"},"geometry":{"type":"LineString","coordinates":[[-9.1706655,38.7638968],[-9.1705769,38.7638999]]}},{"type":"Feature","id":"way/981629580","properties":{"timestamp":"2026-04-25T09:45:21Z","version":"5","changeset":"181798434","user":"DanielAgos","uid":"20972402","crossing":"marked","footway":"crossing","highway":"footway","id":"way/981629580"},"geometry":{"type":"LineString","coordinates":[[-9.1665512,38.7647804],[-9.1665616,38.764779],[-9.1666348,38.7647688],[-9.1667084,38.7647587],[-9.1667141,38.7647579]]}},{"type":"Feature","id":"way/1003301387","properties":{"timestamp":"2021-11-17T01:33:01Z","version":"1","changeset":"113876124","user":"DiogoBaptista98","uid":"1193685","highway":"footway","id":"way/1003301387"},"geometry":{"type":"LineString","coordinates":[[-9.1672798,38.7634779],[-9.1672477,38.7634431],[-9.1672211,38.7634168],[-9.1670984,38.76342],[-9.1670967,38.7633806],[-9.1670936,38.763312],[-9.1670924,38.7632835],[-9.1670661,38.7632397],[-9.1670327,38.7631842],[-9.1670703,38.7631611],[-9.1670944,38.7631465],[-9.1670562,38.7631063],[-9.1670132,38.7630508],[-9.1669985,38.7629949],[-9.1669898,38.7628417],[-9.166979,38.7625735],[-9.1669683,38.7623419],[-9.166969,38.7622312],[-9.1669665,38.762185]]}},{"type":"Feature","id":"way/1003301388","properties":{"timestamp":"2024-01-30T23:03:44Z","version":"7","changeset":"146882542","user":"RazorWind","uid":"11152051","handrail":"yes","highway":"steps","incline":"up","ramp":"no","step_count":"18","surface":"sett","id":"way/1003301388"},"geometry":{"type":"LineString","coordinates":[[-9.1670293,38.7639533],[-9.1671834,38.7640021]]}},{"type":"Feature","id":"way/1022917732","properties":{"timestamp":"2022-01-20T15:14:10Z","version":"3","changeset":"116389913","user":"Hoanui","uid":"14899633","crossing":"marked","footway":"crossing","highway":"footway","lit":"yes","surface":"sett","id":"way/1022917732"},"geometry":{"type":"LineString","coordinates":[[-9.1707805,38.7638969],[-9.1707307,38.7638968]]}},{"type":"Feature","id":"way/1022918484","properties":{"timestamp":"2022-01-20T15:16:14Z","version":"4","changeset":"116389877","user":"Hoanui","uid":"14899633","handrail":"no","highway":"steps","incline":"up","ramp":"no","surface":"sett","id":"way/1022918484"},"geometry":{"type":"LineString","coordinates":[[-9.1708551,38.7643392],[-9.1705465,38.7645787]]}},{"type":"Feature","id":"way/1029450493","properties":{"timestamp":"2024-11-27T14:26:21Z","version":"2","changeset":"159661683","user":"adaptive","uid":"102819","bridge":"yes","highway":"footway","layer":"1","surface":"sett","id":"way/1029450493"},"geometry":{"type":"LineString","coordinates":[[-9.1720142,38.7635413],[-9.1714084,38.7634299]]}},{"type":"Feature","id":"way/1029450494","properties":{"timestamp":"2024-11-27T14:27:00Z","version":"2","changeset":"159661683","user":"adaptive","uid":"102819","highway":"footway","surface":"sett","id":"way/1029450494"},"geometry":{"type":"LineString","coordinates":[[-9.1721146,38.7635642],[-9.1720142,38.7635413]]}},{"type":"Feature","id":"way/1029450501","properties":{"timestamp":"2024-11-27T14:26:25Z","version":"2","changeset":"159661683","user":"adaptive","uid":"102819","highway":"footway","surface":"sett","id":"way/1029450501"},"geometry":{"type":"LineString","coordinates":[[-9.1714084,38.7634299],[-9.1712364,38.7633975],[-9.1711609,38.7633891],[-9.1711053,38.7633931],[-9.1710563,38.7634077],[-9.1710124,38.7634302],[-9.1709789,38.7634033],[-9.170943,38.7633774],[-9.1708705,38.7633793],[-9.1708088,38.7633818]]}},{"type":"Feature","id":"way/1029450502","properties":{"timestamp":"2022-02-09T00:44:11Z","version":"1","changeset":"117181264","user":"DiogoBaptista98","uid":"1193685","highway":"steps","id":"way/1029450502"},"geometry":{"type":"LineString","coordinates":[[-9.1692235,38.763343],[-9.1692302,38.7634476]]}},{"type":"Feature","id":"way/1113471093","properties":{"timestamp":"2022-11-15T22:44:13Z","version":"1","changeset":"128962263","user":"DiogoBaptista98","uid":"1193685","highway":"footway","id":"way/1113471093"},"geometry":{"type":"LineString","coordinates":[[-9.1666947,38.769354],[-9.166547,38.7694208]]}},{"type":"Feature","id":"way/1113471094","properties":{"timestamp":"2022-11-15T22:44:13Z","version":"1","changeset":"128962263","user":"DiogoBaptista98","uid":"1193685","highway":"footway","id":"way/1113471094"},"geometry":{"type":"LineString","coordinates":[[-9.1662126,38.769572],[-9.1663373,38.7695156]]}},{"type":"Feature","id":"way/1113471095","properties":{"timestamp":"2022-11-15T22:44:13Z","version":"1","changeset":"128962263","user":"DiogoBaptista98","uid":"1193685","highway":"steps","id":"way/1113471095"},"geometry":{"type":"LineString","coordinates":[[-9.166547,38.7694208],[-9.1663373,38.7695156]]}},{"type":"Feature","id":"way/1161310118","properties":{"timestamp":"2024-09-05T18:30:46Z","version":"2","changeset":"156243818","user":"aselvadeasfalto","uid":"11912760","bicycle":"designated","crossing":"traffic_signals","foot":"designated","footway":"crossing","highway":"footway","lit":"yes","motor_vehicle":"no","segregated":"no","surface":"asphalt","width":"2.00","id":"way/1161310118"},"geometry":{"type":"LineString","coordinates":[[-9.1641664,38.7708117],[-9.1640683,38.7708507],[-9.1638745,38.7708844]]}},{"type":"Feature","id":"way/1163088067","properties":{"timestamp":"2024-01-30T23:03:44Z","version":"3","changeset":"146882542","user":"RazorWind","uid":"11152051","highway":"steps","id":"way/1163088067"},"geometry":{"type":"LineString","coordinates":[[-9.1690041,38.7638977],[-9.1689028,38.7642544]]}},{"type":"Feature","id":"way/1163088068","properties":{"timestamp":"2024-01-30T23:03:44Z","version":"3","changeset":"146882542","user":"RazorWind","uid":"11152051","highway":"steps","id":"way/1163088068"},"geometry":{"type":"LineString","coordinates":[[-9.1684884,38.7642185],[-9.1684683,38.7641823],[-9.1685515,38.7638706]]}},{"type":"Feature","id":"way/1163088069","properties":{"timestamp":"2024-01-30T23:03:44Z","version":"2","changeset":"146882542","user":"RazorWind","uid":"11152051","highway":"steps","id":"way/1163088069"},"geometry":{"type":"LineString","coordinates":[[-9.169615,38.7643772],[-9.1697222,38.7639385]]}},{"type":"Feature","id":"way/1163088070","properties":{"timestamp":"2024-01-30T23:03:44Z","version":"2","changeset":"146882542","user":"RazorWind","uid":"11152051","highway":"steps","id":"way/1163088070"},"geometry":{"type":"LineString","coordinates":[[-9.1692623,38.7643161],[-9.1693578,38.7639158]]}},{"type":"Feature","id":"way/1163088071","properties":{"timestamp":"2024-01-30T23:03:44Z","version":"3","changeset":"146882542","user":"RazorWind","uid":"11152051","highway":"steps","id":"way/1163088071"},"geometry":{"type":"LineString","coordinates":[[-9.1690922,38.7638583],[-9.1692133,38.7636344]]}},{"type":"Feature","id":"way/1163088072","properties":{"timestamp":"2023-04-16T19:15:36Z","version":"1","changeset":"134988779","user":"Antonio Amaral","uid":"2761480","highway":"steps","id":"way/1163088072"},"geometry":{"type":"LineString","coordinates":[[-9.1704248,38.7645214],[-9.1705739,38.7639855]]}},{"type":"Feature","id":"way/1163088073","properties":{"timestamp":"2024-01-30T23:03:44Z","version":"2","changeset":"146882542","user":"RazorWind","uid":"11152051","highway":"steps","id":"way/1163088073"},"geometry":{"type":"LineString","coordinates":[[-9.1699939,38.7644453],[-9.1701314,38.7639628]]}},{"type":"Feature","id":"way/1163088074","properties":{"timestamp":"2023-04-16T19:15:36Z","version":"1","changeset":"134988779","user":"Antonio Amaral","uid":"2761480","highway":"steps","id":"way/1163088074"},"geometry":{"type":"LineString","coordinates":[[-9.1702327,38.7639227],[-9.1702328,38.7638067],[-9.170268,38.7638023],[-9.1702662,38.7634356]]}},{"type":"Feature","id":"way/1163088075","properties":{"timestamp":"2024-01-30T23:03:44Z","version":"2","changeset":"146882542","user":"RazorWind","uid":"11152051","highway":"steps","id":"way/1163088075"},"geometry":{"type":"LineString","coordinates":[[-9.1684989,38.7638242],[-9.168531,38.7634312]]}},{"type":"Feature","id":"way/1163088076","properties":{"timestamp":"2023-04-16T19:15:36Z","version":"1","changeset":"134988779","user":"Antonio Amaral","uid":"2761480","highway":"steps","id":"way/1163088076"},"geometry":{"type":"LineString","coordinates":[[-9.1687613,38.7638397],[-9.1687997,38.7634263]]}},{"type":"Feature","id":"way/1163088077","properties":{"timestamp":"2023-04-16T19:15:36Z","version":"1","changeset":"134988779","user":"Antonio Amaral","uid":"2761480","highway":"steps","id":"way/1163088077"},"geometry":{"type":"LineString","coordinates":[[-9.1681456,38.7638073],[-9.1681785,38.7634416]]}},{"type":"Feature","id":"way/1163423200","properties":{"timestamp":"2023-04-17T15:46:15Z","version":"1","changeset":"135020769","user":"Antonio Amaral","uid":"2761480","footway":"sidewalk","highway":"footway","id":"way/1163423200"},"geometry":{"type":"LineString","coordinates":[[-9.169217,38.7632045],[-9.1692204,38.7632779],[-9.1692235,38.763343]]}},{"type":"Feature","id":"way/1214843563","properties":{"timestamp":"2023-12-30T10:46:44Z","version":"2","changeset":"145691409","user":"iBattuta","uid":"20786629","highway":"steps","id":"way/1214843563"},"geometry":{"type":"LineString","coordinates":[[-9.1711345,38.7654028],[-9.1712753,38.7654247],[-9.1716219,38.7654786]]}},{"type":"Feature","id":"way/1244769091","properties":{"timestamp":"2024-01-30T23:03:44Z","version":"1","changeset":"146882542","user":"RazorWind","uid":"11152051","highway":"footway","id":"way/1244769091"},"geometry":{"type":"LineString","coordinates":[[-9.1692302,38.7634476],[-9.1692133,38.7636344]]}},{"type":"Feature","id":"way/1326262931","properties":{"timestamp":"2024-10-20T14:06:07Z","version":"1","changeset":"158129950","user":"DanielAgos","uid":"20972402","highway":"footway","id":"way/1326262931"},"geometry":{"type":"LineString","coordinates":[[-9.1700313,38.7682192],[-9.1701389,38.7681709]]}},{"type":"Feature","id":"way/1443483185","properties":{"timestamp":"2025-10-20T13:32:06Z","version":"2","changeset":"173537227","user":"Dilxe","uid":"16603393","footway":"crossing","highway":"footway","surface":"sett","id":"way/1443483185"},"geometry":{"type":"LineString","coordinates":[[-9.1651638,38.7671516],[-9.1653062,38.7671639]]}},{"type":"Feature","id":"way/1443483186","properties":{"timestamp":"2025-10-20T13:32:23Z","version":"2","changeset":"173537227","user":"Dilxe","uid":"16603393","footway":"crossing","highway":"footway","surface":"asphalt","id":"way/1443483186"},"geometry":{"type":"LineString","coordinates":[[-9.1653062,38.7671639],[-9.1653382,38.7671667],[-9.1653774,38.7671697]]}},{"type":"Feature","id":"way/1443483187","properties":{"timestamp":"2025-10-20T13:32:14Z","version":"2","changeset":"173537227","user":"Dilxe","uid":"16603393","footway":"crossing","highway":"footway","surface":"sett","id":"way/1443483187"},"geometry":{"type":"LineString","coordinates":[[-9.1653774,38.7671697],[-9.1654486,38.7671751]]}},{"type":"Feature","id":"way/1497611643","properties":{"timestamp":"2026-04-08T08:44:25Z","version":"1","changeset":"181036708","user":"Jimiiee","uid":"2644617","highway":"steps","id":"way/1497611643"},"geometry":{"type":"LineString","coordinates":[[-9.1643459,38.7705905],[-9.1644997,38.7705357]]}},{"type":"Feature","id":"way/1497611644","properties":{"timestamp":"2026-04-08T08:44:25Z","version":"1","changeset":"181036708","user":"Jimiiee","uid":"2644617","highway":"footway","id":"way/1497611644"},"geometry":{"type":"LineString","coordinates":[[-9.1644997,38.7705357],[-9.1645482,38.7705115]]}},{"type":"Feature","id":"way/1497611645","properties":{"timestamp":"2026-04-08T08:44:25Z","version":"1","changeset":"181036708","user":"Jimiiee","uid":"2644617","highway":"footway","id":"way/1497611645"},"geometry":{"type":"LineString","coordinates":[[-9.1643357,38.7705647],[-9.1643459,38.7705905]]}},{"type":"Feature","id":"way/1497611654","properties":{"timestamp":"2026-04-08T08:44:25Z","version":"1","changeset":"181036708","user":"Jimiiee","uid":"2644617","highway":"path","id":"way/1497611654"},"geometry":{"type":"LineString","coordinates":[[-9.1670631,38.7685],[-9.1667033,38.7685622],[-9.1662959,38.7686897],[-9.1661056,38.7687572],[-9.1660427,38.7687633],[-9.1657218,38.7687633],[-9.1656432,38.7687817],[-9.1656117,38.7688001],[-9.1655268,38.7689019],[-9.1655892,38.7689956]]}}]}