{"type":"FeatureCollection","features":[{"type":"Feature","id":"way/427932959","properties":{"timestamp":"2026-04-08T08:44:25Z","version":"6","changeset":"181036708","user":"Jimiiee","uid":"2644617","access":"private","addr:city":"Lisboa","addr:housenumber":"28","addr:postcode":"1600-414","addr:street":"Rua Armindo Rodrigues","amenity":"school","barrier":"fence","contact:email":"secretaria@colegioplanalto.pt;colegiosfomento@colegioplanalto.pt;antonioleitao@colegioplanalto.pt","contact:fax":"+351 217541515","contact:phone":"+351 21 754 15 30","contact:website":"http://www.colegioplanalto.pt/","grades":"3-17","name":"Colégio Planalto","operator":"Colégios Fomento","operator:type":"private","ref":"504580","ref:aeep":"1121","ref:qzp":"QZP.45","id":"way/427932959"},"geometry":{"type":"Polygon","coordinates":[[[-9.1669605,38.7682219],[-9.1669507,38.768209],[-9.1668808,38.7681167],[-9.1669605,38.7678574],[-9.1671583,38.7677799],[-9.1670702,38.7676678],[-9.1671321,38.7676356],[-9.1669171,38.7673176],[-9.1668867,38.7672499],[-9.1668954,38.7671588],[-9.1666047,38.7670987],[-9.1665545,38.7670423],[-9.166542,38.767048],[-9.1661808,38.7672139],[-9.1660547,38.767238],[-9.1657622,38.7673697],[-9.1656885,38.7674772],[-9.1655276,38.7679419],[-9.1657637,38.7682871],[-9.165851,38.7684129],[-9.1660816,38.7687452],[-9.1662193,38.7686877],[-9.166351,38.7686287],[-9.1663626,38.7686244],[-9.166803,38.7684341],[-9.1667249,38.768327],[-9.1669605,38.7682219]]]}},{"type":"Feature","id":"way/427935115","properties":{"timestamp":"2024-04-25T13:08:55Z","version":"5","changeset":"150496116","user":"DanielAgos","uid":"20972402","addr:city":"Lisboa","addr:country":"PT","addr:housenumber":"31","addr:postcode":"1600-817","addr:street":"Rua Abel Salazar","amenity":"school","email":"aet.cexecutivo@mail.telepac.pt;eb1ji.lumiar@escolas.min-edu.pt","grades":"3-9","name":"Escola Básica do Lumiar","note":"Agrupamento: Vergílio Ferreira","operator":"Agrupamento de Escolas Vergílio Ferreira, Lisboa","operator:ref":"171098","operator:type":"public","ownership":"municipal","phone":"+351 217 581 945","ref":"287880","ref:qzp":"QZP.45","short_name":"EB 1 Lumiar","source":"Ministério da Educação","id":"way/427935115"},"geometry":{"type":"Polygon","coordinates":[[[-9.1679271,38.7669072],[-9.167879,38.7669023],[-9.1677577,38.7673752],[-9.1680193,38.7677424],[-9.1691681,38.767238],[-9.1690632,38.7670981],[-9.1679271,38.7669072]]]}},{"type":"Feature","id":"way/526649549","properties":{"timestamp":"2026-03-31T15:58:26Z","version":"9","changeset":"180680994","user":"Jimiiee","uid":"2644617","addr:city":"Telheiras","addr:postcode":"1600-468","addr:street":"Eixo N/S - Alto da Faia - Telheiras","amenity":"fuel","branch":"Área de Serviço Telheiras - Eixo Norte-Sul (Sul / Norte)","brand":"Galp","brand:wikidata":"Q1492739","brand:wikipedia":"en:Galp Energia","check_date":"2025-08-27","ele":"174.0","fuel:lpg":"yes","landuse":"commercial","mapillary":"4320402921384544","name":"Galp","opening_hours":"24/7","operator":"Galp","source":"Direção-Geral de Energia e Geologia","source:url":"https://precoscombustiveis.dgeg.gov.pt/","survey:date":"2021-06-24","id":"way/526649549"},"geometry":{"type":"Polygon","coordinates":[[[-9.1714063,38.7674281],[-9.1713289,38.7673636],[-9.1711873,38.7673677],[-9.1709431,38.7671166],[-9.1708812,38.7670945],[-9.1705476,38.7673296],[-9.1704396,38.767651],[-9.1703743,38.7678668],[-9.1702651,38.7679809],[-9.1703013,38.7680447],[-9.1703428,38.7680269],[-9.1704082,38.7680862],[-9.1705035,38.7681726],[-9.1705603,38.7682215],[-9.1706545,38.76812],[-9.1712923,38.7676587],[-9.1714063,38.7674281]]]}},{"type":"Feature","id":"way/526933738","properties":{"timestamp":"2022-11-15T22:44:13Z","version":"2","changeset":"128962263","user":"DiogoBaptista98","uid":"1193685","access":"customers","addr:street":"Rua Frederico George","amenity":"parking","fee":"no","park_ride":"no","parking":"surface","supervised":"no","surface":"asphalt","id":"way/526933738"},"geometry":{"type":"Polygon","coordinates":[[[-9.1670138,38.7691896],[-9.1668581,38.7689708],[-9.1666632,38.7690588],[-9.1666454,38.7690343],[-9.1666267,38.7690086],[-9.1662639,38.7691693],[-9.1663313,38.7692621],[-9.1662357,38.7693044],[-9.1663646,38.7694815],[-9.1666207,38.7693682],[-9.1670138,38.7691896]]]}},{"type":"Feature","id":"way/776614803","properties":{"timestamp":"2020-02-26T21:14:00Z","version":"1","changeset":"81521587","user":"HeapSrc","uid":"1728066","access":"customers","amenity":"parking","operator":"Mega Craque Club","operator:type":"private","parking":"surface","surface":"asphalt","id":"way/776614803"},"geometry":{"type":"Polygon","coordinates":[[[-9.1706808,38.7649134],[-9.1707404,38.7647155],[-9.1708181,38.7647267],[-9.1708492,38.7646162],[-9.170668,38.7645832],[-9.1706458,38.7646571],[-9.1705905,38.7646471],[-9.1705194,38.764884],[-9.1706808,38.7649134]]]}},{"type":"Feature","id":"way/1235438666","properties":{"timestamp":"2023-12-30T07:46:16Z","version":"1","changeset":"145686430","user":"iBattuta","uid":"20786629","amenity":"parking","id":"way/1235438666"},"geometry":{"type":"Polygon","coordinates":[[[-9.1723383,38.764915],[-9.1721913,38.765425],[-9.1723164,38.7654459],[-9.1724561,38.7649345],[-9.1723383,38.764915]]]}},{"type":"Feature","id":"way/1244769105","properties":{"timestamp":"2024-01-30T23:03:44Z","version":"1","changeset":"146882542","user":"RazorWind","uid":"11152051","amenity":"parking","id":"way/1244769105"},"geometry":{"type":"Polygon","coordinates":[[[-9.1702771,38.7645971],[-9.1702878,38.7645592],[-9.1687303,38.7642919],[-9.1687195,38.7643301],[-9.1702771,38.7645971]]]}},{"type":"Feature","id":"way/1244769106","properties":{"timestamp":"2024-01-30T23:03:44Z","version":"1","changeset":"146882542","user":"RazorWind","uid":"11152051","amenity":"parking","id":"way/1244769106"},"geometry":{"type":"Polygon","coordinates":[[[-9.1684409,38.7646396],[-9.1683859,38.7646303],[-9.1682005,38.7653028],[-9.1682553,38.765312],[-9.1684409,38.7646396]]]}},{"type":"Feature","id":"way/1472729374","properties":{"timestamp":"2026-01-30T15:32:58Z","version":"1","changeset":"177895332","user":"Alexmol","uid":"347293","access":"yes","amenity":"charging_station","brand":"edp Charge","brand:wikidata":"Q1341222","capacity":"4","fee":"yes","maxstay":"unlimited","motorcar":"yes","name":"LSB-01142/1143","network":"Mobi.E","opening_hours":"24/7","operator":"EDP","operator:wikidata":"Q1341222","parking:fee":"no","phone":"+351 800 222 222","ref":"LSB-01142;LSB-01143","website":"https://www.mobie.pt/","id":"way/1472729374"},"geometry":{"type":"Polygon","coordinates":[[[-9.1668542,38.7690636],[-9.1669101,38.7691439],[-9.1669716,38.7691179],[-9.1669157,38.7690376],[-9.1668542,38.7690636]]]}},{"type":"Feature","id":"way/1472729375","properties":{"timestamp":"2026-01-30T15:32:58Z","version":"1","changeset":"177895332","user":"Alexmol","uid":"347293","amenity":"parking_space","parking_space":"charging","id":"way/1472729375"},"geometry":{"type":"Polygon","coordinates":[[[-9.16692,38.7690617],[-9.1668681,38.7690836],[-9.1668819,38.7691035],[-9.1669339,38.7690816],[-9.16692,38.7690617]]]}},{"type":"Feature","id":"way/1472729376","properties":{"timestamp":"2026-01-30T15:32:58Z","version":"1","changeset":"177895332","user":"Alexmol","uid":"347293","amenity":"parking_space","parking_space":"charging","id":"way/1472729376"},"geometry":{"type":"Polygon","coordinates":[[[-9.1669339,38.7690816],[-9.1668819,38.7691035],[-9.166896,38.7691236],[-9.1669479,38.7691017],[-9.1669339,38.7690816]]]}},{"type":"Feature","id":"way/1472729377","properties":{"timestamp":"2026-01-30T15:32:58Z","version":"1","changeset":"177895332","user":"Alexmol","uid":"347293","amenity":"parking_space","parking_space":"charging","id":"way/1472729377"},"geometry":{"type":"Polygon","coordinates":[[[-9.1669479,38.7691017],[-9.166896,38.7691236],[-9.1669101,38.7691439],[-9.166962,38.7691219],[-9.1669479,38.7691017]]]}},{"type":"Feature","id":"way/1472729378","properties":{"timestamp":"2026-01-30T15:32:58Z","version":"1","changeset":"177895332","user":"Alexmol","uid":"347293","amenity":"parking_space","parking_space":"charging","id":"way/1472729378"},"geometry":{"type":"Polygon","coordinates":[[[-9.1669061,38.7690417],[-9.1668542,38.7690636],[-9.1668681,38.7690836],[-9.16692,38.7690617],[-9.1669061,38.7690417]]]}},{"type":"Feature","id":"way/1497611642","properties":{"timestamp":"2026-04-08T08:44:25Z","version":"1","changeset":"181036708","user":"Jimiiee","uid":"2644617","access":"yes","amenity":"parking","parking":"surface","id":"way/1497611642"},"geometry":{"type":"Polygon","coordinates":[[[-9.1650885,38.7688965],[-9.1653224,38.7688024],[-9.1654194,38.7687596],[-9.1652628,38.7685558],[-9.1650717,38.7686504],[-9.1650274,38.7686723],[-9.1649646,38.7688669],[-9.1650885,38.7688965]]]}},{"type":"Feature","id":"node/259114738","properties":{"timestamp":"2022-10-17T04:54:37Z","version":"4","changeset":"127647556","user":"kmpoppe (@ Mapillary Update)","uid":"14309561","amenity":"recycling","created_by":"Potlatch 0.8a","mapillary":"502788334197789","recycling:glass_bottles":"yes","recycling_type":"container","survey:date":"2019-11-22","id":"node/259114738"},"geometry":{"type":"Point","coordinates":[-9.1707668,38.7638037]}},{"type":"Feature","id":"node/1301617639","properties":{"timestamp":"2011-05-27T05:39:58Z","version":"1","changeset":"8258719","user":"JPF_pt","uid":"350918","amenity":"atm","id":"node/1301617639"},"geometry":{"type":"Point","coordinates":[-9.1707667,38.767861]}},{"type":"Feature","id":"node/1301617650","properties":{"timestamp":"2024-11-02T14:08:25Z","version":"2","changeset":"158660349","user":"Dilxe","uid":"16603393","amenity":"cafe","name":"Tangerina","id":"node/1301617650"},"geometry":{"type":"Point","coordinates":[-9.1708499,38.7678003]}},{"type":"Feature","id":"node/1301617678","properties":{"timestamp":"2017-09-22T04:35:57Z","version":"2","changeset":"52263008","user":"JPF_pt","uid":"350918","amenity":"car_wash","automated":"yes","self_service":"yes","id":"node/1301617678"},"geometry":{"type":"Point","coordinates":[-9.1707698,38.7673244]}},{"type":"Feature","id":"node/1301617684","properties":{"timestamp":"2024-11-02T14:08:25Z","version":"2","changeset":"158660349","user":"Dilxe","uid":"16603393","name":"Loja Da GALP","shop":"convenience","id":"node/1301617684"},"geometry":{"type":"Point","coordinates":[-9.1707785,38.7677533]}},{"type":"Feature","id":"node/1301617688","properties":{"timestamp":"2018-03-01T12:39:08Z","version":"4","changeset":"56787829","user":"hvalentim","uid":"705092","access":"yes","amenity":"toilets","fee":"no","toilets:disposal":"flush","wheelchair":"yes","id":"node/1301617688"},"geometry":{"type":"Point","coordinates":[-9.1707023,38.7678087]}},{"type":"Feature","id":"node/1301617699","properties":{"timestamp":"2024-11-02T14:08:25Z","version":"2","changeset":"158660349","user":"Dilxe","uid":"16603393","brand":"Midas","brand:wikidata":"Q3312613","name":"Midas","shop":"car_repair","id":"node/1301617699"},"geometry":{"type":"Point","coordinates":[-9.1706407,38.7675682]}},{"type":"Feature","id":"node/1301617705","properties":{"timestamp":"2025-11-14T10:34:10Z","version":"5","changeset":"174642024","user":"mikedld","uid":"284757","addr:city":"Lisboa","addr:postcode":"1600-468","addr:street":"Pa Galp Eixo N/S, Sentido Sul Norte","amenity":"fast_food","branch":"Eixo N-S","brand":"Burger King","brand:wikidata":"Q177054","brand:wikipedia":"pt:Burger King","contact:facebook":"burgerkingportugal","contact:instagram":"burgerkingportugal","contact:phone":"+351 932 104 815","contact:tiktok":"burgerkingportugal","contact:youtube":"https://www.youtube.com/@burgerkingportugal3411","cuisine":"burger","diet:meat":"yes","drive_through":"yes","name":"Burger King","opening_hours":"Mo-Su 11:00-23:00","opening_hours:drive_through":"Mo-Su 11:00-05:00","ref":"26629","source:contact":"website","source:opening_hours":"website","takeaway":"yes","website":"https://www.burgerking.pt/pt/store-locator/store/restaurant_89852","id":"node/1301617705"},"geometry":{"type":"Point","coordinates":[-9.1706004,38.7679063]}},{"type":"Feature","id":"node/1929583960","properties":{"timestamp":"2018-05-22T10:08:13Z","version":"3","changeset":"59175605","user":"topolusitania","uid":"380552","shop":"supermarket","id":"node/1929583960"},"geometry":{"type":"Point","coordinates":[-9.1669939,38.7688092]}},{"type":"Feature","id":"node/1929583966","properties":{"timestamp":"2016-06-29T04:59:17Z","version":"2","changeset":"40357615","user":"Josef K","uid":"47097","amenity":"parking","name":"Natura Towers","id":"node/1929583966"},"geometry":{"type":"Point","coordinates":[-9.1650703,38.7700626]}},{"type":"Feature","id":"node/1929583969","properties":{"timestamp":"2024-11-02T14:08:25Z","version":"4","changeset":"158660349","user":"Dilxe","uid":"16603393","addr:housenumber":"31 C","addr:street":"Rua Frederico George","amenity":"pharmacy","contact:email":"encomendas@farmaciaplanalto.pt","contact:phone":"+351 213 462 350","contact:website":"https://www.facebook.com/FarmaciaPlanalto","dispensing":"yes","healthcare":"pharmacy","name":"Farmácia Planalto","id":"node/1929583969"},"geometry":{"type":"Point","coordinates":[-9.1672073,38.7694639]}},{"type":"Feature","id":"node/1929620878","properties":{"timestamp":"2012-09-23T21:15:52Z","version":"1","changeset":"13226093","user":"Thx1011 @ LX PT","uid":"501442","name":"Papelaria Faia","shop":"books","id":"node/1929620878"},"geometry":{"type":"Point","coordinates":[-9.1681607,38.7688448]}},{"type":"Feature","id":"node/3190240005","properties":{"timestamp":"2017-10-31T02:10:00Z","version":"2","changeset":"53382911","user":"rictum_satz","uid":"2117094","amenity":"restaurant","cuisine":"churrasco","name":"Dom Churrasco","id":"node/3190240005"},"geometry":{"type":"Point","coordinates":[-9.1710453,38.7635461]}},{"type":"Feature","id":"node/6776042641","properties":{"timestamp":"2022-10-09T08:18:55Z","version":"2","changeset":"127235318","user":"josejade","uid":"17329951","amenity":"recycling","recycling:glass_bottles":"yes","recycling_type":"container","id":"node/6776042641"},"geometry":{"type":"Point","coordinates":[-9.1677985,38.7679986]}},{"type":"Feature","id":"node/6776042643","properties":{"timestamp":"2023-07-01T11:05:29Z","version":"2","changeset":"137987964","user":"tomasrm22","uid":"19736714","emergency":"fire_hydrant","fire_hydrant:position":"sidewalk","fire_hydrant:type":"pillar","water_source":"main","id":"node/6776042643"},"geometry":{"type":"Point","coordinates":[-9.1678454,38.7679782]}},{"type":"Feature","id":"node/7701768285","properties":{"timestamp":"2024-03-21T12:39:57Z","version":"3","changeset":"148961326","user":"tomasrm22","uid":"19736714","amenity":"cafe","indoor_seating":"yes","name":"Alto da Faia","outdoor_seating":"yes","id":"node/7701768285"},"geometry":{"type":"Point","coordinates":[-9.1688553,38.768631]}},{"type":"Feature","id":"node/8011168349","properties":{"timestamp":"2026-04-05T21:57:27Z","version":"20","changeset":"180917194","user":"Alexmol","uid":"347293","access":"yes","addr:city":"Lisboa","addr:street":"Eixo Norte-Sul","amenity":"charging_station","authentication:app":"yes","authentication:membership_card":"yes","authentication:none":"no","brand":"Galp electric","brand:wikidata":"Q135275372","capacity":"2","charging_station:output":"90 kW","email":"veiculoeletrico@galp.com","fee":"yes","maxstay":"unlimited","motorcar":"yes","name":"LSB-00997","network":"Mobi.E","old_operator":"Galp Geste","old_ref":"LSB-00279","opening_hours":"24/7","operator":"Galp Power","operator:wikidata":"Q135275372","parking:fee":"no","payment:app":"yes","payment:cards":"no","payment:cash":"no","payment:membership_card":"yes","phone":"+351 800 249 249","ref":"LSB-00997","ref:EU:EVSE":"PT*GLP*ELSB*00997*01;PT*GLP*ELSB*00997*02","socket:type2_combo":"2","socket:type2_combo:current":"250","socket:type2_combo:output":"90 kW","socket:type2_combo:voltage":"1000","website":"https://www.mobie.pt","id":"node/8011168349"},"geometry":{"type":"Point","coordinates":[-9.1704933,38.7681214]}},{"type":"Feature","id":"node/8149431048","properties":{"timestamp":"2025-12-25T22:41:38Z","version":"19","changeset":"176411997","user":"Alexmol","uid":"347293","access":"yes","amenity":"charging_station","authentication:app":"yes","authentication:membership_card":"yes","authentication:none":"no","brand":"Galp electric","brand:wikidata":"Q135275372","capacity":"2","email":"veiculoeletrico@galp.com","fee":"yes","maxstay":"unlimited","motorcar":"yes","name":"LSB-80055","network":"Mobi.E","old_ref":"LSB-90055","opening_hours":"24/7","operator":"Galp Power","operator:wikidata":"Q135275372","parking:fee":"no","payment:app":"yes","payment:cards":"no","payment:cash":"no","payment:membership_card":"yes","phone":"+351 800 249 249","ref":"LSB-80055","ref:EU:EVSE":"PT*GLP*ELSB*80055*01;PT*GLP*ELSB*80055*02","socket:type2":"2","socket:type2:current":"16","socket:type2:output":"3.7 kW","socket:type2:voltage":"230","website":"https://www.mobie.pt","id":"node/8149431048"},"geometry":{"type":"Point","coordinates":[-9.1715576,38.7645692]}},{"type":"Feature","id":"node/10187000301","properties":{"timestamp":"2024-11-02T14:08:25Z","version":"2","changeset":"158660349","user":"Dilxe","uid":"16603393","brand":"Cofidis","brand:wikidata":"Q1106920","name":"Cofidis","office":"financial","id":"node/10187000301"},"geometry":{"type":"Point","coordinates":[-9.1649996,38.7700307]}},{"type":"Feature","id":"node/10212597317","properties":{"timestamp":"2025-10-28T16:54:59Z","version":"10","changeset":"173893052","user":"Urafkard","uid":"21545886","addr:housenumber":"4","addr:postcode":"1600-248","addr:street":"Rua Mário Dionísio","internet_access":"wlan","laundry_service":"no","name":"Self-service laundry","name:en":"La Wash Telheiras","name:pt":"La Wash Telheiras","name:ru":"La Wash Telheiras","opening_hours":"Mo-Su 07:00-22:00","self_service":"yes","shop":"laundry","id":"node/10212597317"},"geometry":{"type":"Point","coordinates":[-9.1712129,38.7635763]}},{"type":"Feature","id":"node/11100261105","properties":{"timestamp":"2025-11-11T11:50:56Z","version":"2","changeset":"174507112","user":"ciberpano","uid":"23493441","addr:housenumber":"10A","addr:postcode":"1600-638","addr:street":"Rua Professor João de Castro Mendes","amenity":"veterinary","email":"cvtelheiras@gmail.com","name":"Clínica Veterinária de Telheiras","name:en":"Telheiras Veterinary Clinic","opening_hours":"Mo-Fr 10:00-20:00; Sa 10:00-19:00; Su 15:00-19:00","phone":"+351 217 574 648","website":"https://clinicaveterinariatelheiras.com","id":"node/11100261105"},"geometry":{"type":"Point","coordinates":[-9.1718248,38.7655738]}},{"type":"Feature","id":"node/11287438900","properties":{"timestamp":"2023-10-25T00:34:27Z","version":"1","changeset":"143088810","user":"Георгий Сидоров","uid":"3833158","amenity":"recycling","recycling:clothes":"yes","recycling:shoes":"yes","recycling_type":"container","id":"node/11287438900"},"geometry":{"type":"Point","coordinates":[-9.1671924,38.7691748]}},{"type":"Feature","id":"node/11287438901","properties":{"timestamp":"2023-10-25T00:34:27Z","version":"1","changeset":"143088810","user":"Георгий Сидоров","uid":"3833158","amenity":"recycling","recycling_type":"container","id":"node/11287438901"},"geometry":{"type":"Point","coordinates":[-9.1671743,38.7691881]}},{"type":"Feature","id":"node/11947377953","properties":{"timestamp":"2025-06-30T09:05:42Z","version":"5","changeset":"168298963","user":"ltdm","uid":"447153","addr:city":"Lisboa","addr:housenumber":"37","addr:postcode":"1600-817","addr:street":"Rua Abel Salazar","check_date":"2024-05-31","description":"Associação dedicada à salvaguarda do património histórico português, enriquecendo o presente com lições do passado.","name":"Associação Tito de Morais","note":"Entrada no numero 37b","office":"association","panoramax":"https://panoramax.openstreetmap.fr/#focus=pic&pic=e3455650-4bc3-40a1-a95d-12d8d572a46c","source":"local knowledge;survey","website":"https://www.titomorais.pt/","id":"node/11947377953"},"geometry":{"type":"Point","coordinates":[-9.1684864,38.7682546]}},{"type":"Feature","id":"node/12271101921","properties":{"timestamp":"2024-10-20T14:06:07Z","version":"1","changeset":"158129950","user":"DanielAgos","uid":"20972402","amenity":"drinking_water","bottle":"no","dog":"no","fountain":"bubbler","id":"node/12271101921"},"geometry":{"type":"Point","coordinates":[-9.1701565,38.7681744]}},{"type":"Feature","id":"node/12346175347","properties":{"timestamp":"2025-09-11T13:02:26Z","version":"2","changeset":"171783896","user":"Reino Baptista","uid":"2820801","emergency":"assembly_point","fixme":"exact position","name":"53 - Colégio Planalto","operator":"Câmara Municipal de Lisboa - Serviço Municipal de Proteção Civil de Lisboa","ref":"53","website":"https://www.lisboa.pt/temas/seguranca-e-prevencao/protecao-civil/planeamento-de-emergencia/pontos-de-encontro","id":"node/12346175347"},"geometry":{"type":"Point","coordinates":[-9.1666694,38.7680548]}},{"type":"Feature","id":"node/12592907991","properties":{"timestamp":"2025-02-16T12:35:16Z","version":"3","changeset":"162568912","user":"DanielAgos","uid":"20972402","emergency":"fire_hydrant","fire_hydrant:position":"sidewalk","fire_hydrant:type":"pillar","id":"node/12592907991"},"geometry":{"type":"Point","coordinates":[-9.1652104,38.7688792]}},{"type":"Feature","id":"node/13296536712","properties":{"timestamp":"2025-11-11T12:00:01Z","version":"1","changeset":"174507419","user":"ciberpano","uid":"23493441","addr:city":"Lisboa","addr:housenumber":"23B","addr:postcode":"1600-651","addr:street":"Rua Professor Prado Coelho","amenity":"bar","brewery":"sagres","name":"Quasebar - Cafetaria  e bar","opening_hours":"Mo-Sa 06:00-22:00","id":"node/13296536712"},"geometry":{"type":"Point","coordinates":[-9.1717199,38.7657656]}},{"type":"Feature","id":"node/13722147026","properties":{"timestamp":"2026-04-25T09:51:25Z","version":"2","changeset":"181798600","user":"DanielAgos","uid":"20972402","amenity":"recycling","fixme":"survey the station, remove FIXME only when the station is operational and update check_date","name":"ALDI Telheiras","note":"Guidelines at https://wiki.openstreetmap.org/wiki/Volta_PT","operator:wikidata":"Q138952882","recycling_type":"reverse_vending_machine","source:ref":"9386","website":"https://volta.com.pt","id":"node/13722147026"},"geometry":{"type":"Point","coordinates":[-9.1664296,38.769121]}},{"type":"Feature","id":"node/13866023588","properties":{"timestamp":"2026-05-23T21:05:25Z","version":"2","changeset":"183084511","user":"Alexmol","uid":"347293","access":"yes","amenity":"charging_station","authentication:membership_card":"yes","authentication:none":"no","brand":"wowplug","capacity":"2","email":"suporte@wowplug.com","fee":"yes","maxstay":"unlimited","motorcar":"yes","name":"LSB-01219","network":"Mobi.E","opening_hours":"24/7","operator":"True Kare","parking:fee":"no","payment:app":"yes","payment:cards":"no","payment:cash":"no","payment:membership_card":"yes","ref":"LSB-01219","ref:EU:EVSE":"PT*TRK*E*LSB*01219*01;PT*TRK*E*LSB*01219*02","socket:type2":"2","socket:type2:current":"32","socket:type2:output":"22 kW","socket:type2:voltage":"400","website":"https://www.mobie.pt/","id":"node/13866023588"},"geometry":{"type":"Point","coordinates":[-9.171608,38.7667358]}}]}