{"type":"FeatureCollection","features":[{"type":"Feature","id":"node/1975896593","properties":{"timestamp":"2019-09-06T03:29:45Z","version":"4","changeset":"74155610","user":"DiogoBaptista98","uid":"1193685","bench":"yes","bin":"yes","bus":"yes","departures_board":"timetable","highway":"bus_stop","name":"Rua Professor Prado Coelho","network":"Carris","operator":"Carris","public_transport":"platform","shelter":"yes","id":"node/1975896593"},"geometry":{"type":"Point","coordinates":[-9.1710124,38.7669504]}},{"type":"Feature","id":"node/6776021380","properties":{"timestamp":"2019-09-06T03:22:17Z","version":"1","changeset":"74155503","user":"DiogoBaptista98","uid":"1193685","bus":"yes","name":"Rua Professor Queiroz Veloso","network":"Carris","operator":"Carris","public_transport":"stop_position","id":"node/6776021380"},"geometry":{"type":"Point","coordinates":[-9.171111,38.7641798]}},{"type":"Feature","id":"node/6776021381","properties":{"timestamp":"2022-01-20T15:14:31Z","version":"3","changeset":"116390090","user":"Hoanui","uid":"14899633","bench":"no","bin":"yes","bus":"yes","departures_board":"timetable","highway":"bus_stop","lit":"yes","name":"Rua Professor Queiroz Veloso","network":"Carris","operator":"Carris","public_transport":"platform","shelter":"no","id":"node/6776021381"},"geometry":{"type":"Point","coordinates":[-9.1710478,38.7642336]}},{"type":"Feature","id":"node/6776031555","properties":{"timestamp":"2024-11-02T14:08:25Z","version":"3","changeset":"158660349","user":"Dilxe","uid":"16603393","bench":"yes","bus":"yes","departures_board":"timetable","highway":"bus_stop","name":"Alto da Faia","network":"Carris","network:wikidata":"Q1045108","operator":"Carris","operator:wikidata":"Q1045108","public_transport":"platform","route_ref":"43B","shelter":"yes","short_name":"Alto Faia","id":"node/6776031555"},"geometry":{"type":"Point","coordinates":[-9.1680647,38.7681774]}},{"type":"Feature","id":"node/6776031556","properties":{"timestamp":"2020-12-06T06:14:50Z","version":"2","changeset":"95355775","user":"DiogoBaptista98","uid":"1193685","bus":"yes","name":"Alto da Faia","network":"Carris","operator":"Carris","public_transport":"stop_position","short_name":"Alto Faia","id":"node/6776031556"},"geometry":{"type":"Point","coordinates":[-9.1681267,38.7681493]}},{"type":"Feature","id":"node/6776042639","properties":{"timestamp":"2020-12-06T04:44:34Z","version":"2","changeset":"95354686","user":"DiogoBaptista98","uid":"1193685","bench":"yes","bus":"yes","departures_board":"timetable","highway":"bus_stop","name":"Rua Frederico George","network":"Carris","operator":"Carris","public_transport":"platform","route_ref":"44B;778","shelter":"yes","id":"node/6776042639"},"geometry":{"type":"Point","coordinates":[-9.1698047,38.7679576]}},{"type":"Feature","id":"node/6776042640","properties":{"timestamp":"2022-11-15T22:44:13Z","version":"2","changeset":"128962263","user":"DiogoBaptista98","uid":"1193685","bus":"yes","name":"Rua Frederico George","network":"Carris","operator":"Carris","public_transport":"stop_position","id":"node/6776042640"},"geometry":{"type":"Point","coordinates":[-9.1698661,38.7680469]}},{"type":"Feature","id":"node/6776046495","properties":{"timestamp":"2019-09-06T03:25:44Z","version":"1","changeset":"74155551","user":"DiogoBaptista98","uid":"1193685","bus":"yes","name":"Alto da Faia Sul","network":"Carris","operator":"Carris","public_transport":"stop_position","id":"node/6776046495"},"geometry":{"type":"Point","coordinates":[-9.1717056,38.765215]}},{"type":"Feature","id":"node/6776046496","properties":{"timestamp":"2019-09-06T03:25:44Z","version":"1","changeset":"74155551","user":"DiogoBaptista98","uid":"1193685","bench":"yes","bin":"no","bus":"yes","departures_board":"timetable","highway":"bus_stop","name":"Alto da Faia Sul","network":"Carris","operator":"Carris","public_transport":"platform","shelter":"yes","id":"node/6776046496"},"geometry":{"type":"Point","coordinates":[-9.1718076,38.7652637]}},{"type":"Feature","id":"node/6776046497","properties":{"timestamp":"2019-09-06T03:25:44Z","version":"1","changeset":"74155551","user":"DiogoBaptista98","uid":"1193685","bench":"no","bin":"yes","bus":"yes","departures_board":"timetable","highway":"bus_stop","name":"Alto da Faia Sul","network":"Carris","operator":"Carris","public_transport":"platform","shelter":"no","id":"node/6776046497"},"geometry":{"type":"Point","coordinates":[-9.1716631,38.7652087]}},{"type":"Feature","id":"node/6776046498","properties":{"timestamp":"2019-09-06T03:25:44Z","version":"1","changeset":"74155551","user":"DiogoBaptista98","uid":"1193685","bus":"yes","name":"Alto da Faia Sul","network":"Carris","operator":"Carris","public_transport":"stop_position","id":"node/6776046498"},"geometry":{"type":"Point","coordinates":[-9.1716966,38.7652451]}},{"type":"Feature","id":"node/6776050957","properties":{"timestamp":"2019-09-06T03:29:45Z","version":"1","changeset":"74155610","user":"DiogoBaptista98","uid":"1193685","bus":"yes","name":"Rua Professor Prado Coelho","network":"Carris","operator":"Carris","public_transport":"stop_position","id":"node/6776050957"},"geometry":{"type":"Point","coordinates":[-9.1709676,38.7669003]}},{"type":"Feature","id":"node/6776050958","properties":{"timestamp":"2019-09-06T03:29:45Z","version":"1","changeset":"74155610","user":"DiogoBaptista98","uid":"1193685","bench":"yes","bin":"yes","bus":"yes","departures_board":"timetable","highway":"bus_stop","name":"Rua Professor Prado Coelho","network":"Carris","operator":"Carris","public_transport":"platform","shelter":"yes","id":"node/6776050958"},"geometry":{"type":"Point","coordinates":[-9.1706161,38.7670251]}},{"type":"Feature","id":"node/6776050959","properties":{"timestamp":"2019-09-06T03:29:45Z","version":"1","changeset":"74155610","user":"DiogoBaptista98","uid":"1193685","bus":"yes","name":"Rua Professor Prado Coelho","network":"Carris","operator":"Carris","public_transport":"stop_position","id":"node/6776050959"},"geometry":{"type":"Point","coordinates":[-9.1706583,38.7670723]}},{"type":"Feature","id":"node/8198018078","properties":{"timestamp":"2022-11-15T22:44:13Z","version":"2","changeset":"128962263","user":"DiogoBaptista98","uid":"1193685","bus":"yes","name":"Rua Frederico George","network":"Carris","operator":"Carris","public_transport":"stop_position","ref":"50033","short_name":"R. Frederico George","id":"node/8198018078"},"geometry":{"type":"Point","coordinates":[-9.1666391,38.7695167]}},{"type":"Feature","id":"node/8198018918","properties":{"timestamp":"2020-12-06T04:44:34Z","version":"1","changeset":"95354686","user":"DiogoBaptista98","uid":"1193685","bus":"yes","name":"Rua Armindo Rodrigues","network":"Carris","operator":"Carris","public_transport":"stop_position","id":"node/8198018918"},"geometry":{"type":"Point","coordinates":[-9.1673508,38.7689111]}},{"type":"Feature","id":"node/8198018919","properties":{"timestamp":"2024-11-02T14:08:25Z","version":"3","changeset":"158660349","user":"Dilxe","uid":"16603393","bench":"no","bin":"no","bus":"yes","departures_board":"timetable","highway":"bus_stop","name":"Rua Armindo Rodrigues","network":"Carris","network:wikidata":"Q1045108","operator":"Carris","operator:wikidata":"Q1045108","public_transport":"platform","route_ref":"43B;778","shelter":"no","id":"node/8198018919"},"geometry":{"type":"Point","coordinates":[-9.1674173,38.7688826]}},{"type":"Feature","id":"node/8198018920","properties":{"timestamp":"2020-12-06T04:44:34Z","version":"1","changeset":"95354686","user":"DiogoBaptista98","uid":"1193685","bus":"yes","name":"Alto da Faia","network":"Carris","operator":"Carris","public_transport":"stop_position","short_name":"Alto Faia","id":"node/8198018920"},"geometry":{"type":"Point","coordinates":[-9.1684691,38.767632]}},{"type":"Feature","id":"node/8198018921","properties":{"timestamp":"2024-11-02T14:08:25Z","version":"2","changeset":"158660349","user":"Dilxe","uid":"16603393","bench":"yes","bin":"yes","bus":"yes","departures_board":"timetable","highway":"bus_stop","name":"Alto da Faia","network":"Carris","network:wikidata":"Q1045108","operator":"Carris","operator:wikidata":"Q1045108","public_transport":"platform","route_ref":"778","shelter":"yes","short_name":"Alto Faia","id":"node/8198018921"},"geometry":{"type":"Point","coordinates":[-9.1685089,38.7676856]}},{"type":"Feature","id":"node/8198018922","properties":{"timestamp":"2020-12-06T04:44:34Z","version":"1","changeset":"95354686","user":"DiogoBaptista98","uid":"1193685","bus":"yes","name":"Rua Frederico George","network":"Carris","operator":"Carris","public_transport":"stop_position","id":"node/8198018922"},"geometry":{"type":"Point","coordinates":[-9.1693982,38.7680502]}},{"type":"Feature","id":"node/8198018923","properties":{"timestamp":"2020-12-06T04:44:34Z","version":"1","changeset":"95354686","user":"DiogoBaptista98","uid":"1193685","bench":"yes","bin":"yes","bus":"yes","departures_board":"timetable","highway":"bus_stop","name":"Rua Frederico George","network":"Carris","operator":"Carris","public_transport":"platform","route_ref":"778","shelter":"yes","id":"node/8198018923"},"geometry":{"type":"Point","coordinates":[-9.169326,38.7680834]}},{"type":"Feature","id":"node/8198142262","properties":{"timestamp":"2020-12-06T06:35:26Z","version":"1","changeset":"95356078","user":"DiogoBaptista98","uid":"1193685","bus":"yes","name":"Rua Armindo Rodrigues","network":"Carris","operator":"Carris","public_transport":"stop_position","short_name":"R. Armindo Rodrigues","id":"node/8198142262"},"geometry":{"type":"Point","coordinates":[-9.1673548,38.7681292]}},{"type":"Feature","id":"node/8198142263","properties":{"timestamp":"2024-11-02T14:08:25Z","version":"5","changeset":"158660349","user":"Dilxe","uid":"16603393","bench":"no","bin":"yes","bus":"yes","departures_board":"timetable","highway":"bus_stop","lit":"no","name":"Rua Armindo Rodrigues","network":"Carris","network:wikidata":"Q1045108","operator":"Carris","operator:wikidata":"Q1045108","public_transport":"platform","route_ref":"47B;778","shelter":"no","short_name":"R. Armindo Rodrigues","tactile_paving":"no","id":"node/8198142263"},"geometry":{"type":"Point","coordinates":[-9.1673311,38.7680973]}},{"type":"Feature","id":"node/9258702578","properties":{"timestamp":"2026-04-25T09:45:21Z","version":"2","changeset":"181798434","user":"DanielAgos","uid":"20972402","bus":"yes","local_ref":"50008","name":"Rua Professor Vieira de Almeida","network":"Carris","operator":"Carris","public_transport":"stop_position","ref":"50008","short_name":"R. Prof. Vieira Almeida","id":"node/9258702578"},"geometry":{"type":"Point","coordinates":[-9.1668338,38.7650748]}},{"type":"Feature","id":"node/9259034764","properties":{"timestamp":"2021-11-17T06:10:27Z","version":"1","changeset":"113880986","user":"DiogoBaptista98","uid":"1193685","bus":"yes","local_ref":"50003","name":"Rua Professor Vieira de Almeida","network":"Carris","operator":"Carris","public_transport":"stop_position","ref":"50003","short_name":"R. Prof. Vieira Almeida","id":"node/9259034764"},"geometry":{"type":"Point","coordinates":[-9.1668685,38.764189]}},{"type":"Feature","id":"node/9259034765","properties":{"timestamp":"2022-10-09T08:19:33Z","version":"3","changeset":"127235336","user":"josejade","uid":"17329951","bench":"yes","bin":"yes","bus":"yes","departures_board":"timetable","highway":"bus_stop","lit":"yes","local_ref":"50003","name":"Rua Professor Vieira de Almeida","network":"Carris","operator":"Carris","public_transport":"platform","ref":"50003","route_ref":"747","shelter":"yes","short_name":"R. Prof. Vieira Almeida","tactile_paving":"no","id":"node/9259034765"},"geometry":{"type":"Point","coordinates":[-9.1669509,38.7642155]}},{"type":"Feature","id":"node/10187000271","properties":{"timestamp":"2022-11-15T22:44:13Z","version":"1","changeset":"128962263","user":"DiogoBaptista98","uid":"1193685","bus":"yes","name":"Rua Frederico George (Rua Daniel Santa Rita)","network":"Carris","operator":"Carris","public_transport":"stop_position","ref":"50034","short_name":"R. F. George (R. Daniel Santa Rita)","id":"node/10187000271"},"geometry":{"type":"Point","coordinates":[-9.1652743,38.7696884]}},{"type":"Feature","id":"node/10187000272","properties":{"timestamp":"2024-11-02T14:08:25Z","version":"2","changeset":"158660349","user":"Dilxe","uid":"16603393","bench":"no","bin":"no","bus":"yes","departures_board":"timetable","highway":"bus_stop","name":"Rua Frederico George (Rua Daniel Santa Rita)","network":"Carris","network:wikidata":"Q1045108","operator":"Carris","operator:wikidata":"Q1045108","public_transport":"platform","ref":"50034","route_ref":"43B;44B","shelter":"no","short_name":"R. F. George (R. Daniel Santa Rita)","id":"node/10187000272"},"geometry":{"type":"Point","coordinates":[-9.1651769,38.7697327]}},{"type":"Feature","id":"node/10187000273","properties":{"timestamp":"2022-11-15T22:44:13Z","version":"1","changeset":"128962263","user":"DiogoBaptista98","uid":"1193685","bench":"no","bin":"no","bus":"yes","departures_board":"timetable","highway":"bus_stop","name":"Rua Frederico George","network":"Carris","operator":"Carris","public_transport":"platform","ref":"50033","route_ref":"43B;44B","shelter":"no","short_name":"R. Frederico George","id":"node/10187000273"},"geometry":{"type":"Point","coordinates":[-9.1666029,38.7694875]}}]}