{"type":"FeatureCollection","features":[{"type":"Feature","id":"way/427932957","properties":{"timestamp":"2026-04-08T08:44:25Z","version":"5","changeset":"181036708","user":"Jimiiee","uid":"2644617","leisure":"pitch","lit":"yes","sport":"soccer","surface":"artificial_turf","id":"way/427932957"},"geometry":{"type":"Polygon","coordinates":[[[-9.1665212,38.7680612],[-9.1660929,38.7682468],[-9.1663626,38.7686244],[-9.166803,38.7684341],[-9.1667249,38.768327],[-9.1665212,38.7680612]]]}},{"type":"Feature","id":"way/427935120","properties":{"timestamp":"2026-04-08T08:44:25Z","version":"2","changeset":"181036708","user":"Jimiiee","uid":"2644617","leisure":"pitch","id":"way/427935120"},"geometry":{"type":"Polygon","coordinates":[[[-9.1685279,38.767156],[-9.1686203,38.7672813],[-9.1687256,38.7672341],[-9.1686332,38.7671089],[-9.1685279,38.767156]]]}},{"type":"Feature","id":"way/427935121","properties":{"timestamp":"2026-04-08T08:44:25Z","version":"2","changeset":"181036708","user":"Jimiiee","uid":"2644617","leisure":"pitch","id":"way/427935121"},"geometry":{"type":"Polygon","coordinates":[[[-9.1686203,38.7672813],[-9.1685279,38.767156],[-9.1684272,38.7672011],[-9.1685196,38.7673264],[-9.1686203,38.7672813]]]}},{"type":"Feature","id":"way/427935122","properties":{"timestamp":"2026-04-08T08:44:25Z","version":"2","changeset":"181036708","user":"Jimiiee","uid":"2644617","leisure":"pitch","id":"way/427935122"},"geometry":{"type":"Polygon","coordinates":[[[-9.1686332,38.7671089],[-9.1687256,38.7672341],[-9.1688375,38.767184],[-9.1687451,38.7670587],[-9.1686332,38.7671089]]]}},{"type":"Feature","id":"way/427935131","properties":{"timestamp":"2016-06-29T04:59:03Z","version":"1","changeset":"40357615","user":"Josef K","uid":"47097","landuse":"grass","id":"way/427935131"},"geometry":{"type":"Polygon","coordinates":[[[-9.1658746,38.7695738],[-9.1655847,38.7691768],[-9.1654676,38.769229],[-9.1657565,38.769626],[-9.1658746,38.7695738]]]}},{"type":"Feature","id":"way/526653551","properties":{"timestamp":"2017-09-22T04:53:39Z","version":"1","changeset":"52263224","user":"JPF_pt","uid":"350918","landuse":"grass","id":"way/526653551"},"geometry":{"type":"Polygon","coordinates":[[[-9.1723875,38.7636344],[-9.1724785,38.763775],[-9.1727627,38.7645368],[-9.1727715,38.7642167],[-9.172722,38.763869],[-9.1727344,38.7637062],[-9.1723875,38.7636344]]]}},{"type":"Feature","id":"way/527701058","properties":{"timestamp":"2026-04-09T12:17:25Z","version":"2","changeset":"181094495","user":"Jimiiee","uid":"2644617","landuse":"grass","id":"way/527701058"},"geometry":{"type":"Polygon","coordinates":[[[-9.1641679,38.7708771],[-9.1643329,38.7708601],[-9.1644839,38.7708301],[-9.1645809,38.7708013],[-9.1643961,38.7707364],[-9.164336,38.7707016],[-9.1642776,38.7706833],[-9.1642279,38.7706947],[-9.1641679,38.7708771]]]}},{"type":"Feature","id":"way/681914783","properties":{"timestamp":"2026-04-08T08:44:25Z","version":"2","changeset":"181036708","user":"Jimiiee","uid":"2644617","leisure":"dog_park","id":"way/681914783"},"geometry":{"type":"Polygon","coordinates":[[[-9.1696043,38.7677825],[-9.1692945,38.7673475],[-9.1690879,38.7674395],[-9.1691622,38.7675427],[-9.1693937,38.767864],[-9.1696043,38.7677825]]]}},{"type":"Feature","id":"way/681914785","properties":{"timestamp":"2019-04-05T17:18:11Z","version":"1","changeset":"68930237","user":"FR_Fox","uid":"9598915","leisure":"pitch","lit":"yes","sport":"tennis","id":"way/681914785"},"geometry":{"type":"Polygon","coordinates":[[[-9.1707641,38.7664474],[-9.1708538,38.7661652],[-9.1706614,38.766128],[-9.1705716,38.7664101],[-9.1707641,38.7664474]]]}},{"type":"Feature","id":"way/681914786","properties":{"timestamp":"2019-04-05T17:18:11Z","version":"1","changeset":"68930237","user":"FR_Fox","uid":"9598915","leisure":"pitch","lit":"yes","name":"Clube de Ténis Alto da Faia","sport":"tennis","id":"way/681914786"},"geometry":{"type":"Polygon","coordinates":[[[-9.1708585,38.7661219],[-9.1710059,38.7655682],[-9.170718,38.7655216],[-9.1705707,38.7660753],[-9.1708585,38.7661219]]]}},{"type":"Feature","id":"way/682160322","properties":{"timestamp":"2024-10-20T14:06:07Z","version":"2","changeset":"158129950","user":"DanielAgos","uid":"20972402","access":"yes","description":"Rua Frederico George(antiga Rua B- Alto da Faia e Rua A - Enc Telheiras), junto ao polidesportivo do alto da faia","leisure":"playground","max_age":"12","name":"Parque Infantil do Alto da Faia","operator":"Junta de Freguesia do Lumiar","source":"dadosabertos.cm-lisboa.pt","source:pkey":"256bf390-bc9e-4ad0-a079-cda0110a468c","id":"way/682160322"},"geometry":{"type":"Polygon","coordinates":[[[-9.1703131,38.7681199],[-9.1702441,38.7680239],[-9.1700836,38.7680941],[-9.1701389,38.7681709],[-9.1701526,38.76819],[-9.1703131,38.7681199]]]}},{"type":"Feature","id":"way/753742230","properties":{"timestamp":"2026-04-08T08:44:25Z","version":"5","changeset":"181036708","user":"Jimiiee","uid":"2644617","leisure":"pitch","lit":"yes","sport":"soccer","surface":"artificial_turf","id":"way/753742230"},"geometry":{"type":"Polygon","coordinates":[[[-9.166351,38.7686287],[-9.1661173,38.7683053],[-9.165851,38.7684129],[-9.1660816,38.7687452],[-9.1662193,38.7686877],[-9.166351,38.7686287]]]}},{"type":"Feature","id":"way/1494641930","properties":{"timestamp":"2026-04-08T08:44:25Z","version":"2","changeset":"181036708","user":"Jimiiee","uid":"2644617","landuse":"grass","id":"way/1494641930"},"geometry":{"type":"Polygon","coordinates":[[[-9.1704082,38.7680862],[-9.170107,38.7682475],[-9.1700985,38.768298],[-9.170043,38.7683429],[-9.1700692,38.7683909],[-9.1689539,38.7689218],[-9.1688599,38.7689975],[-9.1688757,38.769017],[-9.1689774,38.7691576],[-9.1695316,38.7688714],[-9.1699152,38.7686624],[-9.1704035,38.768284],[-9.1705035,38.7681726],[-9.1704082,38.7680862]]]}},{"type":"Feature","id":"way/1497611641","properties":{"timestamp":"2026-04-08T08:44:25Z","version":"1","changeset":"181036708","user":"Jimiiee","uid":"2644617","landuse":"grass","id":"way/1497611641"},"geometry":{"type":"Polygon","coordinates":[[[-9.1666706,38.7699146],[-9.1665852,38.7697934],[-9.1664871,38.7699363],[-9.1664346,38.769919],[-9.1662443,38.7700774],[-9.1661147,38.7701429],[-9.1659221,38.7702112],[-9.1656306,38.7703027],[-9.1651881,38.7704481],[-9.1646903,38.7706263],[-9.164618,38.7706217],[-9.1645631,38.7706026],[-9.1645012,38.7705616],[-9.1644603,38.7704979],[-9.1644265,38.7704506],[-9.1644265,38.7703759],[-9.1644872,38.7700847],[-9.1645491,38.7697688],[-9.1645292,38.7697788],[-9.1642992,38.770446],[-9.1642899,38.7705453],[-9.1643378,38.7706272],[-9.164395,38.7706727],[-9.1644872,38.7707109],[-9.1645561,38.7707182],[-9.1646273,38.7707246],[-9.1646985,38.7707209],[-9.1654095,38.7704551],[-9.1660703,38.7702831],[-9.1666389,38.7701548],[-9.1669506,38.7700291],[-9.1677492,38.7696614],[-9.1687899,38.769195],[-9.1687155,38.7690928],[-9.168595,38.7690803],[-9.1678038,38.7694592],[-9.1666706,38.7699146]]]}},{"type":"Feature","id":"way/1497611646","properties":{"timestamp":"2026-04-08T08:44:25Z","version":"1","changeset":"181036708","user":"Jimiiee","uid":"2644617","natural":"scrub","id":"way/1497611646"},"geometry":{"type":"Polygon","coordinates":[[[-9.1655276,38.7679419],[-9.1652787,38.7680969],[-9.1650463,38.7686025],[-9.1650717,38.7686504],[-9.1652628,38.7685558],[-9.1654194,38.7687596],[-9.1657162,38.7688516],[-9.1658356,38.7688649],[-9.1659618,38.7689984],[-9.1663167,38.768843],[-9.1662193,38.7686877],[-9.1660816,38.7687452],[-9.165851,38.7684129],[-9.1657637,38.7682871],[-9.1655276,38.7679419]]]}},{"type":"Feature","id":"way/1497611647","properties":{"timestamp":"2026-04-08T08:44:25Z","version":"1","changeset":"181036708","user":"Jimiiee","uid":"2644617","leaf_type":"mixed","natural":"wood","id":"way/1497611647"},"geometry":{"type":"Polygon","coordinates":[[[-9.1660547,38.767238],[-9.1660364,38.7671444],[-9.1656007,38.7672401],[-9.1655425,38.7672585],[-9.1652787,38.7680969],[-9.1655276,38.7679419],[-9.1656885,38.7674772],[-9.1657622,38.7673697],[-9.1660547,38.767238]]]}},{"type":"Feature","id":"way/1497611648","properties":{"timestamp":"2026-04-08T08:44:25Z","version":"1","changeset":"181036708","user":"Jimiiee","uid":"2644617","landuse":"grass","id":"way/1497611648"},"geometry":{"type":"Polygon","coordinates":[[[-9.166542,38.767048],[-9.1664831,38.766974],[-9.1662991,38.7670929],[-9.1662487,38.7671089],[-9.1660364,38.7671444],[-9.1660547,38.767238],[-9.1661808,38.7672139],[-9.166542,38.767048]]]}},{"type":"Feature","id":"way/1497611649","properties":{"timestamp":"2026-04-08T08:44:25Z","version":"1","changeset":"181036708","user":"Jimiiee","uid":"2644617","landuse":"grass","id":"way/1497611649"},"geometry":{"type":"Polygon","coordinates":[[[-9.1654194,38.7687596],[-9.1653224,38.7688024],[-9.1654481,38.7689632],[-9.1657162,38.7688516],[-9.1654194,38.7687596]]]}},{"type":"Feature","id":"way/1497611651","properties":{"timestamp":"2026-04-08T08:44:25Z","version":"1","changeset":"181036708","user":"Jimiiee","uid":"2644617","landuse":"grass","id":"way/1497611651"},"geometry":{"type":"Polygon","coordinates":[[[-9.166189,38.7699296],[-9.1656903,38.7701565],[-9.1657831,38.7701761],[-9.1658209,38.7701663],[-9.1661953,38.7699933],[-9.166211,38.7699602],[-9.166189,38.7699296]]]}},{"type":"Feature","id":"way/1497611652","properties":{"timestamp":"2026-04-08T08:44:25Z","version":"1","changeset":"181036708","user":"Jimiiee","uid":"2644617","landuse":"grass","id":"way/1497611652"},"geometry":{"type":"Polygon","coordinates":[[[-9.1662597,38.7698192],[-9.1662849,38.7698499],[-9.1663227,38.7698499],[-9.1663478,38.7698413],[-9.1664658,38.7696254],[-9.1665885,38.7694721],[-9.1665649,38.7694353],[-9.1663305,38.7695482],[-9.1663683,38.769607],[-9.1663164,38.7696377],[-9.1663463,38.7696782],[-9.1662708,38.7697137],[-9.1663258,38.7697922],[-9.1662597,38.7698192]]]}},{"type":"Feature","id":"way/1497611655","properties":{"timestamp":"2026-04-08T08:44:25Z","version":"1","changeset":"181036708","user":"Jimiiee","uid":"2644617","landuse":"grass","id":"way/1497611655"},"geometry":{"type":"Polygon","coordinates":[[[-9.1663167,38.768843],[-9.1665417,38.7687434],[-9.1665791,38.768778],[-9.1667599,38.7686983],[-9.1667238,38.7686689],[-9.166922,38.7685842],[-9.166803,38.7684341],[-9.1663626,38.7686244],[-9.166351,38.7686287],[-9.1662193,38.7686877],[-9.1663167,38.768843]]]}},{"type":"Feature","id":"way/1497611656","properties":{"timestamp":"2026-04-08T08:44:25Z","version":"1","changeset":"181036708","user":"Jimiiee","uid":"2644617","natural":"scrub","id":"way/1497611656"},"geometry":{"type":"Polygon","coordinates":[[[-9.1696243,38.7671924],[-9.1701671,38.7672746],[-9.1702032,38.7670408],[-9.1699051,38.7667041],[-9.1697675,38.7666713],[-9.1696243,38.7671924]]]}},{"type":"Feature","id":"way/1497611657","properties":{"timestamp":"2026-04-08T08:44:25Z","version":"1","changeset":"181036708","user":"Jimiiee","uid":"2644617","landuse":"grass","id":"way/1497611657"},"geometry":{"type":"Polygon","coordinates":[[[-9.1695221,38.7680819],[-9.1700352,38.7678452],[-9.1698328,38.7678255],[-9.1698798,38.7677452],[-9.1695709,38.767693],[-9.1696648,38.7674085],[-9.170234,38.7675015],[-9.1701472,38.7678086],[-9.1702032,38.7678283],[-9.1702466,38.7677733],[-9.1703153,38.7674775],[-9.1702755,38.7674451],[-9.1694155,38.7673028],[-9.1693179,38.7673225],[-9.1690631,38.7674028],[-9.1690487,38.7674338],[-9.1691047,38.7675634],[-9.1691622,38.7675427],[-9.1695221,38.7680819]]]}},{"type":"Feature","id":"way/1497922973","properties":{"timestamp":"2026-04-09T12:17:25Z","version":"1","changeset":"181094495","user":"Jimiiee","uid":"2644617","landuse":"grass","id":"way/1497922973"},"geometry":{"type":"Polygon","coordinates":[[[-9.1641466,38.7707978],[-9.1641605,38.7708017],[-9.1642221,38.7706079],[-9.1642112,38.7705962],[-9.1641466,38.7707978]]]}}]}