{"type":"FeatureCollection","features":[{"type":"Feature","id":"way/23551185","properties":{"timestamp":"2026-04-25T09:45:21Z","version":"31","changeset":"181798434","user":"DanielAgos","uid":"20972402","description":"Toponímia: Filósofo e Escritor 1888 - 1962. Início: Avenida Padre Cruz. Fim: Rua Prof. Francisco Gentil.","highway":"tertiary","lanes":"4","name":"Rua Professor Vieira de Almeida","name:etymology:wikidata":"Q10390531","source":"bing","source:description":"dadosabertos.cm-lisboa.pt","source:pkey":"2666","start_date":"1978-03-06","surface":"asphalt","website":"https://revelar.lisboa.pt/explorar/toponimia/detalhe?tx_toponimia_pi1%5Baction%5D=show&tx_toponimia_pi1%5Bcontroller%5D=Toponimia&tx_toponimia_pi1%5Btopid%5D=2666","id":"way/23551185"},"geometry":{"type":"LineString","coordinates":[[-9.1669533,38.7637959],[-9.1669554,38.7638501],[-9.1669527,38.763951],[-9.1669386,38.7640275],[-9.16691,38.7641086],[-9.1668814,38.7641662],[-9.1668685,38.764189],[-9.1666793,38.7645237],[-9.1666424,38.7646062],[-9.1666324,38.7646889],[-9.1666348,38.7647688],[-9.1667124,38.7649221],[-9.1668338,38.7650748],[-9.1672535,38.7656028],[-9.1673,38.7656884],[-9.1673219,38.7657832]]}},{"type":"Feature","id":"way/23780084","properties":{"timestamp":"2025-10-31T19:26:51Z","version":"20","changeset":"174035624","user":"Urafkard","uid":"21545886","description":"Toponímia: Historiador de Arte - 1905 - 1966. Início: Rua Prof. Francisco Gentil. Fim: Rua Prof. Pulido Valente.","highway":"residential","name":"Rua Professor Mário Chicó","sidewalk":"both","source:description":"dadosabertos.cm-lisboa.pt","source:pkey":"308","start_date":"1978-03-06","surface":"asphalt","website":"https://revelar.lisboa.pt/explorar/toponimia/detalhe?tx_toponimia_pi1%5Baction%5D=show&tx_toponimia_pi1%5Bcontroller%5D=Toponimia&tx_toponimia_pi1%5Btopid%5D=308","id":"way/23780084"},"geometry":{"type":"LineString","coordinates":[[-9.1680875,38.7605629],[-9.1680891,38.760647],[-9.168107,38.7612293],[-9.1681124,38.761317],[-9.1681667,38.7614431],[-9.1685752,38.761829],[-9.1686892,38.76193],[-9.168715,38.7621646],[-9.1687413,38.7626927],[-9.1687573,38.763059],[-9.1687627,38.7631831],[-9.1687687,38.7632908]]}},{"type":"Feature","id":"way/23780093","properties":{"timestamp":"2026-04-11T00:19:47Z","version":"14","changeset":"181170744","user":"aselvadeasfalto","uid":"11912760","description":"Toponímia: Filólogo 1920 - 1984. Início: Rua Prof. João Barreira. Fim: Rua Armindo Rodrigues.","highway":"residential","lanes":"2","name":"Rua Professor Prado Coelho","name:etymology:wikidata":"Q5340732","source:description":"dadosabertos.cm-lisboa.pt","source:pkey":"76","start_date":"1984-10-29","surface":"asphalt","website":"https://revelar.lisboa.pt/explorar/toponimia/detalhe?tx_toponimia_pi1%5Baction%5D=show&tx_toponimia_pi1%5Bcontroller%5D=Toponimia&tx_toponimia_pi1%5Btopid%5D=76","id":"way/23780093"},"geometry":{"type":"LineString","coordinates":[[-9.1718458,38.7647454],[-9.171918,38.7646493],[-9.1719456,38.7646189],[-9.1719904,38.7645805],[-9.1722101,38.7643912],[-9.1723501,38.7642017],[-9.1723383,38.7640147],[-9.1721977,38.7638319],[-9.1710984,38.763015],[-9.1710249,38.7629614],[-9.1709884,38.7629348],[-9.1709593,38.762914]]}},{"type":"Feature","id":"way/23780094","properties":{"timestamp":"2024-01-30T23:03:44Z","version":"14","changeset":"146882542","user":"RazorWind","uid":"11152051","description":"Toponímia: Historiador 1860 - 1952. Início: Rua Prof. Bento de Jesus Caraça. Fim: Rua Prof. Prado Coelho.","highway":"residential","name":"Rua Professor Queiroz Veloso","oneway":"yes","source:description":"dadosabertos.cm-lisboa.pt","source:pkey":"1595","start_date":"1978-03-06","website":"https://revelar.lisboa.pt/explorar/toponimia/detalhe?tx_toponimia_pi1%5Baction%5D=show&tx_toponimia_pi1%5Bcontroller%5D=Toponimia&tx_toponimia_pi1%5Btopid%5D=1595","id":"way/23780094"},"geometry":{"type":"LineString","coordinates":[[-9.1674605,38.7647269],[-9.1679622,38.7639188],[-9.1680012,38.7638698],[-9.1680273,38.7638484],[-9.1680624,38.7638253],[-9.1680996,38.7638134],[-9.1681456,38.7638073],[-9.1684989,38.7638242],[-9.1687613,38.7638397],[-9.1690922,38.7638583],[-9.1695721,38.7638888],[-9.1699387,38.7639092],[-9.1702327,38.7639227],[-9.1705766,38.7639384],[-9.1706934,38.7639437]]}},{"type":"Feature","id":"way/23780095","properties":{"timestamp":"2023-06-27T18:44:15Z","version":"9","changeset":"137848258","user":"hvalentim","uid":"705092","description":"Toponímia: Historiador 1860 - 1952. Início: Rua Prof. Bento de Jesus Caraça. Fim: Rua Prof. Prado Coelho.","highway":"residential","name":"Rua Professor Queiroz Veloso","source:description":"dadosabertos.cm-lisboa.pt","source:pkey":"1595","start_date":"1978-03-06","website":"https://revelar.lisboa.pt/explorar/toponimia/detalhe?tx_toponimia_pi1%5Baction%5D=show&tx_toponimia_pi1%5Bcontroller%5D=Toponimia&tx_toponimia_pi1%5Btopid%5D=1595","id":"way/23780095"},"geometry":{"type":"LineString","coordinates":[[-9.1681192,38.7654334],[-9.168017,38.765383],[-9.1677054,38.7650038],[-9.1674605,38.7647269]]}},{"type":"Feature","id":"way/23780096","properties":{"timestamp":"2023-06-27T18:44:15Z","version":"20","changeset":"137848258","user":"hvalentim","uid":"705092","description":"Toponímia: Matemático 1901 - 1948. Início: Rua Abel Salazar. Fim: Rua Prof. Prado Coelho.","highway":"residential","name":"Rua Professor Bento de Jesus Caraça","oneway":"yes","source":"bing","source:description":"dadosabertos.cm-lisboa.pt","source:pkey":"61","start_date":"1978-03-06","surface":"asphalt","website":"https://revelar.lisboa.pt/explorar/toponimia/detalhe?tx_toponimia_pi1%5Baction%5D=show&tx_toponimia_pi1%5Bcontroller%5D=Toponimia&tx_toponimia_pi1%5Btopid%5D=61","id":"way/23780096"},"geometry":{"type":"LineString","coordinates":[[-9.1672896,38.7659401],[-9.1674459,38.7659413],[-9.1676552,38.7659169]]}},{"type":"Feature","id":"way/23905785","properties":{"timestamp":"2023-06-27T18:44:15Z","version":"9","changeset":"137848258","user":"hvalentim","uid":"705092","description":"Toponímia: Historiador da Literatura Portuguesa 1887 - 1975. Início: Rua Prof. Fernando da Fonseca. Fim: Rua Prof. Vieira de Almeida.","highway":"residential","name":"Rua Professor Hernâni Cidade","oneway":"yes","source:description":"dadosabertos.cm-lisboa.pt","source:pkey":"1489","start_date":"1978-03-06","surface":"asphalt","website":"https://revelar.lisboa.pt/explorar/toponimia/detalhe?tx_toponimia_pi1%5Baction%5D=show&tx_toponimia_pi1%5Bcontroller%5D=Toponimia&tx_toponimia_pi1%5Btopid%5D=1489","id":"way/23905785"},"geometry":{"type":"LineString","coordinates":[[-9.1662819,38.7648654],[-9.1665217,38.7648646],[-9.1666045,38.7648714],[-9.1667124,38.7649221]]}},{"type":"Feature","id":"way/23905873","properties":{"timestamp":"2025-08-14T16:06:39Z","version":"18","changeset":"170444734","user":"aselvadeasfalto","uid":"11912760","description":"Toponímia: Filósofo e Escritor 1888 - 1962. Início: Avenida Padre Cruz. Fim: Rua Prof. Francisco Gentil.","destination:backward":"Telheiras","highway":"tertiary","lanes":"5","lanes:backward":"2","lanes:forward":"3","name":"Rua Professor Vieira de Almeida","name:etymology:wikidata":"Q10390531","smoothness":"good","source:description":"dadosabertos.cm-lisboa.pt","source:pkey":"2666","start_date":"1978-03-06","surface":"asphalt","website":"https://revelar.lisboa.pt/explorar/toponimia/detalhe?tx_toponimia_pi1%5Baction%5D=show&tx_toponimia_pi1%5Bcontroller%5D=Toponimia&tx_toponimia_pi1%5Btopid%5D=2666","id":"way/23905873"},"geometry":{"type":"LineString","coordinates":[[-9.1658126,38.7670474],[-9.1654611,38.7670408],[-9.1653468,38.7670371]]}},{"type":"Feature","id":"way/23905881","properties":{"timestamp":"2017-09-30T04:01:18Z","version":"12","changeset":"52499117","user":"JPF_pt","uid":"350918","destination":"Telheiras","highway":"trunk_link","lanes":"1","oneway":"yes","id":"way/23905881"},"geometry":{"type":"LineString","coordinates":[[-9.165303,38.767354],[-9.1654743,38.7672261],[-9.1658126,38.7670474]]}},{"type":"Feature","id":"way/23905912","properties":{"timestamp":"2017-09-30T04:01:18Z","version":"11","changeset":"52499117","user":"JPF_pt","uid":"350918","destination":"Centro;Segunda Circular","highway":"trunk_link","lanes":"1","oneway":"yes","id":"way/23905912"},"geometry":{"type":"LineString","coordinates":[[-9.1658126,38.7670474],[-9.1655615,38.7668737],[-9.1653552,38.7666965]]}},{"type":"Feature","id":"way/23920515","properties":{"timestamp":"2024-01-30T23:03:44Z","version":"10","changeset":"146882542","user":"RazorWind","uid":"11152051","description":"Toponímia: Historiador 1941 - 1998. Início: Rua Prof. Damião Peres. Fim: Sem saída.","highway":"residential","name":"Rua Professor César Oliveira","source:description":"dadosabertos.cm-lisboa.pt","source:pkey":"2719","start_date":"1999-04-08","surface":"asphalt","website":"https://revelar.lisboa.pt/explorar/toponimia/detalhe?tx_toponimia_pi1%5Baction%5D=show&tx_toponimia_pi1%5Bcontroller%5D=Toponimia&tx_toponimia_pi1%5Btopid%5D=2719","id":"way/23920515"},"geometry":{"type":"LineString","coordinates":[[-9.1669299,38.7645024],[-9.1668737,38.7645668],[-9.1668391,38.7646569],[-9.1668316,38.7647343],[-9.1668483,38.7648251],[-9.1668776,38.7649081],[-9.1669315,38.7649934],[-9.1671577,38.7652772],[-9.1675061,38.7657142],[-9.167578,38.7657874],[-9.1676424,38.765821],[-9.1678203,38.7658189]]}},{"type":"Feature","id":"way/23920516","properties":{"timestamp":"2024-01-30T23:03:44Z","version":"16","changeset":"146882542","user":"RazorWind","uid":"11152051","description":"Toponímia: Historiador 1889 - 1976. Início: Rua Prof. Queiroz Veloso. Fim: Rua Prof. Queiroz Veloso.","highway":"residential","name":"Rua Professor Damião Peres","oneway":"yes","source:description":"dadosabertos.cm-lisboa.pt","source:pkey":"1487","start_date":"1978-03-06","surface":"asphalt","website":"https://revelar.lisboa.pt/explorar/toponimia/detalhe?tx_toponimia_pi1%5Baction%5D=show&tx_toponimia_pi1%5Bcontroller%5D=Toponimia&tx_toponimia_pi1%5Btopid%5D=1487","id":"way/23920516"},"geometry":{"type":"LineString","coordinates":[[-9.1706934,38.7639437],[-9.1706902,38.7638968],[-9.1706871,38.763852],[-9.1706736,38.7635423],[-9.1706394,38.763475],[-9.1705684,38.7634336],[-9.1702662,38.7634356],[-9.1699177,38.763438],[-9.1695967,38.7634412],[-9.1692302,38.7634476],[-9.1689259,38.763446],[-9.1687997,38.7634263],[-9.168531,38.7634312],[-9.1681785,38.7634416],[-9.1678749,38.7634506],[-9.1678275,38.7634536],[-9.16778,38.7634583],[-9.1677321,38.7634652],[-9.167686,38.7634745],[-9.1676395,38.7634868],[-9.1675892,38.7635051],[-9.1675401,38.7635273],[-9.1674981,38.7635544],[-9.1674578,38.7635869],[-9.1674151,38.7636229],[-9.1673785,38.7636584],[-9.1673444,38.763699],[-9.1673157,38.7637394],[-9.1672914,38.7637805],[-9.1671834,38.7640021],[-9.1669299,38.7645024]]}},{"type":"Feature","id":"way/23920518","properties":{"timestamp":"2023-06-27T18:44:15Z","version":"11","changeset":"137848258","user":"hvalentim","uid":"705092","description":"Toponímia: Historiador 1860 - 1952. Início: Rua Prof. Bento de Jesus Caraça. Fim: Rua Prof. Prado Coelho.","highway":"residential","lit":"yes","name":"Rua Professor Queiroz Veloso","source:description":"dadosabertos.cm-lisboa.pt","source:pkey":"1595","start_date":"1978-03-06","surface":"asphalt","website":"https://revelar.lisboa.pt/explorar/toponimia/detalhe?tx_toponimia_pi1%5Baction%5D=show&tx_toponimia_pi1%5Bcontroller%5D=Toponimia&tx_toponimia_pi1%5Btopid%5D=1595","id":"way/23920518"},"geometry":{"type":"LineString","coordinates":[[-9.1706934,38.7639437],[-9.1708857,38.7640006]]}},{"type":"Feature","id":"way/23920521","properties":{"timestamp":"2024-01-30T23:03:44Z","version":"9","changeset":"146882542","user":"RazorWind","uid":"11152051","description":"Toponímia: Historiador 1889 - 1976. Início: Rua Prof. Queiroz Veloso. Fim: Rua Prof. Queiroz Veloso.","highway":"residential","name":"Rua Professor Damião Peres","source:description":"dadosabertos.cm-lisboa.pt","source:pkey":"1487","start_date":"1978-03-06","website":"https://revelar.lisboa.pt/explorar/toponimia/detalhe?tx_toponimia_pi1%5Baction%5D=show&tx_toponimia_pi1%5Bcontroller%5D=Toponimia&tx_toponimia_pi1%5Btopid%5D=1487","id":"way/23920521"},"geometry":{"type":"LineString","coordinates":[[-9.1669299,38.7645024],[-9.1673135,38.7646483],[-9.1673566,38.764666],[-9.1673971,38.7646852],[-9.1674263,38.7647017],[-9.1674605,38.7647269]]}},{"type":"Feature","id":"way/23920524","properties":{"timestamp":"2024-11-27T14:26:03Z","version":"14","changeset":"159662668","user":"adaptive","uid":"102819","description":"Toponímia: Jurisconsulto 1889-1977. Início: Confluência das Ruas: Avenida das Nações Unidas; Rua Prof. João Barreira; Rua Prof. Pulido Valente. Fim: Rua Prof. Queiroz Veloso.","highway":"residential","lanes":"1","lit":"yes","name":"Rua Professor Paulo Merêa","oneway":"yes","source:description":"dadosabertos.cm-lisboa.pt","source:pkey":"3525","start_date":"2005-09-08","surface":"asphalt","website":"https://revelar.lisboa.pt/explorar/toponimia/detalhe?tx_toponimia_pi1%5Baction%5D=show&tx_toponimia_pi1%5Bcontroller%5D=Toponimia&tx_toponimia_pi1%5Btopid%5D=3525","id":"way/23920524"},"geometry":{"type":"LineString","coordinates":[[-9.1707922,38.7632498],[-9.1708705,38.7633793],[-9.1708831,38.7635713]]}},{"type":"Feature","id":"way/23920530","properties":{"timestamp":"2026-04-11T00:19:47Z","version":"21","changeset":"181170744","user":"aselvadeasfalto","uid":"11912760","description":"Toponímia: Filólogo 1920 - 1984. Início: Rua Prof. João Barreira. Fim: Rua Armindo Rodrigues.","highway":"residential","name":"Rua Professor Prado Coelho","name:etymology:wikidata":"Q5340732","source:description":"dadosabertos.cm-lisboa.pt","source:pkey":"76","start_date":"1984-10-29","surface":"asphalt","website":"https://revelar.lisboa.pt/explorar/toponimia/detalhe?tx_toponimia_pi1%5Baction%5D=show&tx_toponimia_pi1%5Bcontroller%5D=Toponimia&tx_toponimia_pi1%5Btopid%5D=76","id":"way/23920530"},"geometry":{"type":"LineString","coordinates":[[-9.1718458,38.7647454],[-9.1717056,38.765215],[-9.1716966,38.7652451],[-9.1716309,38.7654651],[-9.1716219,38.7654786],[-9.1714859,38.7657097],[-9.1713565,38.7661953],[-9.1712463,38.7666052],[-9.1712173,38.7667194],[-9.1711813,38.7667737],[-9.1711374,38.7668069],[-9.1709676,38.7669003],[-9.1709372,38.766917],[-9.1706583,38.7670723],[-9.1705886,38.7671139],[-9.1705276,38.7671562],[-9.170482,38.7672074],[-9.170461,38.7672491],[-9.1704087,38.7674079]]}},{"type":"Feature","id":"way/23920532","properties":{"timestamp":"2023-06-27T18:44:15Z","version":"10","changeset":"137848258","user":"hvalentim","uid":"705092","description":"Toponímia: Jurista 1929 - 1983. Início: Rua Prof. Prado Coelho. Fim: Terras.","highway":"residential","name":"Rua Professor João de Castro Mendes","source:description":"dadosabertos.cm-lisboa.pt","source:pkey":"2843","start_date":"1990-07-30","website":"https://revelar.lisboa.pt/explorar/toponimia/detalhe?tx_toponimia_pi1%5Baction%5D=show&tx_toponimia_pi1%5Bcontroller%5D=Toponimia&tx_toponimia_pi1%5Btopid%5D=2843","id":"way/23920532"},"geometry":{"type":"LineString","coordinates":[[-9.1718458,38.7647454],[-9.1720318,38.7647912],[-9.1724638,38.7648692],[-9.1726097,38.7649562],[-9.1724552,38.7656857],[-9.1724372,38.7657291],[-9.1722257,38.7662393],[-9.1721693,38.7663238],[-9.1719651,38.7666296],[-9.1718316,38.7667119],[-9.1716914,38.7667089],[-9.1714862,38.7666611],[-9.1712463,38.7666052]]}},{"type":"Feature","id":"way/23920542","properties":{"timestamp":"2023-06-27T18:44:15Z","version":"10","changeset":"137848258","user":"hvalentim","uid":"705092","description":"Toponímia: Médico e Poeta 1904 - 1993. Início: Rua Frederico George. Fim: Rua Frederico George.","highway":"residential","name":"Rua Armindo Rodrigues","source:description":"dadosabertos.cm-lisboa.pt","source:pkey":"362","start_date":"1996-10-22","website":"https://revelar.lisboa.pt/explorar/toponimia/detalhe?tx_toponimia_pi1%5Baction%5D=show&tx_toponimia_pi1%5Bcontroller%5D=Toponimia&tx_toponimia_pi1%5Btopid%5D=362","id":"way/23920542"},"geometry":{"type":"LineString","coordinates":[[-9.1704087,38.7674079],[-9.1693337,38.7672463],[-9.1689423,38.767421]]}},{"type":"Feature","id":"way/23920548","properties":{"timestamp":"2026-04-11T00:17:50Z","version":"21","changeset":"181170744","user":"aselvadeasfalto","uid":"11912760","description":"Toponímia: Arquitecto e Pintor 1915 - 1994. Início: Confluência da Prof. Prado Coelho e a Rua Armindo Rodrigues. Fim: Rua Daniel Santa Rita.","highway":"residential","name":"Rua Frederico George","name:etymology:wikidata":"Q10285779","oneway":"no","source:description":"dadosabertos.cm-lisboa.pt","source:pkey":"2757","start_date":"1996-10-22","website":"https://revelar.lisboa.pt/explorar/toponimia/detalhe?tx_toponimia_pi1%5Baction%5D=show&tx_toponimia_pi1%5Bcontroller%5D=Toponimia&tx_toponimia_pi1%5Btopid%5D=2757","id":"way/23920548"},"geometry":{"type":"LineString","coordinates":[[-9.1702894,38.7678189],[-9.1701823,38.7679014],[-9.170083,38.7679504],[-9.1698978,38.7680328],[-9.1698661,38.7680469],[-9.1695087,38.768206]]}},{"type":"Feature","id":"way/23920550","properties":{"timestamp":"2026-04-08T08:44:25Z","version":"12","changeset":"181036708","user":"Jimiiee","uid":"2644617","description":"Toponímia: Arquitecto 1929 - 2001. Início: Rua Frederico George. Fim: Rua Frederico George.","highway":"residential","name":"Rua Daniel Santa Rita","source:description":"dadosabertos.cm-lisboa.pt","source:pkey":"3034","start_date":"2005-03-10","surface":"asphalt","website":"https://revelar.lisboa.pt/explorar/toponimia/detalhe?tx_toponimia_pi1%5Baction%5D=show&tx_toponimia_pi1%5Bcontroller%5D=Toponimia&tx_toponimia_pi1%5Btopid%5D=3034","id":"way/23920550"},"geometry":{"type":"LineString","coordinates":[[-9.1656127,38.7701715],[-9.1655338,38.7701995],[-9.1647467,38.7705492],[-9.1646905,38.7705629],[-9.1646408,38.7705613],[-9.1645969,38.7705483],[-9.1645637,38.7705284],[-9.1645482,38.7705115],[-9.1645315,38.7704933],[-9.1645014,38.7704489],[-9.1644859,38.7703966],[-9.1644915,38.7703476],[-9.1645226,38.7701938],[-9.1645361,38.7701272],[-9.1646761,38.7697553],[-9.1647855,38.7694647],[-9.164866,38.7694022]]}},{"type":"Feature","id":"way/23920551","properties":{"timestamp":"2017-09-19T01:13:08Z","version":"6","changeset":"52159830","user":"JPF_pt","uid":"350918","highway":"trunk_link","lanes":"1","maxspeed":"30","oneway":"yes","surface":"asphalt","id":"way/23920551"},"geometry":{"type":"LineString","coordinates":[[-9.1645361,38.7701272],[-9.1645597,38.7697676],[-9.1645666,38.7694535]]}},{"type":"Feature","id":"way/23920553","properties":{"timestamp":"2023-07-01T11:15:52Z","version":"7","changeset":"137987717","user":"tomasrm22","uid":"19736714","description":"Toponímia: Escritor - 1917 - 1996. Início: Rua Armindo Rodrigues. Fim: Rua Federico George.","highway":"residential","name":"Rua Alexandre Cabral","source:description":"dadosabertos.cm-lisboa.pt","source:pkey":"2457","start_date":"1998-02-11","surface":"asphalt","website":"https://revelar.lisboa.pt/explorar/toponimia/detalhe?tx_toponimia_pi1%5Baction%5D=show&tx_toponimia_pi1%5Bcontroller%5D=Toponimia&tx_toponimia_pi1%5Btopid%5D=2457","id":"way/23920553"},"geometry":{"type":"LineString","coordinates":[[-9.1689423,38.767421],[-9.1690298,38.7675303],[-9.1693982,38.7680502],[-9.1695087,38.768206]]}},{"type":"Feature","id":"way/24782291","properties":{"timestamp":"2019-10-02T20:20:27Z","version":"12","changeset":"75201628","user":"luisforte","uid":"3305165","bicycle":"no","destination":"Lisboa;Odivelas;Lumiar","foot":"no","highway":"trunk_link","horse":"no","lanes":"1","maxspeed":"50","oneway":"yes","surface":"asphalt","id":"way/24782291"},"geometry":{"type":"LineString","coordinates":[[-9.1675865,38.7698849],[-9.1669531,38.7701099],[-9.1661409,38.7703156]]}},{"type":"Feature","id":"way/24782302","properties":{"timestamp":"2023-06-27T18:44:15Z","version":"15","changeset":"137848258","user":"hvalentim","uid":"705092","description":"Toponímia: Historiador de Arte - 1866 - 1961. Início: Rua Fernando Namora. Fim: Rua Professor Pulido Valente e Avenida das Nações Unidas.","highway":"residential","lanes":"2","name":"Rua Professor João Barreira","oneway":"yes","source:description":"dadosabertos.cm-lisboa.pt","source:pkey":"3023","start_date":"1978-03-06","surface":"asphalt","website":"https://revelar.lisboa.pt/explorar/toponimia/detalhe?tx_toponimia_pi1%5Baction%5D=show&tx_toponimia_pi1%5Bcontroller%5D=Toponimia&tx_toponimia_pi1%5Btopid%5D=3023","id":"way/24782302"},"geometry":{"type":"LineString","coordinates":[[-9.1707922,38.7632498],[-9.1708126,38.7631837],[-9.1708176,38.763129]]}},{"type":"Feature","id":"way/29104265","properties":{"timestamp":"2024-12-09T09:39:14Z","version":"4","changeset":"160084481","user":"DanielAgos","uid":"20972402","highway":"residential","junction":"roundabout","surface":"asphalt","id":"way/29104265"},"geometry":{"type":"LineString","coordinates":[[-9.1650142,38.7693786],[-9.1650254,38.769353],[-9.1650247,38.7693259],[-9.1650121,38.7693008],[-9.1649891,38.7692805],[-9.1649587,38.7692676],[-9.1649244,38.7692636],[-9.1648904,38.7692691],[-9.1648609,38.7692834],[-9.1648395,38.7693046],[-9.1648288,38.7693303],[-9.16483,38.7693573],[-9.1648431,38.7693824],[-9.164866,38.7694022]]}},{"type":"Feature","id":"way/34027895","properties":{"timestamp":"2021-12-24T00:25:43Z","version":"8","changeset":"115316571","user":"rui228","uid":"12612838","bicycle":"no","destination":"Loures;Odivelas;Lumiar","destination:ref":"Eixo N-S;A 8","foot":"no","highway":"trunk_link","horse":"no","lanes":"1","oneway":"yes","id":"way/34027895"},"geometry":{"type":"LineString","coordinates":[[-9.1722184,38.7635215],[-9.1723331,38.7636338],[-9.1724365,38.7637634],[-9.1727401,38.7645501],[-9.1727525,38.7647313],[-9.1727455,38.7650315],[-9.1727648,38.7653555]]}},{"type":"Feature","id":"way/34922160","properties":{"timestamp":"2022-11-25T20:03:20Z","version":"8","changeset":"129381352","user":"AntMadeira","uid":"2107121","bicycle":"no","destination":"Lisboa;Campo Grande","destination:symbol":"centre","foot":"no","highway":"trunk_link","horse":"no","lanes":"1","oneway":"yes","surface":"asphalt","turn:lanes":"right","id":"way/34922160"},"geometry":{"type":"LineString","coordinates":[[-9.1647943,38.7707477],[-9.1646134,38.7707646],[-9.1644379,38.7707267],[-9.1643164,38.7706575],[-9.1642447,38.7705782],[-9.1642049,38.7704678]]}},{"type":"Feature","id":"way/35012815","properties":{"timestamp":"2025-10-10T21:00:12Z","version":"15","changeset":"173113149","user":"rui228","uid":"12612838","bridge":"yes","description":"Toponímia: Pintor e Professor de Medicina - 1889 - 1946. Início: Rua Prof. Bento de Jesus Caraça. Fim: Rua Fernando Lopes Graça.","highway":"residential","lanes":"2","layer":"1","lit":"yes","maxspeed:type":"PT:urban","maxweight:signed":"no","name":"Rua Abel Salazar","oneway":"no","sidewalk":"both","sidewalk:both:surface":"concrete","smoothness":"excellent","source:description":"dadosabertos.cm-lisboa.pt","source:pkey":"684","start_date":"1997-08-05","surface":"asphalt","website":"https://revelar.lisboa.pt/explorar/toponimia/detalhe?tx_toponimia_pi1%5Baction%5D=show&tx_toponimia_pi1%5Bcontroller%5D=Toponimia&tx_toponimia_pi1%5Btopid%5D=684","id":"way/35012815"},"geometry":{"type":"LineString","coordinates":[[-9.1691473,38.7695396],[-9.1687956,38.7690549]]}},{"type":"Feature","id":"way/35012816","properties":{"timestamp":"2026-04-08T08:44:25Z","version":"20","changeset":"181036708","user":"Jimiiee","uid":"2644617","description":"Toponímia: Pintor e Professor de Medicina - 1889 - 1946. Início: Rua Prof. Bento de Jesus Caraça. Fim: Rua Fernando Lopes Graça.","highway":"residential","lanes":"2","lit":"yes","maxspeed:type":"PT:urban","name":"Rua Abel Salazar","sidewalk":"both","sidewalk:both:surface":"sett","smoothness":"good","source:description":"dadosabertos.cm-lisboa.pt","source:pkey":"684","start_date":"1997-08-05","surface":"asphalt","website":"https://revelar.lisboa.pt/explorar/toponimia/detalhe?tx_toponimia_pi1%5Baction%5D=show&tx_toponimia_pi1%5Bcontroller%5D=Toponimia&tx_toponimia_pi1%5Btopid%5D=684","id":"way/35012816"},"geometry":{"type":"LineString","coordinates":[[-9.1687956,38.7690549],[-9.1685692,38.7687547],[-9.1684955,38.768657]]}},{"type":"Feature","id":"way/37011280","properties":{"timestamp":"2025-08-14T16:40:22Z","version":"14","changeset":"170446121","user":"aselvadeasfalto","uid":"11912760","description":"Toponímia: Instituições. Início: Rua Prof. Pulido Valente. Fim: Praça São Francisco de Assis.","highway":"secondary","lanes":"2","name":"Avenida das Nações Unidas","name:etymology:wikidata":"Q1065","oneway":"yes","source:description":"dadosabertos.cm-lisboa.pt","source:pkey":"606","start_date":"1989-11-24","surface":"asphalt","website":"https://revelar.lisboa.pt/explorar/toponimia/detalhe?tx_toponimia_pi1%5Baction%5D=show&tx_toponimia_pi1%5Bcontroller%5D=Toponimia&tx_toponimia_pi1%5Btopid%5D=606","id":"way/37011280"},"geometry":{"type":"LineString","coordinates":[[-9.1707922,38.7632498],[-9.1709038,38.7632976],[-9.1711508,38.7633419],[-9.1713914,38.7633851]]}},{"type":"Feature","id":"way/37278936","properties":{"timestamp":"2024-11-04T19:49:13Z","version":"8","changeset":"158754896","user":"powerslave00","uid":"3445540","bicycle":"no","foot":"no","highway":"trunk","horse":"no","lanes":"3","maxspeed":"80","name":"Eixo Norte-Sul","oneway":"yes","ref":"IP 7","surface":"asphalt","id":"way/37278936"},"geometry":{"type":"LineString","coordinates":[[-9.172886,38.7637312],[-9.1729027,38.7641603],[-9.1728941,38.7645748]]}},{"type":"Feature","id":"way/37278937","properties":{"timestamp":"2024-11-04T19:49:13Z","version":"7","changeset":"158754896","user":"powerslave00","uid":"3445540","bicycle":"no","bridge":"yes","foot":"no","highway":"trunk","horse":"no","lanes":"3","layer":"1","maxspeed":"80","name":"Eixo Norte-Sul","oneway":"yes","ref":"IP 7","surface":"asphalt","id":"way/37278937"},"geometry":{"type":"LineString","coordinates":[[-9.1728579,38.7634757],[-9.172886,38.7637312]]}},{"type":"Feature","id":"way/40193959","properties":{"timestamp":"2023-06-27T18:44:19Z","version":"13","changeset":"137848258","user":"hvalentim","uid":"705092","description":"Toponímia: Médico 1884 - 1963. Início: Rua Prof. Vieira de Almeida. Fim: Avenida das Nações Unidas.","highway":"secondary_link","lanes":"1","oneway":"yes","source":"bing","source:description":"dadosabertos.cm-lisboa.pt","source:pkey":"2069","start_date":"1978-03-06","surface":"asphalt","website":"https://revelar.lisboa.pt/explorar/toponimia/detalhe?tx_toponimia_pi1%5Baction%5D=show&tx_toponimia_pi1%5Bcontroller%5D=Toponimia&tx_toponimia_pi1%5Btopid%5D=2069","id":"way/40193959"},"geometry":{"type":"LineString","coordinates":[[-9.1675332,38.7633299],[-9.1672955,38.7632741],[-9.1671432,38.7632176],[-9.1670703,38.7631611],[-9.1670464,38.7631426],[-9.1669918,38.7630775],[-9.1669123,38.7629472]]}},{"type":"Feature","id":"way/40193960","properties":{"timestamp":"2023-06-27T18:44:19Z","version":"12","changeset":"137848258","user":"hvalentim","uid":"705092","description":"Toponímia: Médico 1884 - 1963. Início: Rua Prof. Vieira de Almeida. Fim: Avenida das Nações Unidas.","highway":"secondary_link","lanes":"1","oneway":"yes","source":"bing","source:description":"dadosabertos.cm-lisboa.pt","source:pkey":"2069","start_date":"1978-03-06","surface":"asphalt","website":"https://revelar.lisboa.pt/explorar/toponimia/detalhe?tx_toponimia_pi1%5Baction%5D=show&tx_toponimia_pi1%5Bcontroller%5D=Toponimia&tx_toponimia_pi1%5Btopid%5D=2069","id":"way/40193960"},"geometry":{"type":"LineString","coordinates":[[-9.1669533,38.7637959],[-9.16703,38.7636689],[-9.1671053,38.7635516],[-9.1672477,38.7634431],[-9.1673841,38.763385],[-9.1675332,38.7633299]]}},{"type":"Feature","id":"way/115065023","properties":{"timestamp":"2025-06-24T18:23:27Z","version":"8","changeset":"168062138","user":"topolusitania","uid":"380552","highway":"service","oneway":"yes","surface":"asphalt","id":"way/115065023"},"geometry":{"type":"LineString","coordinates":[[-9.1719668,38.7670446],[-9.1716188,38.7672756],[-9.1713028,38.7674279],[-9.1710743,38.7675907],[-9.171008,38.7677038],[-9.1709883,38.7678034],[-9.1706026,38.7680984]]}},{"type":"Feature","id":"way/115065024","properties":{"timestamp":"2025-06-24T18:23:27Z","version":"6","changeset":"168062138","user":"topolusitania","uid":"380552","highway":"service","oneway":"yes","id":"way/115065024"},"geometry":{"type":"LineString","coordinates":[[-9.1713028,38.7674279],[-9.1710064,38.7673957],[-9.1708052,38.7675316],[-9.1705298,38.7677526],[-9.1703867,38.767884],[-9.1703759,38.767926],[-9.1703874,38.7679623],[-9.1705128,38.7680461],[-9.1706026,38.7680984]]}},{"type":"Feature","id":"way/115065025","properties":{"timestamp":"2025-06-24T18:23:27Z","version":"6","changeset":"168062138","user":"topolusitania","uid":"380552","highway":"service","layer":"-1","oneway":"yes","tunnel":"yes","id":"way/115065025"},"geometry":{"type":"LineString","coordinates":[[-9.1708052,38.7675316],[-9.1706827,38.7674298],[-9.1709571,38.7672289],[-9.1710502,38.7673002],[-9.1710064,38.7673957]]}},{"type":"Feature","id":"way/115065026","properties":{"timestamp":"2025-06-24T18:23:27Z","version":"9","changeset":"168062138","user":"topolusitania","uid":"380552","bicycle":"no","foot":"no","highway":"service","horse":"no","oneway":"yes","surface":"asphalt","id":"way/115065026"},"geometry":{"type":"LineString","coordinates":[[-9.1706026,38.7680984],[-9.1704184,38.7683052],[-9.1699604,38.7687348]]}},{"type":"Feature","id":"way/162096949","properties":{"timestamp":"2023-06-27T18:44:25Z","version":"7","changeset":"137848258","user":"hvalentim","uid":"705092","description":"Toponímia: Arquitecto 1922-1982. Início: Rua Frederico George. Fim: Sem Saída.","highway":"residential","name":"Rua Francisco da Conceição Silva","oneway":"no","source:description":"dadosabertos.cm-lisboa.pt","source:pkey":"3523","start_date":"2005-09-08","website":"https://revelar.lisboa.pt/explorar/toponimia/detalhe?tx_toponimia_pi1%5Baction%5D=show&tx_toponimia_pi1%5Bcontroller%5D=Toponimia&tx_toponimia_pi1%5Btopid%5D=3523","id":"way/162096949"},"geometry":{"type":"LineString","coordinates":[[-9.1663023,38.7699813],[-9.166229,38.7698792],[-9.1661916,38.7698274],[-9.1660845,38.7696796],[-9.1658439,38.7693473],[-9.1655892,38.7689956]]}},{"type":"Feature","id":"way/182604515","properties":{"timestamp":"2024-03-21T12:37:47Z","version":"12","changeset":"148960170","user":"tomasrm22","uid":"19736714","description":"Toponímia: Político - 1862 - 1934. Início: Rua Abel Salazar. Fim: sem saída.","highway":"residential","lanes":"2","name":"Rua Brito Camacho","sidewalk":"both","sidewalk:both:surface":"sett","smoothness":"good","source":"bing","source:description":"dadosabertos.cm-lisboa.pt","source:pkey":"2028","start_date":"1997-12-09","surface":"asphalt","website":"https://revelar.lisboa.pt/explorar/toponimia/detalhe?tx_toponimia_pi1%5Baction%5D=show&tx_toponimia_pi1%5Bcontroller%5D=Toponimia&tx_toponimia_pi1%5Btopid%5D=2028","id":"way/182604515"},"geometry":{"type":"LineString","coordinates":[[-9.1676,38.7674253],[-9.1674798,38.7674769],[-9.1672305,38.7675818],[-9.1670884,38.7673648]]}},{"type":"Feature","id":"way/182604517","properties":{"timestamp":"2025-01-31T00:38:44Z","version":"10","changeset":"161960084","user":"DanielAgos","uid":"20972402","description":"Toponímia: Político - 1862 - 1934. Início: Rua Abel Salazar. Fim: sem saída.","highway":"residential","name":"Rua Brito Camacho","source":"bing","source:description":"dadosabertos.cm-lisboa.pt","source:pkey":"2028","start_date":"1997-12-09","website":"https://revelar.lisboa.pt/explorar/toponimia/detalhe?tx_toponimia_pi1%5Baction%5D=show&tx_toponimia_pi1%5Bcontroller%5D=Toponimia&tx_toponimia_pi1%5Btopid%5D=2028","id":"way/182604517"},"geometry":{"type":"LineString","coordinates":[[-9.1672254,38.7668055],[-9.1673467,38.7663172],[-9.1674004,38.7661012]]}},{"type":"Feature","id":"way/182891204","properties":{"timestamp":"2024-10-13T20:34:10Z","version":"14","changeset":"157851267","user":"Dilxe","uid":"16603393","description":"Toponímia: Político - 1862 - 1934. Início: Rua Abel Salazar. Fim: sem saída.","highway":"residential","lane_markings":"no","lit":"yes","name":"Rua Brito Camacho","oneway":"yes","sidewalk":"right","sidewalk:right:surface":"sett","smoothness":"excellent","source":"bing","source:description":"dadosabertos.cm-lisboa.pt","source:pkey":"2028","start_date":"1997-12-09","surface":"asphalt","website":"https://revelar.lisboa.pt/explorar/toponimia/detalhe?tx_toponimia_pi1%5Baction%5D=show&tx_toponimia_pi1%5Bcontroller%5D=Toponimia&tx_toponimia_pi1%5Btopid%5D=2028","id":"way/182891204"},"geometry":{"type":"LineString","coordinates":[[-9.1672254,38.7668055],[-9.1671722,38.7667969],[-9.1671469,38.7667955],[-9.167124,38.7667971],[-9.1671039,38.7668002],[-9.1670839,38.7668068],[-9.1670684,38.7668164],[-9.166989,38.7671445],[-9.1669804,38.7672022],[-9.1669822,38.7672375],[-9.1669923,38.7672663],[-9.1670105,38.7672909],[-9.1670342,38.7673156],[-9.1670599,38.7673402],[-9.1670884,38.7673648]]}},{"type":"Feature","id":"way/182944324","properties":{"timestamp":"2025-08-14T16:40:22Z","version":"12","changeset":"170446121","user":"aselvadeasfalto","uid":"11912760","description":"Toponímia: Instituições. Início: Rua Prof. Pulido Valente. Fim: Praça São Francisco de Assis.","highway":"secondary","lanes":"2","name":"Avenida das Nações Unidas","name:etymology:wikidata":"Q1065","oneway":"yes","source:description":"dadosabertos.cm-lisboa.pt","source:pkey":"606","start_date":"1989-11-24","surface":"asphalt","website":"https://revelar.lisboa.pt/explorar/toponimia/detalhe?tx_toponimia_pi1%5Baction%5D=show&tx_toponimia_pi1%5Bcontroller%5D=Toponimia&tx_toponimia_pi1%5Btopid%5D=606","id":"way/182944324"},"geometry":{"type":"LineString","coordinates":[[-9.1719544,38.763471],[-9.1722184,38.7635215],[-9.1724406,38.763565],[-9.1726484,38.7636038],[-9.1727638,38.7636274]]}},{"type":"Feature","id":"way/182944371","properties":{"timestamp":"2026-04-10T14:56:43Z","version":"9","changeset":"181152258","user":"aselvadeasfalto","uid":"11912760","description":"Toponímia: Médico 1884 - 1963. Início: Rua Prof. Vieira de Almeida. Fim: Avenida das Nações Unidas.","highway":"secondary","lanes":"1","name":"Rua Professor Pulido Valente","name:etymology:wikidata":"Q10285097","oneway":"yes","source":"bing","source:description":"dadosabertos.cm-lisboa.pt","source:pkey":"2069","start_date":"1978-03-06","surface":"asphalt","website":"https://revelar.lisboa.pt/explorar/toponimia/detalhe?tx_toponimia_pi1%5Baction%5D=show&tx_toponimia_pi1%5Bcontroller%5D=Toponimia&tx_toponimia_pi1%5Btopid%5D=2069","id":"way/182944371"},"geometry":{"type":"LineString","coordinates":[[-9.1669299,38.7633404],[-9.1670967,38.7633806],[-9.1675332,38.7633299]]}},{"type":"Feature","id":"way/182944372","properties":{"timestamp":"2026-04-10T14:56:43Z","version":"15","changeset":"181152258","user":"aselvadeasfalto","uid":"11912760","description":"Toponímia: Médico 1884 - 1963. Início: Rua Prof. Vieira de Almeida. Fim: Avenida das Nações Unidas.","highway":"secondary","lanes":"4","name":"Rua Professor Pulido Valente","name:etymology:wikidata":"Q10285097","source":"bing","source:description":"dadosabertos.cm-lisboa.pt","source:pkey":"2069","start_date":"1978-03-06","surface":"asphalt","website":"https://revelar.lisboa.pt/explorar/toponimia/detalhe?tx_toponimia_pi1%5Baction%5D=show&tx_toponimia_pi1%5Bcontroller%5D=Toponimia&tx_toponimia_pi1%5Btopid%5D=2069","id":"way/182944372"},"geometry":{"type":"LineString","coordinates":[[-9.1707922,38.7632498],[-9.1706918,38.7632375],[-9.1702936,38.7632474]]}},{"type":"Feature","id":"way/270288025","properties":{"timestamp":"2026-04-10T14:56:43Z","version":"11","changeset":"181152258","user":"aselvadeasfalto","uid":"11912760","description":"Toponímia: Médico 1884 - 1963. Início: Rua Prof. Vieira de Almeida. Fim: Avenida das Nações Unidas.","highway":"secondary","lanes":"2","name":"Rua Professor Pulido Valente","name:etymology:wikidata":"Q10285097","oneway":"yes","source":"bing","source:description":"dadosabertos.cm-lisboa.pt","source:pkey":"2069","start_date":"1978-03-06","surface":"asphalt","website":"https://revelar.lisboa.pt/explorar/toponimia/detalhe?tx_toponimia_pi1%5Baction%5D=show&tx_toponimia_pi1%5Bcontroller%5D=Toponimia&tx_toponimia_pi1%5Btopid%5D=2069","id":"way/270288025"},"geometry":{"type":"LineString","coordinates":[[-9.1675332,38.7633299],[-9.1670936,38.763312],[-9.1669299,38.7633404]]}},{"type":"Feature","id":"way/270288029","properties":{"timestamp":"2023-06-27T18:44:28Z","version":"11","changeset":"137848258","user":"hvalentim","uid":"705092","description":"Toponímia: Jurisconsulto 1889-1977. Início: Confluência das Ruas: Avenida das Nações Unidas; Rua Prof. João Barreira; Rua Prof. Pulido Valente. Fim: Rua Prof. Queiroz Veloso.","highway":"residential","lit":"yes","name":"Rua Professor Paulo Merêa","oneway":"yes","source:description":"dadosabertos.cm-lisboa.pt","source:pkey":"3525","start_date":"2005-09-08","surface":"asphalt","website":"https://revelar.lisboa.pt/explorar/toponimia/detalhe?tx_toponimia_pi1%5Baction%5D=show&tx_toponimia_pi1%5Bcontroller%5D=Toponimia&tx_toponimia_pi1%5Btopid%5D=3525","id":"way/270288029"},"geometry":{"type":"LineString","coordinates":[[-9.1708831,38.7635713],[-9.1709065,38.7635014],[-9.1709481,38.7634363],[-9.1709789,38.7634033],[-9.171041,38.7633715],[-9.1711508,38.7633419]]}},{"type":"Feature","id":"way/270288030","properties":{"timestamp":"2023-06-27T18:44:28Z","version":"11","changeset":"137848258","user":"hvalentim","uid":"705092","description":"Toponímia: Jurisconsulto 1889-1977. Início: Confluência das Ruas: Avenida das Nações Unidas; Rua Prof. João Barreira; Rua Prof. Pulido Valente. Fim: Rua Prof. Queiroz Veloso.","highway":"residential","lit":"yes","name":"Rua Professor Paulo Merêa","source:description":"dadosabertos.cm-lisboa.pt","source:pkey":"3525","start_date":"2005-09-08","surface":"asphalt","website":"https://revelar.lisboa.pt/explorar/toponimia/detalhe?tx_toponimia_pi1%5Baction%5D=show&tx_toponimia_pi1%5Bcontroller%5D=Toponimia&tx_toponimia_pi1%5Btopid%5D=3525","id":"way/270288030"},"geometry":{"type":"LineString","coordinates":[[-9.1708831,38.7635713],[-9.1708862,38.7636373],[-9.170895,38.763887],[-9.1708857,38.7640006]]}},{"type":"Feature","id":"way/270291661","properties":{"timestamp":"2024-02-01T12:22:44Z","version":"8","changeset":"146943712","user":"Cariocecus","uid":"176099","bicycle":"no","destination":"Odivelas;Lumiar","foot":"no","highway":"trunk_link","horse":"no","lanes":"2","oneway":"yes","surface":"asphalt","id":"way/270291661"},"geometry":{"type":"LineString","coordinates":[[-9.1647943,38.7707477],[-9.1644771,38.7708929],[-9.1641441,38.770938],[-9.1640314,38.7709542]]}},{"type":"Feature","id":"way/404294021","properties":{"timestamp":"2025-08-14T16:40:22Z","version":"9","changeset":"170446121","user":"aselvadeasfalto","uid":"11912760","description":"Toponímia: Instituições. Início: Rua Prof. Pulido Valente. Fim: Praça São Francisco de Assis.","highway":"secondary","lanes":"1","name":"Avenida das Nações Unidas","name:etymology:wikidata":"Q1065","oneway":"yes","source":"bing","source:description":"dadosabertos.cm-lisboa.pt","source:pkey":"606","start_date":"1989-11-24","surface":"asphalt","website":"https://revelar.lisboa.pt/explorar/toponimia/detalhe?tx_toponimia_pi1%5Baction%5D=show&tx_toponimia_pi1%5Bcontroller%5D=Toponimia&tx_toponimia_pi1%5Btopid%5D=606","id":"way/404294021"},"geometry":{"type":"LineString","coordinates":[[-9.1712786,38.7632819],[-9.1711047,38.7632565],[-9.1708763,38.7632318],[-9.1707922,38.7632498]]}},{"type":"Feature","id":"way/404294022","properties":{"timestamp":"2025-10-28T16:55:47Z","version":"8","changeset":"173893087","user":"Urafkard","uid":"21545886","bridge":"yes","description":"Toponímia: Instituições. Início: Rua Prof. Pulido Valente. Fim: Praça São Francisco de Assis.","highway":"secondary","lanes":"2","layer":"1","maxweight:signed":"no","name":"Avenida das Nações Unidas","name:etymology:wikidata":"Q1065","oneway":"yes","source:description":"dadosabertos.cm-lisboa.pt","source:pkey":"606","start_date":"1989-11-24","surface":"asphalt","website":"https://revelar.lisboa.pt/explorar/toponimia/detalhe?tx_toponimia_pi1%5Baction%5D=show&tx_toponimia_pi1%5Bcontroller%5D=Toponimia&tx_toponimia_pi1%5Btopid%5D=606","id":"way/404294022"},"geometry":{"type":"LineString","coordinates":[[-9.1713914,38.7633851],[-9.1719544,38.763471]]}},{"type":"Feature","id":"way/404294033","properties":{"timestamp":"2024-11-04T19:49:13Z","version":"6","changeset":"158754896","user":"powerslave00","uid":"3445540","bicycle":"no","change:lanes":"yes|not_right|not_left","foot":"no","highway":"trunk","horse":"no","lanes":"3","name":"Eixo Norte-Sul","oneway":"yes","ref":"IP 7","surface":"asphalt","id":"way/404294033"},"geometry":{"type":"LineString","coordinates":[[-9.1721784,38.7667374],[-9.1719668,38.7670446],[-9.1717346,38.7673471]]}},{"type":"Feature","id":"way/427932970","properties":{"timestamp":"2016-06-29T04:13:31Z","version":"1","changeset":"40357254","user":"Josef K","uid":"47097","access":"private","highway":"service","service":"driveway","id":"way/427932970"},"geometry":{"type":"LineString","coordinates":[[-9.1667507,38.7680976],[-9.1666427,38.7681459],[-9.1667518,38.7682967]]}},{"type":"Feature","id":"way/427932975","properties":{"timestamp":"2016-06-29T04:13:32Z","version":"1","changeset":"40357254","user":"Josef K","uid":"47097","access":"private","highway":"service","service":"driveway","id":"way/427932975"},"geometry":{"type":"LineString","coordinates":[[-9.1668623,38.7682478],[-9.1667507,38.7680976],[-9.1667909,38.7680098],[-9.1668771,38.767801],[-9.166917,38.7677835],[-9.1670581,38.7677114],[-9.166815,38.7672918],[-9.166774,38.7672279]]}},{"type":"Feature","id":"way/427935106","properties":{"timestamp":"2025-10-06T23:23:10Z","version":"7","changeset":"172936554","user":"kcpels","uid":"11062493","description":"Toponímia: Apóstolo da Caridade - 1859 - 1948. Início: Avenida General Norton de Matos. Fim: Rua do Alqueidão.","foot":"no","highway":"trunk","lanes":"4","lit":"yes","maxspeed":"50","motor_vehicle:lanes":"yes|yes|yes|no","name":"Avenida Padre Cruz","old_name":"Avenida Paulo VI","oneway":"yes","psv:lanes":"yes|yes|yes|designated","source:description":"dadosabertos.cm-lisboa.pt","source:pkey":"721","start_date":"1974-03-13","surface":"asphalt","website":"https://revelar.lisboa.pt/explorar/toponimia/detalhe?tx_toponimia_pi1%5Baction%5D=show&tx_toponimia_pi1%5Bcontroller%5D=Toponimia&tx_toponimia_pi1%5Btopid%5D=721","id":"way/427935106"},"geometry":{"type":"LineString","coordinates":[[-9.1648048,38.7688276],[-9.1650865,38.7680907]]}},{"type":"Feature","id":"way/427935107","properties":{"timestamp":"2025-10-06T23:23:10Z","version":"8","changeset":"172936554","user":"kcpels","uid":"11062493","description":"Toponímia: Apóstolo da Caridade - 1859 - 1948. Início: Avenida General Norton de Matos. Fim: Rua do Alqueidão.","foot":"no","highway":"trunk","lanes":"5","lit":"yes","maxspeed":"50","motor_vehicle:lanes":"yes|yes|yes|no|yes","name":"Avenida Padre Cruz","old_name":"Avenida Paulo VI","oneway":"yes","placement":"right_of:2","psv:lanes":"yes|yes|yes|designated|yes","source:description":"dadosabertos.cm-lisboa.pt","source:pkey":"721","start_date":"1974-03-13","surface":"asphalt","website":"https://revelar.lisboa.pt/explorar/toponimia/detalhe?tx_toponimia_pi1%5Baction%5D=show&tx_toponimia_pi1%5Bcontroller%5D=Toponimia&tx_toponimia_pi1%5Btopid%5D=721","id":"way/427935107"},"geometry":{"type":"LineString","coordinates":[[-9.1645666,38.7694535],[-9.1647438,38.768988],[-9.1648048,38.7688276]]}},{"type":"Feature","id":"way/427935109","properties":{"timestamp":"2025-10-06T23:23:10Z","version":"6","changeset":"172936554","user":"kcpels","uid":"11062493","description":"Toponímia: Apóstolo da Caridade - 1859 - 1948. Início: Avenida General Norton de Matos. Fim: Rua do Alqueidão.","foot":"no","highway":"trunk","lanes":"4","maxspeed":"50","motor_vehicle:lanes":"yes|yes|yes|no","name":"Avenida Padre Cruz","old_name":"Avenida Paulo VI","oneway":"yes","psv:lanes":"yes|yes|yes|designated","source:description":"dadosabertos.cm-lisboa.pt","source:pkey":"721","start_date":"1974-03-13","surface":"asphalt","website":"https://revelar.lisboa.pt/explorar/toponimia/detalhe?tx_toponimia_pi1%5Baction%5D=show&tx_toponimia_pi1%5Bcontroller%5D=Toponimia&tx_toponimia_pi1%5Btopid%5D=721","id":"way/427935109"},"geometry":{"type":"LineString","coordinates":[[-9.165303,38.767354],[-9.1653382,38.7671667],[-9.1653468,38.7670371]]}},{"type":"Feature","id":"way/427935110","properties":{"timestamp":"2025-10-06T23:23:10Z","version":"6","changeset":"172936554","user":"kcpels","uid":"11062493","description":"Toponímia: Apóstolo da Caridade - 1859 - 1948. Início: Avenida General Norton de Matos. Fim: Rua do Alqueidão.","foot":"no","highway":"trunk","lanes":"6","maxspeed":"50","motor_vehicle:lanes":"yes|yes|yes|yes|no|yes","name":"Avenida Padre Cruz","old_name":"Avenida Paulo VI","oneway":"yes","placement":"right_of:3","psv:lanes":"yes|yes|yes|yes|designated|yes","source:description":"dadosabertos.cm-lisboa.pt","source:pkey":"721","start_date":"1974-03-13","surface":"asphalt","turn:lanes":"left|through|through|through|none|right","website":"https://revelar.lisboa.pt/explorar/toponimia/detalhe?tx_toponimia_pi1%5Baction%5D=show&tx_toponimia_pi1%5Bcontroller%5D=Toponimia&tx_toponimia_pi1%5Btopid%5D=721","id":"way/427935110"},"geometry":{"type":"LineString","coordinates":[[-9.1650865,38.7680907],[-9.1652206,38.7676808],[-9.165303,38.767354]]}},{"type":"Feature","id":"way/427935111","properties":{"timestamp":"2025-10-06T23:23:10Z","version":"7","changeset":"172936554","user":"kcpels","uid":"11062493","description":"Toponímia: Apóstolo da Caridade - 1859 - 1948. Início: Avenida General Norton de Matos. Fim: Rua do Alqueidão.","foot":"no","highway":"trunk","lanes":"4","lit":"yes","maxspeed":"50","motor_vehicle:lanes":"yes|yes|yes|no","name":"Avenida Padre Cruz","old_name":"Avenida Paulo VI","oneway":"yes","psv:lanes":"yes|yes|yes|designated","source:description":"dadosabertos.cm-lisboa.pt","source:pkey":"721","start_date":"1974-03-13","surface":"asphalt","website":"https://revelar.lisboa.pt/explorar/toponimia/detalhe?tx_toponimia_pi1%5Baction%5D=show&tx_toponimia_pi1%5Bcontroller%5D=Toponimia&tx_toponimia_pi1%5Btopid%5D=721","id":"way/427935111"},"geometry":{"type":"LineString","coordinates":[[-9.1640314,38.7709542],[-9.1640683,38.7708507],[-9.1642049,38.7704678],[-9.1645666,38.7694535]]}},{"type":"Feature","id":"way/427935133","properties":{"timestamp":"2016-06-29T04:59:04Z","version":"1","changeset":"40357615","user":"Josef K","uid":"47097","highway":"service","id":"way/427935133"},"geometry":{"type":"LineString","coordinates":[[-9.1659917,38.7692822],[-9.1658439,38.7693473]]}},{"type":"Feature","id":"way/427935134","properties":{"timestamp":"2016-06-29T04:59:04Z","version":"1","changeset":"40357615","user":"Josef K","uid":"47097","highway":"service","service":"driveway","id":"way/427935134"},"geometry":{"type":"LineString","coordinates":[[-9.1669354,38.7683175],[-9.1668623,38.7682478]]}},{"type":"Feature","id":"way/427935139","properties":{"timestamp":"2016-06-29T04:59:04Z","version":"1","changeset":"40357615","user":"Josef K","uid":"47097","highway":"service","service":"driveway","id":"way/427935139"},"geometry":{"type":"LineString","coordinates":[[-9.1667518,38.7682967],[-9.1668047,38.7683698],[-9.1669354,38.7683175]]}},{"type":"Feature","id":"way/427935141","properties":{"timestamp":"2020-08-31T23:14:41Z","version":"2","changeset":"90213645","user":"Pedro Guerra","uid":"8747636","highway":"service","name":"Impasse B1 à Encosta de Telheiras","source":"http://lxi.cm-lisboa.pt/lxi/","id":"way/427935141"},"geometry":{"type":"LineString","coordinates":[[-9.1648904,38.7692691],[-9.1648939,38.7691579],[-9.1650114,38.7688291]]}},{"type":"Feature","id":"way/427935142","properties":{"timestamp":"2024-02-01T12:22:54Z","version":"3","changeset":"146943712","user":"Cariocecus","uid":"176099","bicycle":"no","destination":"Lisboa;Odivelas;Lumiar","foot":"no","highway":"trunk_link","horse":"no","lanes":"3","oneway":"yes","surface":"asphalt","turn:lanes":"through|through|right","id":"way/427935142"},"geometry":{"type":"LineString","coordinates":[[-9.1661409,38.7703156],[-9.1656812,38.7704262],[-9.1652024,38.770587],[-9.1647943,38.7707477]]}},{"type":"Feature","id":"way/427935143","properties":{"timestamp":"2022-11-15T22:44:13Z","version":"2","changeset":"128962263","user":"DiogoBaptista98","uid":"1193685","highway":"service","service":"parking_aisle","id":"way/427935143"},"geometry":{"type":"LineString","coordinates":[[-9.1660845,38.7696796],[-9.1662418,38.7696103],[-9.1662126,38.769572],[-9.1659917,38.7692822],[-9.1657371,38.7689306],[-9.1655892,38.7689956]]}},{"type":"Feature","id":"way/427935144","properties":{"timestamp":"2026-04-08T08:44:25Z","version":"3","changeset":"181036708","user":"Jimiiee","uid":"2644617","highway":"service","name":"Impasse B1 à Encosta de Telheiras","oneway":"yes","service":"parking_aisle","source":"http://lxi.cm-lisboa.pt/lxi/","id":"way/427935144"},"geometry":{"type":"LineString","coordinates":[[-9.1650114,38.7688291],[-9.1650786,38.7688143],[-9.16528,38.7687211],[-9.1651982,38.7686016],[-9.1650534,38.7686671],[-9.1650114,38.7688291]]}},{"type":"Feature","id":"way/526649548","properties":{"timestamp":"2023-10-11T16:28:48Z","version":"5","changeset":"142444321","user":"kcpels","uid":"11062493","description":"Toponímia: Jurista 1929 - 1983. Início: Rua Prof. Prado Coelho. Fim: Terras.","highway":"service","name":"Rua Professor João de Castro Mendes","source":"dadosabertos.cm-lisboa.pt","source:pkey":"2843","start_date":"1990-07-30","website":"https://revelar.lisboa.pt/explorar/toponimia/detalhe?tx_toponimia_pi1%5Baction%5D=show&tx_toponimia_pi1%5Bcontroller%5D=Toponimia&tx_toponimia_pi1%5Btopid%5D=2843","id":"way/526649548"},"geometry":{"type":"LineString","coordinates":[[-9.1716914,38.7667089],[-9.1716897,38.7668955],[-9.1716686,38.7669592],[-9.1711993,38.7672232]]}},{"type":"Feature","id":"way/526933736","properties":{"timestamp":"2022-11-15T22:44:13Z","version":"2","changeset":"128962263","user":"DiogoBaptista98","uid":"1193685","highway":"service","oneway":"no","service":"driveway","surface":"asphalt","id":"way/526933736"},"geometry":{"type":"LineString","coordinates":[[-9.1667534,38.7694361],[-9.1666947,38.769354],[-9.1666341,38.769269]]}},{"type":"Feature","id":"way/526933742","properties":{"timestamp":"2017-09-23T04:06:47Z","version":"1","changeset":"52293951","user":"JPF_pt","uid":"350918","access":"customers","highway":"service","oneway":"no","service":"parking_aisle","surface":"asphalt","id":"way/526933742"},"geometry":{"type":"LineString","coordinates":[[-9.1666341,38.769269],[-9.1668557,38.7691753],[-9.1667665,38.769047],[-9.1663039,38.7692425],[-9.1663931,38.7693709],[-9.1666341,38.769269]]}},{"type":"Feature","id":"way/593859421","properties":{"timestamp":"2024-01-15T16:14:44Z","version":"2","changeset":"146288999","user":"Miguel_A","uid":"89955","highway":"secondary_link","lanes":"1","oneway":"yes","surface":"asphalt","id":"way/593859421"},"geometry":{"type":"LineString","coordinates":[[-9.1725587,38.7634924],[-9.1726484,38.7636038]]}},{"type":"Feature","id":"way/676379412","properties":{"timestamp":"2026-04-11T00:17:50Z","version":"11","changeset":"181170744","user":"aselvadeasfalto","uid":"11912760","description":"Toponímia: Arquitecto e Pintor 1915 - 1994. Início: Confluência da Prof. Prado Coelho e a Rua Armindo Rodrigues. Fim: Rua Daniel Santa Rita.","highway":"residential","maxspeed:type":"PT:urban","name":"Rua Frederico George","name:etymology:wikidata":"Q10285779","oneway":"no","source:description":"dadosabertos.cm-lisboa.pt","source:pkey":"2757","start_date":"1996-10-22","surface":"asphalt","website":"https://revelar.lisboa.pt/explorar/toponimia/detalhe?tx_toponimia_pi1%5Baction%5D=show&tx_toponimia_pi1%5Bcontroller%5D=Toponimia&tx_toponimia_pi1%5Btopid%5D=2757","id":"way/676379412"},"geometry":{"type":"LineString","coordinates":[[-9.1684955,38.768657],[-9.1683651,38.7687156],[-9.1677799,38.7689754],[-9.1674871,38.7691058]]}},{"type":"Feature","id":"way/676379413","properties":{"timestamp":"2024-03-21T12:39:27Z","version":"14","changeset":"148960174","user":"tomasrm22","uid":"19736714","description":"Toponímia: Pintor e Professor de Medicina - 1889 - 1946. Início: Rua Prof. Bento de Jesus Caraça. Fim: Rua Fernando Lopes Graça.","highway":"residential","lit":"yes","maxspeed":"30","maxspeed:type":"PT:zone30","name":"Rua Abel Salazar","sidewalk":"both","sidewalk:both:surface":"sett","smoothness":"excellent","source:description":"dadosabertos.cm-lisboa.pt","source:pkey":"684","start_date":"1997-08-05","surface":"asphalt","website":"https://revelar.lisboa.pt/explorar/toponimia/detalhe?tx_toponimia_pi1%5Baction%5D=show&tx_toponimia_pi1%5Bcontroller%5D=Toponimia&tx_toponimia_pi1%5Btopid%5D=684","id":"way/676379413"},"geometry":{"type":"LineString","coordinates":[[-9.1684955,38.768657],[-9.1681267,38.7681493],[-9.1679811,38.7679488],[-9.1679268,38.767874]]}},{"type":"Feature","id":"way/676379414","properties":{"timestamp":"2026-04-11T00:17:50Z","version":"10","changeset":"181170744","user":"aselvadeasfalto","uid":"11912760","description":"Toponímia: Arquitecto e Pintor 1915 - 1994. Início: Confluência da Prof. Prado Coelho e a Rua Armindo Rodrigues. Fim: Rua Daniel Santa Rita.","highway":"residential","name":"Rua Frederico George","name:etymology:wikidata":"Q10285779","oneway":"no","source:description":"dadosabertos.cm-lisboa.pt","source:pkey":"2757","start_date":"1996-10-22","website":"https://revelar.lisboa.pt/explorar/toponimia/detalhe?tx_toponimia_pi1%5Baction%5D=show&tx_toponimia_pi1%5Bcontroller%5D=Toponimia&tx_toponimia_pi1%5Btopid%5D=2757","id":"way/676379414"},"geometry":{"type":"LineString","coordinates":[[-9.1674871,38.7691058],[-9.1673612,38.7691618],[-9.1672756,38.7691999],[-9.1667534,38.7694361],[-9.1666391,38.7695167],[-9.1665535,38.7696095],[-9.1663883,38.7698754],[-9.1663494,38.7699271],[-9.1663023,38.7699813],[-9.1662659,38.7700102],[-9.1662121,38.7700449],[-9.1661952,38.7700558],[-9.1660557,38.7701263],[-9.165897,38.7701945],[-9.1658237,38.7702168],[-9.16577,38.7702204],[-9.1657141,38.7702118],[-9.1656127,38.7701715]]}},{"type":"Feature","id":"way/676379415","properties":{"timestamp":"2023-06-27T18:44:35Z","version":"7","changeset":"137848258","user":"hvalentim","uid":"705092","description":"Toponímia: Médico e Poeta 1904 - 1993. Início: Rua Frederico George. Fim: Rua Frederico George.","highway":"residential","name":"Rua Armindo Rodrigues","source:description":"dadosabertos.cm-lisboa.pt","source:pkey":"362","start_date":"1996-10-22","website":"https://revelar.lisboa.pt/explorar/toponimia/detalhe?tx_toponimia_pi1%5Baction%5D=show&tx_toponimia_pi1%5Bcontroller%5D=Toponimia&tx_toponimia_pi1%5Btopid%5D=362","id":"way/676379415"},"geometry":{"type":"LineString","coordinates":[[-9.1689423,38.767421],[-9.1687926,38.7674877],[-9.1684691,38.767632],[-9.1680463,38.7678207],[-9.1679268,38.767874]]}},{"type":"Feature","id":"way/676379416","properties":{"timestamp":"2026-04-11T00:17:50Z","version":"10","changeset":"181170744","user":"aselvadeasfalto","uid":"11912760","description":"Toponímia: Arquitecto e Pintor 1915 - 1994. Início: Confluência da Prof. Prado Coelho e a Rua Armindo Rodrigues. Fim: Rua Daniel Santa Rita.","highway":"residential","maxspeed:type":"PT:urban","name":"Rua Frederico George","name:etymology:wikidata":"Q10285779","oneway":"no","source:description":"dadosabertos.cm-lisboa.pt","source:pkey":"2757","start_date":"1996-10-22","website":"https://revelar.lisboa.pt/explorar/toponimia/detalhe?tx_toponimia_pi1%5Baction%5D=show&tx_toponimia_pi1%5Bcontroller%5D=Toponimia&tx_toponimia_pi1%5Btopid%5D=2757","id":"way/676379416"},"geometry":{"type":"LineString","coordinates":[[-9.1695087,38.768206],[-9.169149,38.7683661],[-9.1686352,38.7685948],[-9.1684955,38.768657]]}},{"type":"Feature","id":"way/676380309","properties":{"timestamp":"2024-03-21T12:39:04Z","version":"7","changeset":"148960484","user":"tomasrm22","uid":"19736714","description":"Toponímia: Pintor e Professor de Medicina - 1889 - 1946. Início: Rua Prof. Bento de Jesus Caraça. Fim: Rua Fernando Lopes Graça.","highway":"residential","maxspeed:type":"PT:urban","name":"Rua Abel Salazar","source:description":"dadosabertos.cm-lisboa.pt","source:pkey":"684","start_date":"1997-08-05","surface":"asphalt","website":"https://revelar.lisboa.pt/explorar/toponimia/detalhe?tx_toponimia_pi1%5Baction%5D=show&tx_toponimia_pi1%5Bcontroller%5D=Toponimia&tx_toponimia_pi1%5Btopid%5D=684","id":"way/676380309"},"geometry":{"type":"LineString","coordinates":[[-9.1679268,38.767874],[-9.1678707,38.7677967],[-9.1676,38.7674253],[-9.1675662,38.7673296],[-9.1678844,38.7661864],[-9.1679142,38.7660874],[-9.1679457,38.7659642]]}},{"type":"Feature","id":"way/676380310","properties":{"timestamp":"2026-04-08T08:44:25Z","version":"12","changeset":"181036708","user":"Jimiiee","uid":"2644617","description":"Toponímia: Médico e Poeta 1904 - 1993. Início: Rua Frederico George. Fim: Rua Frederico George.","highway":"residential","maxspeed":"30","maxspeed:type":"PT:zone30","name":"Rua Armindo Rodrigues","sidewalk":"both","source:description":"dadosabertos.cm-lisboa.pt","source:pkey":"362","start_date":"1996-10-22","surface":"asphalt","website":"https://revelar.lisboa.pt/explorar/toponimia/detalhe?tx_toponimia_pi1%5Baction%5D=show&tx_toponimia_pi1%5Bcontroller%5D=Toponimia&tx_toponimia_pi1%5Btopid%5D=362","id":"way/676380310"},"geometry":{"type":"LineString","coordinates":[[-9.1679268,38.767874],[-9.1678197,38.7679218],[-9.1673548,38.7681292],[-9.16706,38.7682608],[-9.1669354,38.7683175],[-9.1670631,38.7685],[-9.1673508,38.7689111],[-9.1674363,38.7690332],[-9.1674871,38.7691058]]}},{"type":"Feature","id":"way/676409758","properties":{"timestamp":"2023-06-27T18:44:35Z","version":"7","changeset":"137848258","user":"hvalentim","uid":"705092","description":"Toponímia: Historiador 1860 - 1952. Início: Rua Prof. Bento de Jesus Caraça. Fim: Rua Prof. Prado Coelho.","highway":"residential","name":"Rua Professor Queiroz Veloso","source:description":"dadosabertos.cm-lisboa.pt","source:pkey":"1595","start_date":"1978-03-06","website":"https://revelar.lisboa.pt/explorar/toponimia/detalhe?tx_toponimia_pi1%5Baction%5D=show&tx_toponimia_pi1%5Bcontroller%5D=Toponimia&tx_toponimia_pi1%5Btopid%5D=1595","id":"way/676409758"},"geometry":{"type":"LineString","coordinates":[[-9.1708857,38.7640006],[-9.171111,38.7641798],[-9.1713873,38.7643934],[-9.1716155,38.7645781],[-9.1718458,38.7647454]]}},{"type":"Feature","id":"way/682160323","properties":{"timestamp":"2023-10-10T09:43:05Z","version":"7","changeset":"142384779","user":"kcpels","uid":"11062493","description":"Toponímia: Professora e Critica Musical 1894 - 1990. Início: Rua Prof. Bento de Jesus Caraças. Fim: Sem saída.","highway":"service","name":"Rua Francine Benoit","oneway":"no","source:description":"dadosabertos.cm-lisboa.pt","source:pkey":"2926","start_date":"1991-03-12","surface":"asphalt","website":"https://revelar.lisboa.pt/explorar/toponimia/detalhe?tx_toponimia_pi1%5Baction%5D=show&tx_toponimia_pi1%5Bcontroller%5D=Toponimia&tx_toponimia_pi1%5Btopid%5D=2926","id":"way/682160323"},"geometry":{"type":"LineString","coordinates":[[-9.1704819,38.7660988],[-9.1701822,38.7660466],[-9.1700054,38.7666917],[-9.1702737,38.766958]]}},{"type":"Feature","id":"way/682160324","properties":{"timestamp":"2023-10-10T09:43:05Z","version":"7","changeset":"142384779","user":"kcpels","uid":"11062493","description":"Toponímia: Professora e Critica Musical 1894 - 1990. Início: Rua Prof. Bento de Jesus Caraças. Fim: Sem saída.","highway":"service","name":"Rua Francine Benoit","oneway":"no","source:description":"dadosabertos.cm-lisboa.pt","source:pkey":"2926","start_date":"1991-03-12","surface":"asphalt","website":"https://revelar.lisboa.pt/explorar/toponimia/detalhe?tx_toponimia_pi1%5Baction%5D=show&tx_toponimia_pi1%5Bcontroller%5D=Toponimia&tx_toponimia_pi1%5Btopid%5D=2926","id":"way/682160324"},"geometry":{"type":"LineString","coordinates":[[-9.1701822,38.7660466],[-9.1702534,38.7657439]]}},{"type":"Feature","id":"way/682174942","properties":{"timestamp":"2023-10-10T09:43:05Z","version":"6","changeset":"142384779","user":"kcpels","uid":"11062493","description":"Toponímia: Político Italiano - 1919 - 1978. Início: Rua Enrico Berlinguer. Fim: Rua Prof. Bento de Jesus Caraça.","highway":"service","name":"Rua Aldo Moro","source:description":"dadosabertos.cm-lisboa.pt","source:pkey":"2854","start_date":"1991-03-12","website":"https://revelar.lisboa.pt/explorar/toponimia/detalhe?tx_toponimia_pi1%5Baction%5D=show&tx_toponimia_pi1%5Bcontroller%5D=Toponimia&tx_toponimia_pi1%5Btopid%5D=2854","id":"way/682174942"},"geometry":{"type":"LineString","coordinates":[[-9.1713565,38.7661953],[-9.1709678,38.766133],[-9.1708672,38.7665127],[-9.1707858,38.7666352]]}},{"type":"Feature","id":"way/682174943","properties":{"timestamp":"2023-10-10T09:43:05Z","version":"6","changeset":"142384779","user":"kcpels","uid":"11062493","description":"Toponímia: Político Italiano - 1919 - 1978. Início: Rua Enrico Berlinguer. Fim: Rua Prof. Bento de Jesus Caraça.","highway":"service","name":"Rua Aldo Moro","source:description":"dadosabertos.cm-lisboa.pt","source:pkey":"2854","start_date":"1991-03-12","website":"https://revelar.lisboa.pt/explorar/toponimia/detalhe?tx_toponimia_pi1%5Baction%5D=show&tx_toponimia_pi1%5Bcontroller%5D=Toponimia&tx_toponimia_pi1%5Btopid%5D=2854","id":"way/682174943"},"geometry":{"type":"LineString","coordinates":[[-9.1709678,38.766133],[-9.1711345,38.7654028]]}},{"type":"Feature","id":"way/682174944","properties":{"timestamp":"2023-10-10T09:43:05Z","version":"6","changeset":"142384779","user":"kcpels","uid":"11062493","description":"Toponímia: Político Italiano 1922 - 1984. Início: Rua Prof. Queiroz Veloso. Fim: Rua Aldo Moro.","highway":"service","name":"Rua Enrico Berlinguer","source:description":"dadosabertos.cm-lisboa.pt","source:pkey":"851","start_date":"1991-03-12","website":"https://revelar.lisboa.pt/explorar/toponimia/detalhe?tx_toponimia_pi1%5Baction%5D=show&tx_toponimia_pi1%5Bcontroller%5D=Toponimia&tx_toponimia_pi1%5Btopid%5D=851","id":"way/682174944"},"geometry":{"type":"LineString","coordinates":[[-9.1716155,38.7645781],[-9.1713651,38.7648074],[-9.1712391,38.765351]]}},{"type":"Feature","id":"way/682174945","properties":{"timestamp":"2023-06-27T18:44:38Z","version":"5","changeset":"137848258","user":"hvalentim","uid":"705092","description":"Toponímia: Político Italiano 1922 - 1984. Início: Rua Prof. Queiroz Veloso. Fim: Rua Aldo Moro.","highway":"service","name":"Rua Enrico Berlinguer","service":"driveway","source:description":"dadosabertos.cm-lisboa.pt","source:pkey":"851","start_date":"1991-03-12","website":"https://revelar.lisboa.pt/explorar/toponimia/detalhe?tx_toponimia_pi1%5Baction%5D=show&tx_toponimia_pi1%5Bcontroller%5D=Toponimia&tx_toponimia_pi1%5Btopid%5D=851","id":"way/682174945"},"geometry":{"type":"LineString","coordinates":[[-9.1713651,38.7648074],[-9.1709952,38.7645252]]}},{"type":"Feature","id":"way/684026554","properties":{"timestamp":"2026-04-11T00:17:50Z","version":"5","changeset":"181170744","user":"aselvadeasfalto","uid":"11912760","description":"Toponímia: Arquitecto e Pintor 1915 - 1994. Início: Confluência da Prof. Prado Coelho e a Rua Armindo Rodrigues. Fim: Rua Daniel Santa Rita.","highway":"residential","junction":"roundabout","name":"Rua Frederico George","name:etymology:wikidata":"Q10285779","source:description":"dadosabertos.cm-lisboa.pt","source:pkey":"2757","start_date":"1996-10-22","website":"https://revelar.lisboa.pt/explorar/toponimia/detalhe?tx_toponimia_pi1%5Baction%5D=show&tx_toponimia_pi1%5Bcontroller%5D=Toponimia&tx_toponimia_pi1%5Btopid%5D=2757","id":"way/684026554"},"geometry":{"type":"LineString","coordinates":[[-9.164866,38.7694022],[-9.1648962,38.7694147],[-9.16493,38.7694186],[-9.1649636,38.7694132],[-9.1649928,38.7693993],[-9.1650142,38.7693786]]}},{"type":"Feature","id":"way/684026555","properties":{"timestamp":"2026-04-11T00:17:50Z","version":"7","changeset":"181170744","user":"aselvadeasfalto","uid":"11912760","description":"Toponímia: Arquitecto e Pintor 1915 - 1994. Início: Confluência da Prof. Prado Coelho e a Rua Armindo Rodrigues. Fim: Rua Daniel Santa Rita.","highway":"residential","name":"Rua Frederico George","name:etymology:wikidata":"Q10285779","oneway":"no","source:description":"dadosabertos.cm-lisboa.pt","source:pkey":"2757","start_date":"1996-10-22","website":"https://revelar.lisboa.pt/explorar/toponimia/detalhe?tx_toponimia_pi1%5Baction%5D=show&tx_toponimia_pi1%5Bcontroller%5D=Toponimia&tx_toponimia_pi1%5Btopid%5D=2757","id":"way/684026555"},"geometry":{"type":"LineString","coordinates":[[-9.1656127,38.7701715],[-9.1655744,38.7701139],[-9.1652743,38.7696884],[-9.1650791,38.7694254],[-9.1650142,38.7693786]]}},{"type":"Feature","id":"way/686377703","properties":{"timestamp":"2026-04-10T14:56:43Z","version":"7","changeset":"181152258","user":"aselvadeasfalto","uid":"11912760","description":"Toponímia: Instituições. Início: Rua Prof. Pulido Valente. Fim: Praça São Francisco de Assis.","highway":"secondary","lanes":"2","layer":"-1","name":"Avenida das Nações Unidas","name:etymology:wikidata":"Q1065","oneway":"yes","source:description":"dadosabertos.cm-lisboa.pt","source:pkey":"606","start_date":"1989-11-24","surface":"asphalt","tunnel":"yes","website":"https://revelar.lisboa.pt/explorar/toponimia/detalhe?tx_toponimia_pi1%5Baction%5D=show&tx_toponimia_pi1%5Bcontroller%5D=Toponimia&tx_toponimia_pi1%5Btopid%5D=606","id":"way/686377703"},"geometry":{"type":"LineString","coordinates":[[-9.1727638,38.7636274],[-9.1730539,38.7636933],[-9.1731449,38.7637068]]}},{"type":"Feature","id":"way/722386221","properties":{"timestamp":"2024-11-04T19:49:13Z","version":"5","changeset":"158754896","user":"powerslave00","uid":"3445540","bicycle":"no","foot":"no","highway":"trunk","horse":"no","lanes":"3","name":"Eixo Norte-Sul","oneway":"yes","ref":"IP 7","surface":"asphalt","toll":"no","id":"way/722386221"},"geometry":{"type":"LineString","coordinates":[[-9.1717346,38.7673471],[-9.1713518,38.7677493],[-9.1709767,38.7680851],[-9.1706202,38.7683404],[-9.1701431,38.7686437],[-9.1699604,38.7687348],[-9.1690617,38.7691742],[-9.1675865,38.7698849]]}},{"type":"Feature","id":"way/753742229","properties":{"timestamp":"2024-01-30T23:03:44Z","version":"10","changeset":"146882542","user":"RazorWind","uid":"11152051","description":"Toponímia: Matemático 1901 - 1948. Início: Rua Abel Salazar. Fim: Rua Prof. Prado Coelho.","highway":"residential","lit":"yes","name":"Rua Professor Bento de Jesus Caraça","oneway":"yes","source":"bing","source:description":"dadosabertos.cm-lisboa.pt","source:pkey":"61","start_date":"1978-03-06","surface":"asphalt","website":"https://revelar.lisboa.pt/explorar/toponimia/detalhe?tx_toponimia_pi1%5Baction%5D=show&tx_toponimia_pi1%5Bcontroller%5D=Toponimia&tx_toponimia_pi1%5Btopid%5D=61","id":"way/753742229"},"geometry":{"type":"LineString","coordinates":[[-9.1709372,38.766917],[-9.1704954,38.7664518],[-9.1704482,38.7663749],[-9.1704356,38.7662831],[-9.1704819,38.7660988],[-9.1705631,38.7658091],[-9.1705579,38.7657015],[-9.1705323,38.7656319],[-9.1703985,38.7654649],[-9.1703568,38.7654226],[-9.1703366,38.7653722],[-9.1703267,38.7653223],[-9.1704899,38.7647818],[-9.1705155,38.7646982],[-9.1705111,38.7646418],[-9.1704891,38.7645986],[-9.1704365,38.7645637],[-9.1703471,38.7645404],[-9.1686859,38.7642537],[-9.1685777,38.764239],[-9.1685237,38.7642425],[-9.1685016,38.7642517],[-9.1684665,38.7642826],[-9.1684301,38.7643266],[-9.1684095,38.7643856],[-9.1683726,38.7645195]]}},{"type":"Feature","id":"way/842729142","properties":{"timestamp":"2026-04-11T00:17:50Z","version":"4","changeset":"181170744","user":"aselvadeasfalto","uid":"11912760","description":"Toponímia: Arquitecto e Pintor 1915 - 1994. Início: Confluência da Prof. Prado Coelho e a Rua Armindo Rodrigues. Fim: Rua Daniel Santa Rita.","highway":"residential","name":"Rua Frederico George","name:etymology:wikidata":"Q10285779","source:description":"dadosabertos.cm-lisboa.pt","source:pkey":"2757","start_date":"1996-10-22","website":"https://revelar.lisboa.pt/explorar/toponimia/detalhe?tx_toponimia_pi1%5Baction%5D=show&tx_toponimia_pi1%5Bcontroller%5D=Toponimia&tx_toponimia_pi1%5Btopid%5D=2757","id":"way/842729142"},"geometry":{"type":"LineString","coordinates":[[-9.1704087,38.7674079],[-9.1703502,38.7676099],[-9.1702894,38.7678189]]}},{"type":"Feature","id":"way/842729143","properties":{"timestamp":"2023-10-10T09:43:05Z","version":"3","changeset":"142384779","user":"kcpels","uid":"11062493","description":"Toponímia: Escritor 1916-1993. Início: Rua Professor Paulo Merêa. Fim: Confluência das Ruas: Rua Prof. Queiroz Veloso e Rua Prof. Prado Coelho.","highway":"service","name":"Rua Mário Dionísio","source":"cm-lisboa.pt/toponimia","start_date":"2005-08-01","id":"way/842729143"},"geometry":{"type":"LineString","coordinates":[[-9.1708862,38.7636373],[-9.1712206,38.7636213],[-9.171231,38.7638597],[-9.1717122,38.7642232],[-9.1717438,38.7642274],[-9.1717827,38.7642235],[-9.1720909,38.7639815],[-9.1722197,38.7640834],[-9.1722326,38.7641073],[-9.1722246,38.764141],[-9.1718345,38.7644636],[-9.1719904,38.7645805]]}},{"type":"Feature","id":"way/842887723","properties":{"timestamp":"2023-06-27T18:44:40Z","version":"3","changeset":"137848258","user":"hvalentim","uid":"705092","description":"Toponímia: Jurista 1929 - 1983. Início: Rua Prof. Prado Coelho. Fim: Terras.","highway":"service","name":"Rua Professor João de Castro Mendes","source":"dadosabertos.cm-lisboa.pt","source:pkey":"2843","start_date":"1990-07-30","website":"https://revelar.lisboa.pt/explorar/toponimia/detalhe?tx_toponimia_pi1%5Baction%5D=show&tx_toponimia_pi1%5Bcontroller%5D=Toponimia&tx_toponimia_pi1%5Btopid%5D=2843","id":"way/842887723"},"geometry":{"type":"LineString","coordinates":[[-9.1724372,38.7657291],[-9.1722656,38.7656974],[-9.1724637,38.7649932]]}},{"type":"Feature","id":"way/842887724","properties":{"timestamp":"2023-06-27T18:44:40Z","version":"3","changeset":"137848258","user":"hvalentim","uid":"705092","description":"Toponímia: Jurista 1929 - 1983. Início: Rua Prof. Prado Coelho. Fim: Terras.","highway":"service","name":"Rua Professor João de Castro Mendes","source":"dadosabertos.cm-lisboa.pt","source:pkey":"2843","start_date":"1990-07-30","website":"https://revelar.lisboa.pt/explorar/toponimia/detalhe?tx_toponimia_pi1%5Baction%5D=show&tx_toponimia_pi1%5Bcontroller%5D=Toponimia&tx_toponimia_pi1%5Btopid%5D=2843","id":"way/842887724"},"geometry":{"type":"LineString","coordinates":[[-9.1718316,38.7667119],[-9.1719812,38.7662755],[-9.1721693,38.7663238]]}},{"type":"Feature","id":"way/842887725","properties":{"timestamp":"2026-04-11T00:19:47Z","version":"4","changeset":"181170744","user":"aselvadeasfalto","uid":"11912760","description":"Toponímia: Filólogo 1920 - 1984. Início: Rua Prof. João Barreira. Fim: Rua Armindo Rodrigues.","highway":"service","name":"Rua Professor Prado Coelho","name:etymology:wikidata":"Q5340732","source":"dadosabertos.cm-lisboa.pt","source:pkey":"76","start_date":"1984-10-29","website":"https://revelar.lisboa.pt/explorar/toponimia/detalhe?tx_toponimia_pi1%5Baction%5D=show&tx_toponimia_pi1%5Bcontroller%5D=Toponimia&tx_toponimia_pi1%5Btopid%5D=76","id":"way/842887725"},"geometry":{"type":"LineString","coordinates":[[-9.1714862,38.7666611],[-9.1716342,38.7661591]]}},{"type":"Feature","id":"way/846819202","properties":{"timestamp":"2025-08-14T16:06:39Z","version":"6","changeset":"170444734","user":"aselvadeasfalto","uid":"11912760","description":"Toponímia: Filósofo e Escritor 1888 - 1962. Início: Avenida Padre Cruz. Fim: Rua Prof. Francisco Gentil.","highway":"tertiary","lanes":"4","maxspeed":"30","maxspeed:type":"sign","name":"Rua Professor Vieira de Almeida","name:etymology:wikidata":"Q10390531","source":"bing","source:description":"dadosabertos.cm-lisboa.pt","source:pkey":"2666","start_date":"1978-03-06","surface":"asphalt","website":"https://revelar.lisboa.pt/explorar/toponimia/detalhe?tx_toponimia_pi1%5Baction%5D=show&tx_toponimia_pi1%5Bcontroller%5D=Toponimia&tx_toponimia_pi1%5Btopid%5D=2666","id":"way/846819202"},"geometry":{"type":"LineString","coordinates":[[-9.1673219,38.7657832],[-9.1673175,38.7658628],[-9.1672896,38.7659401],[-9.1672549,38.7659808],[-9.1670199,38.7662473],[-9.1665971,38.7667268],[-9.1664337,38.7668841],[-9.1663157,38.7669624],[-9.1661976,38.7670116],[-9.1660249,38.7670425],[-9.1658126,38.7670474]]}},{"type":"Feature","id":"way/846819203","properties":{"timestamp":"2023-06-27T18:44:40Z","version":"5","changeset":"137848258","user":"hvalentim","uid":"705092","description":"Toponímia: Matemático 1901 - 1948. Início: Rua Abel Salazar. Fim: Rua Prof. Prado Coelho.","highway":"residential","name":"Rua Professor Bento de Jesus Caraça","oneway":"yes","source":"bing","source:description":"dadosabertos.cm-lisboa.pt","source:pkey":"61","start_date":"1978-03-06","surface":"asphalt","website":"https://revelar.lisboa.pt/explorar/toponimia/detalhe?tx_toponimia_pi1%5Baction%5D=show&tx_toponimia_pi1%5Bcontroller%5D=Toponimia&tx_toponimia_pi1%5Btopid%5D=61","id":"way/846819203"},"geometry":{"type":"LineString","coordinates":[[-9.1676552,38.7659169],[-9.1674746,38.7658384],[-9.1673219,38.7657832]]}},{"type":"Feature","id":"way/846819204","properties":{"timestamp":"2023-06-27T18:44:40Z","version":"5","changeset":"137848258","user":"hvalentim","uid":"705092","description":"Toponímia: Matemático 1901 - 1948. Início: Rua Abel Salazar. Fim: Rua Prof. Prado Coelho.","highway":"residential","name":"Rua Professor Bento de Jesus Caraça","source":"bing","source:description":"dadosabertos.cm-lisboa.pt","source:pkey":"61","start_date":"1978-03-06","surface":"asphalt","website":"https://revelar.lisboa.pt/explorar/toponimia/detalhe?tx_toponimia_pi1%5Baction%5D=show&tx_toponimia_pi1%5Bcontroller%5D=Toponimia&tx_toponimia_pi1%5Btopid%5D=61","id":"way/846819204"},"geometry":{"type":"LineString","coordinates":[[-9.1676552,38.7659169],[-9.1679081,38.7659581],[-9.1679457,38.7659642]]}},{"type":"Feature","id":"way/881493143","properties":{"timestamp":"2024-10-20T14:06:07Z","version":"2","changeset":"158129950","user":"DanielAgos","uid":"20972402","highway":"service","id":"way/881493143"},"geometry":{"type":"LineString","coordinates":[[-9.170022,38.7683252],[-9.1700495,38.7683012],[-9.1700589,38.7682735],[-9.1700515,38.7682473],[-9.1700313,38.7682192],[-9.1698978,38.7680328]]}},{"type":"Feature","id":"way/948125173","properties":{"timestamp":"2026-04-10T14:56:43Z","version":"6","changeset":"181152258","user":"aselvadeasfalto","uid":"11912760","description":"Toponímia: Médico 1884 - 1963. Início: Rua Prof. Vieira de Almeida. Fim: Avenida das Nações Unidas.","highway":"secondary","lanes":"4","name":"Rua Professor Pulido Valente","name:etymology:wikidata":"Q10285097","source":"bing","source:description":"dadosabertos.cm-lisboa.pt","source:pkey":"2069","start_date":"1978-03-06","surface":"asphalt","website":"https://revelar.lisboa.pt/explorar/toponimia/detalhe?tx_toponimia_pi1%5Baction%5D=show&tx_toponimia_pi1%5Bcontroller%5D=Toponimia&tx_toponimia_pi1%5Btopid%5D=2069","id":"way/948125173"},"geometry":{"type":"LineString","coordinates":[[-9.1687687,38.7632908],[-9.1675332,38.7633299]]}},{"type":"Feature","id":"way/961106204","properties":{"timestamp":"2023-06-27T18:44:40Z","version":"3","changeset":"137848258","user":"hvalentim","uid":"705092","description":"Toponímia: Matemático 1901 - 1948. Início: Rua Abel Salazar. Fim: Rua Prof. Prado Coelho.","highway":"residential","name":"Rua Professor Bento de Jesus Caraça","source":"bing","source:description":"dadosabertos.cm-lisboa.pt","source:pkey":"61","start_date":"1978-03-06","website":"https://revelar.lisboa.pt/explorar/toponimia/detalhe?tx_toponimia_pi1%5Baction%5D=show&tx_toponimia_pi1%5Bcontroller%5D=Toponimia&tx_toponimia_pi1%5Btopid%5D=61","id":"way/961106204"},"geometry":{"type":"LineString","coordinates":[[-9.1683726,38.7645195],[-9.1683194,38.764713],[-9.1681192,38.7654334],[-9.1679457,38.7659642]]}},{"type":"Feature","id":"way/1029450499","properties":{"timestamp":"2023-06-27T18:44:40Z","version":"3","changeset":"137848258","user":"hvalentim","uid":"705092","description":"Toponímia: Historiador de Arte - 1866 - 1961. Início: Rua Fernando Namora. Fim: Rua Professor Pulido Valente e Avenida das Nações Unidas.","highway":"residential","lanes":"2","name":"Rua Professor João Barreira","oneway":"yes","source:description":"dadosabertos.cm-lisboa.pt","source:pkey":"3023","start_date":"1978-03-06","surface":"asphalt","website":"https://revelar.lisboa.pt/explorar/toponimia/detalhe?tx_toponimia_pi1%5Baction%5D=show&tx_toponimia_pi1%5Bcontroller%5D=Toponimia&tx_toponimia_pi1%5Btopid%5D=3023","id":"way/1029450499"},"geometry":{"type":"LineString","coordinates":[[-9.170765,38.763009],[-9.1707368,38.7630655],[-9.1707389,38.7631297],[-9.1707449,38.7631674],[-9.1707677,38.7632093],[-9.1707922,38.7632498]]}},{"type":"Feature","id":"way/1029451430","properties":{"timestamp":"2026-04-10T14:56:43Z","version":"5","changeset":"181152258","user":"aselvadeasfalto","uid":"11912760","description":"Toponímia: Médico 1884 - 1963. Início: Rua Prof. Vieira de Almeida. Fim: Avenida das Nações Unidas.","highway":"secondary","lanes":"4","name":"Rua Professor Pulido Valente","name:etymology:wikidata":"Q10285097","source":"bing","source:description":"dadosabertos.cm-lisboa.pt","source:pkey":"2069","start_date":"1978-03-06","surface":"asphalt","website":"https://revelar.lisboa.pt/explorar/toponimia/detalhe?tx_toponimia_pi1%5Baction%5D=show&tx_toponimia_pi1%5Bcontroller%5D=Toponimia&tx_toponimia_pi1%5Btopid%5D=2069","id":"way/1029451430"},"geometry":{"type":"LineString","coordinates":[[-9.1702936,38.7632474],[-9.1692204,38.7632779],[-9.1687687,38.7632908]]}},{"type":"Feature","id":"way/1113471087","properties":{"timestamp":"2022-11-15T22:44:13Z","version":"1","changeset":"128962263","user":"DiogoBaptista98","uid":"1193685","access":"private","highway":"service","service":"driveway","tunnel":"building_passage","id":"way/1113471087"},"geometry":{"type":"LineString","coordinates":[[-9.1678637,38.7690932],[-9.1679196,38.7691717]]}},{"type":"Feature","id":"way/1113471088","properties":{"timestamp":"2022-11-15T22:44:13Z","version":"1","changeset":"128962263","user":"DiogoBaptista98","uid":"1193685","access":"private","highway":"service","service":"driveway","id":"way/1113471088"},"geometry":{"type":"LineString","coordinates":[[-9.1677799,38.7689754],[-9.1678637,38.7690932]]}},{"type":"Feature","id":"way/1113471089","properties":{"timestamp":"2022-11-15T22:44:13Z","version":"1","changeset":"128962263","user":"DiogoBaptista98","uid":"1193685","access":"private","highway":"service","service":"driveway","id":"way/1113471089"},"geometry":{"type":"LineString","coordinates":[[-9.1679196,38.7691717],[-9.1679761,38.769251],[-9.1684879,38.7690295]]}},{"type":"Feature","id":"way/1113471090","properties":{"timestamp":"2022-11-15T22:44:13Z","version":"1","changeset":"128962263","user":"DiogoBaptista98","uid":"1193685","access":"private","highway":"service","service":"driveway","id":"way/1113471090"},"geometry":{"type":"LineString","coordinates":[[-9.1679064,38.7692872],[-9.1674739,38.7694775],[-9.167349,38.7693027],[-9.1672756,38.7691999]]}},{"type":"Feature","id":"way/1113471091","properties":{"timestamp":"2022-11-15T22:44:13Z","version":"1","changeset":"128962263","user":"DiogoBaptista98","uid":"1193685","access":"private","highway":"service","service":"driveway","id":"way/1113471091"},"geometry":{"type":"LineString","coordinates":[[-9.1673598,38.7695317],[-9.1667074,38.7698207],[-9.1666064,38.7696821],[-9.1665535,38.7696095]]}},{"type":"Feature","id":"way/1326262926","properties":{"timestamp":"2024-10-20T14:06:07Z","version":"1","changeset":"158129950","user":"DanielAgos","uid":"20972402","access":"private","highway":"service","layer":"-1","tunnel":"building_passage","id":"way/1326262926"},"geometry":{"type":"LineString","coordinates":[[-9.1692284,38.7684727],[-9.169296,38.7685634]]}},{"type":"Feature","id":"way/1326262927","properties":{"timestamp":"2024-10-20T14:06:07Z","version":"1","changeset":"158129950","user":"DanielAgos","uid":"20972402","access":"private","highway":"service","id":"way/1326262927"},"geometry":{"type":"LineString","coordinates":[[-9.169296,38.7685634],[-9.1693484,38.7686337]]}},{"type":"Feature","id":"way/1326262928","properties":{"timestamp":"2024-10-20T14:06:07Z","version":"1","changeset":"158129950","user":"DanielAgos","uid":"20972402","access":"private","highway":"service","id":"way/1326262928"},"geometry":{"type":"LineString","coordinates":[[-9.169149,38.7683661],[-9.1692284,38.7684727]]}},{"type":"Feature","id":"way/1326262929","properties":{"timestamp":"2024-10-20T14:06:07Z","version":"1","changeset":"158129950","user":"DanielAgos","uid":"20972402","access":"private","highway":"service","id":"way/1326262929"},"geometry":{"type":"LineString","coordinates":[[-9.1694844,38.7685713],[-9.170022,38.7683252]]}},{"type":"Feature","id":"way/1326262930","properties":{"timestamp":"2024-10-20T14:06:07Z","version":"1","changeset":"158129950","user":"DanielAgos","uid":"20972402","access":"private","highway":"service","id":"way/1326262930"},"geometry":{"type":"LineString","coordinates":[[-9.1689122,38.7688334],[-9.1693484,38.7686337],[-9.1694657,38.7685791]]}},{"type":"Feature","id":"way/1355522432","properties":{"timestamp":"2025-01-31T00:38:44Z","version":"1","changeset":"161960084","user":"DanielAgos","uid":"20972402","description":"Toponímia: Político - 1862 - 1934. Início: Rua Abel Salazar. Fim: sem saída.","highway":"residential","name":"Rua Brito Camacho","oneway":"yes","source":"bing","source:description":"dadosabertos.cm-lisboa.pt","source:pkey":"2028","start_date":"1997-12-09","website":"https://revelar.lisboa.pt/explorar/toponimia/detalhe?tx_toponimia_pi1%5Baction%5D=show&tx_toponimia_pi1%5Bcontroller%5D=Toponimia&tx_toponimia_pi1%5Btopid%5D=2028","id":"way/1355522432"},"geometry":{"type":"LineString","coordinates":[[-9.1670884,38.7673648],[-9.1672254,38.7668055]]}}]}